<?xml version="1.0" encoding="UTF-8"?>
<gpx version="1.1" creator="en.daringdaddy.com" xmlns="http://www.topografix.com/GPX/1/1">
<metadata><name>Aka-dake loop: Shinkyoji-one up, Kenkai-one down</name><desc>Hagoromo-ike entrance - Shinkyoji-one - Aka-dake - Kenkai-one - Sun Meadows Kiyosato. One trip, August 2026; timestamps removed. en.daringdaddy.com</desc></metadata>
<trk><name>Aka-dake loop: Shinkyoji-one up, Kenkai-one down</name>
<trkseg>
<trkpt lat="35.94203" lon="138.41617"><ele>1575</ele></trkpt>
<trkpt lat="35.94212" lon="138.41614"><ele>1560</ele></trkpt>
<trkpt lat="35.94234" lon="138.41592"><ele>1559</ele></trkpt>
<trkpt lat="35.9425" lon="138.41554"><ele>1559</ele></trkpt>
<trkpt lat="35.94262" lon="138.41527"><ele>1560</ele></trkpt>
<trkpt lat="35.94279" lon="138.41505"><ele>1566</ele></trkpt>
<trkpt lat="35.94301" lon="138.4149"><ele>1569</ele></trkpt>
<trkpt lat="35.94321" lon="138.41477"><ele>1573</ele></trkpt>
<trkpt lat="35.94323" lon="138.41447"><ele>1579</ele></trkpt>
<trkpt lat="35.9432" lon="138.41419"><ele>1581</ele></trkpt>
<trkpt lat="35.94337" lon="138.41408"><ele>1587</ele></trkpt>
<trkpt lat="35.94339" lon="138.41383"><ele>1593</ele></trkpt>
<trkpt lat="35.94333" lon="138.41361"><ele>1597</ele></trkpt>
<trkpt lat="35.94327" lon="138.41339"><ele>1605</ele></trkpt>
<trkpt lat="35.94328" lon="138.4132"><ele>1611</ele></trkpt>
<trkpt lat="35.94345" lon="138.41308"><ele>1617</ele></trkpt>
<trkpt lat="35.94346" lon="138.4128"><ele>1620</ele></trkpt>
<trkpt lat="35.94363" lon="138.41261"><ele>1619</ele></trkpt>
<trkpt lat="35.94377" lon="138.41226"><ele>1623</ele></trkpt>
<trkpt lat="35.94395" lon="138.4121"><ele>1624</ele></trkpt>
<trkpt lat="35.94406" lon="138.41185"><ele>1631</ele></trkpt>
<trkpt lat="35.94412" lon="138.41162"><ele>1632</ele></trkpt>
<trkpt lat="35.94426" lon="138.41146"><ele>1636</ele></trkpt>
<trkpt lat="35.94443" lon="138.41131"><ele>1638</ele></trkpt>
<trkpt lat="35.94466" lon="138.41125"><ele>1641</ele></trkpt>
<trkpt lat="35.94488" lon="138.41113"><ele>1644</ele></trkpt>
<trkpt lat="35.94508" lon="138.41096"><ele>1647</ele></trkpt>
<trkpt lat="35.94526" lon="138.41077"><ele>1648</ele></trkpt>
<trkpt lat="35.94547" lon="138.41058"><ele>1653</ele></trkpt>
<trkpt lat="35.94552" lon="138.41037"><ele>1656</ele></trkpt>
<trkpt lat="35.94562" lon="138.41017"><ele>1660</ele></trkpt>
<trkpt lat="35.94582" lon="138.41001"><ele>1663</ele></trkpt>
<trkpt lat="35.94582" lon="138.40971"><ele>1666</ele></trkpt>
<trkpt lat="35.94585" lon="138.40947"><ele>1671</ele></trkpt>
<trkpt lat="35.94585" lon="138.40918"><ele>1675</ele></trkpt>
<trkpt lat="35.94581" lon="138.40895"><ele>1678</ele></trkpt>
<trkpt lat="35.9458" lon="138.40871"><ele>1683</ele></trkpt>
<trkpt lat="35.94578" lon="138.40848"><ele>1693</ele></trkpt>
<trkpt lat="35.94577" lon="138.40822"><ele>1695</ele></trkpt>
<trkpt lat="35.94583" lon="138.40801"><ele>1704</ele></trkpt>
<trkpt lat="35.94587" lon="138.40778"><ele>1707</ele></trkpt>
<trkpt lat="35.94587" lon="138.40755"><ele>1710</ele></trkpt>
<trkpt lat="35.94595" lon="138.40728"><ele>1718</ele></trkpt>
<trkpt lat="35.94606" lon="138.4071"><ele>1723</ele></trkpt>
<trkpt lat="35.94611" lon="138.40694"><ele>1731</ele></trkpt>
<trkpt lat="35.9462" lon="138.40673"><ele>1731</ele></trkpt>
<trkpt lat="35.94625" lon="138.40651"><ele>1737</ele></trkpt>
<trkpt lat="35.94629" lon="138.40634"><ele>1740</ele></trkpt>
<trkpt lat="35.94637" lon="138.40622"><ele>1746</ele></trkpt>
<trkpt lat="35.94644" lon="138.40606"><ele>1749</ele></trkpt>
<trkpt lat="35.94653" lon="138.40581"><ele>1757</ele></trkpt>
<trkpt lat="35.94669" lon="138.40571"><ele>1764</ele></trkpt>
<trkpt lat="35.94674" lon="138.40547"><ele>1768</ele></trkpt>
<trkpt lat="35.94685" lon="138.40533"><ele>1776</ele></trkpt>
<trkpt lat="35.9469" lon="138.40516"><ele>1778</ele></trkpt>
<trkpt lat="35.94695" lon="138.40494"><ele>1779</ele></trkpt>
<trkpt lat="35.94709" lon="138.4048"><ele>1785</ele></trkpt>
<trkpt lat="35.94723" lon="138.40472"><ele>1790</ele></trkpt>
<trkpt lat="35.94741" lon="138.40471"><ele>1792</ele></trkpt>
<trkpt lat="35.94753" lon="138.40459"><ele>1796</ele></trkpt>
<trkpt lat="35.94765" lon="138.40453"><ele>1799</ele></trkpt>
<trkpt lat="35.94781" lon="138.40441"><ele>1804</ele></trkpt>
<trkpt lat="35.94794" lon="138.40436"><ele>1806</ele></trkpt>
<trkpt lat="35.94811" lon="138.40428"><ele>1813</ele></trkpt>
<trkpt lat="35.94833" lon="138.40429"><ele>1817</ele></trkpt>
<trkpt lat="35.94848" lon="138.40413"><ele>1821</ele></trkpt>
<trkpt lat="35.94864" lon="138.40404"><ele>1826</ele></trkpt>
<trkpt lat="35.94882" lon="138.40408"><ele>1829</ele></trkpt>
<trkpt lat="35.94901" lon="138.40395"><ele>1835</ele></trkpt>
<trkpt lat="35.94915" lon="138.40381"><ele>1839</ele></trkpt>
<trkpt lat="35.94934" lon="138.40369"><ele>1842</ele></trkpt>
<trkpt lat="35.94942" lon="138.40354"><ele>1845</ele></trkpt>
<trkpt lat="35.94959" lon="138.40344"><ele>1850</ele></trkpt>
<trkpt lat="35.94968" lon="138.40331"><ele>1854</ele></trkpt>
<trkpt lat="35.94982" lon="138.40311"><ele>1859</ele></trkpt>
<trkpt lat="35.94991" lon="138.40292"><ele>1864</ele></trkpt>
<trkpt lat="35.94999" lon="138.40277"><ele>1869</ele></trkpt>
<trkpt lat="35.95004" lon="138.40261"><ele>1873</ele></trkpt>
<trkpt lat="35.95011" lon="138.40246"><ele>1877</ele></trkpt>
<trkpt lat="35.95018" lon="138.40224"><ele>1879</ele></trkpt>
<trkpt lat="35.95026" lon="138.40203"><ele>1884</ele></trkpt>
<trkpt lat="35.95036" lon="138.40187"><ele>1886</ele></trkpt>
<trkpt lat="35.95048" lon="138.4017"><ele>1893</ele></trkpt>
<trkpt lat="35.95064" lon="138.40162"><ele>1896</ele></trkpt>
<trkpt lat="35.95076" lon="138.4015"><ele>1901</ele></trkpt>
<trkpt lat="35.9509" lon="138.40136"><ele>1907</ele></trkpt>
<trkpt lat="35.95097" lon="138.40115"><ele>1905</ele></trkpt>
<trkpt lat="35.95113" lon="138.40085"><ele>1902</ele></trkpt>
<trkpt lat="35.95124" lon="138.40057"><ele>1902</ele></trkpt>
<trkpt lat="35.95124" lon="138.40022"><ele>1902</ele></trkpt>
<trkpt lat="35.9513" lon="138.39999"><ele>1900</ele></trkpt>
<trkpt lat="35.95128" lon="138.39969"><ele>1905</ele></trkpt>
<trkpt lat="35.95117" lon="138.39944"><ele>1905</ele></trkpt>
<trkpt lat="35.9512" lon="138.39924"><ele>1910</ele></trkpt>
<trkpt lat="35.9512" lon="138.39898"><ele>1916</ele></trkpt>
<trkpt lat="35.9513" lon="138.39885"><ele>1924</ele></trkpt>
<trkpt lat="35.95133" lon="138.39859"><ele>1930</ele></trkpt>
<trkpt lat="35.9514" lon="138.39844"><ele>1935</ele></trkpt>
<trkpt lat="35.95148" lon="138.39824"><ele>1943</ele></trkpt>
<trkpt lat="35.95154" lon="138.39809"><ele>1948</ele></trkpt>
<trkpt lat="35.95165" lon="138.39798"><ele>1956</ele></trkpt>
<trkpt lat="35.95168" lon="138.39788"><ele>1962</ele></trkpt>
<trkpt lat="35.95169" lon="138.39766"><ele>1970</ele></trkpt>
<trkpt lat="35.95165" lon="138.3975"><ele>1974</ele></trkpt>
<trkpt lat="35.95154" lon="138.39733"><ele>1980</ele></trkpt>
<trkpt lat="35.95149" lon="138.39717"><ele>1983</ele></trkpt>
<trkpt lat="35.95151" lon="138.39697"><ele>1985</ele></trkpt>
<trkpt lat="35.95165" lon="138.39698"><ele>1995</ele></trkpt>
<trkpt lat="35.95182" lon="138.39697"><ele>2001</ele></trkpt>
<trkpt lat="35.95198" lon="138.39693"><ele>2008</ele></trkpt>
<trkpt lat="35.95214" lon="138.3968"><ele>2011</ele></trkpt>
<trkpt lat="35.95227" lon="138.39664"><ele>2017</ele></trkpt>
<trkpt lat="35.95236" lon="138.39652"><ele>2023</ele></trkpt>
<trkpt lat="35.95241" lon="138.39636"><ele>2026</ele></trkpt>
<trkpt lat="35.95252" lon="138.39626"><ele>2031</ele></trkpt>
<trkpt lat="35.9526" lon="138.39609"><ele>2039</ele></trkpt>
<trkpt lat="35.95271" lon="138.39599"><ele>2046</ele></trkpt>
<trkpt lat="35.95284" lon="138.39588"><ele>2053</ele></trkpt>
<trkpt lat="35.95291" lon="138.39574"><ele>2059</ele></trkpt>
<trkpt lat="35.95299" lon="138.39567"><ele>2058</ele></trkpt>
<trkpt lat="35.95309" lon="138.39548"><ele>2057</ele></trkpt>
<trkpt lat="35.95321" lon="138.39529"><ele>2058</ele></trkpt>
<trkpt lat="35.95328" lon="138.39508"><ele>2061</ele></trkpt>
<trkpt lat="35.95343" lon="138.39495"><ele>2063</ele></trkpt>
<trkpt lat="35.95357" lon="138.39471"><ele>2063</ele></trkpt>
<trkpt lat="35.95371" lon="138.39455"><ele>2070</ele></trkpt>
<trkpt lat="35.95381" lon="138.39435"><ele>2076</ele></trkpt>
<trkpt lat="35.95384" lon="138.39419"><ele>2084</ele></trkpt>
<trkpt lat="35.9539" lon="138.39404"><ele>2087</ele></trkpt>
<trkpt lat="35.95397" lon="138.3939"><ele>2095</ele></trkpt>
<trkpt lat="35.95403" lon="138.39374"><ele>2100</ele></trkpt>
<trkpt lat="35.95412" lon="138.39359"><ele>2110</ele></trkpt>
<trkpt lat="35.95418" lon="138.39345"><ele>2112</ele></trkpt>
<trkpt lat="35.95426" lon="138.39325"><ele>2117</ele></trkpt>
<trkpt lat="35.95436" lon="138.39299"><ele>2119</ele></trkpt>
<trkpt lat="35.95439" lon="138.39276"><ele>2123</ele></trkpt>
<trkpt lat="35.95447" lon="138.39255"><ele>2126</ele></trkpt>
<trkpt lat="35.95442" lon="138.3924"><ele>2134</ele></trkpt>
<trkpt lat="35.95445" lon="138.39224"><ele>2136</ele></trkpt>
<trkpt lat="35.95456" lon="138.39208"><ele>2146</ele></trkpt>
<trkpt lat="35.95448" lon="138.39194"><ele>2155</ele></trkpt>
<trkpt lat="35.95447" lon="138.39178"><ele>2164</ele></trkpt>
<trkpt lat="35.95453" lon="138.39163"><ele>2174</ele></trkpt>
<trkpt lat="35.9546" lon="138.39148"><ele>2179</ele></trkpt>
<trkpt lat="35.95464" lon="138.39134"><ele>2188</ele></trkpt>
<trkpt lat="35.95466" lon="138.39114"><ele>2197</ele></trkpt>
<trkpt lat="35.95456" lon="138.39097"><ele>2205</ele></trkpt>
<trkpt lat="35.95459" lon="138.3908"><ele>2209</ele></trkpt>
<trkpt lat="35.95457" lon="138.39063"><ele>2215</ele></trkpt>
<trkpt lat="35.95458" lon="138.39046"><ele>2219</ele></trkpt>
<trkpt lat="35.95456" lon="138.39028"><ele>2226</ele></trkpt>
<trkpt lat="35.95456" lon="138.39011"><ele>2231</ele></trkpt>
<trkpt lat="35.95455" lon="138.38989"><ele>2241</ele></trkpt>
<trkpt lat="35.95463" lon="138.38973"><ele>2245</ele></trkpt>
<trkpt lat="35.95464" lon="138.38951"><ele>2250</ele></trkpt>
<trkpt lat="35.95463" lon="138.3894"><ele>2258</ele></trkpt>
<trkpt lat="35.95462" lon="138.38923"><ele>2263</ele></trkpt>
<trkpt lat="35.95455" lon="138.38915"><ele>2269</ele></trkpt>
<trkpt lat="35.95448" lon="138.38903"><ele>2270</ele></trkpt>
<trkpt lat="35.95451" lon="138.38886"><ele>2276</ele></trkpt>
<trkpt lat="35.95443" lon="138.38873"><ele>2279</ele></trkpt>
<trkpt lat="35.95457" lon="138.3886"><ele>2280</ele></trkpt>
<trkpt lat="35.95473" lon="138.38846"><ele>2278</ele></trkpt>
<trkpt lat="35.95487" lon="138.38823"><ele>2275</ele></trkpt>
<trkpt lat="35.95504" lon="138.38802"><ele>2274</ele></trkpt>
<trkpt lat="35.95517" lon="138.38778"><ele>2273</ele></trkpt>
<trkpt lat="35.95528" lon="138.38761"><ele>2273</ele></trkpt>
<trkpt lat="35.95544" lon="138.38737"><ele>2277</ele></trkpt>
<trkpt lat="35.95557" lon="138.38712"><ele>2276</ele></trkpt>
<trkpt lat="35.95573" lon="138.38689"><ele>2278</ele></trkpt>
<trkpt lat="35.95586" lon="138.38672"><ele>2282</ele></trkpt>
<trkpt lat="35.95601" lon="138.38657"><ele>2285</ele></trkpt>
<trkpt lat="35.95613" lon="138.38638"><ele>2292</ele></trkpt>
<trkpt lat="35.95625" lon="138.38619"><ele>2293</ele></trkpt>
<trkpt lat="35.95639" lon="138.38613"><ele>2299</ele></trkpt>
<trkpt lat="35.95648" lon="138.38595"><ele>2302</ele></trkpt>
<trkpt lat="35.9566" lon="138.38585"><ele>2309</ele></trkpt>
<trkpt lat="35.95671" lon="138.38576"><ele>2314</ele></trkpt>
<trkpt lat="35.95681" lon="138.38564"><ele>2320</ele></trkpt>
<trkpt lat="35.95694" lon="138.38555"><ele>2327</ele></trkpt>
<trkpt lat="35.957" lon="138.38533"><ele>2329</ele></trkpt>
<trkpt lat="35.95708" lon="138.38528"><ele>2330</ele></trkpt>
<trkpt lat="35.95728" lon="138.38516"><ele>2328</ele></trkpt>
<trkpt lat="35.9575" lon="138.38505"><ele>2325</ele></trkpt>
<trkpt lat="35.95768" lon="138.38487"><ele>2319</ele></trkpt>
<trkpt lat="35.95779" lon="138.38467"><ele>2313</ele></trkpt>
<trkpt lat="35.95795" lon="138.38446"><ele>2309</ele></trkpt>
<trkpt lat="35.9581" lon="138.3843"><ele>2311</ele></trkpt>
<trkpt lat="35.95825" lon="138.38416"><ele>2306</ele></trkpt>
<trkpt lat="35.95846" lon="138.38392"><ele>2300</ele></trkpt>
<trkpt lat="35.95865" lon="138.3837"><ele>2297</ele></trkpt>
<trkpt lat="35.95881" lon="138.38341"><ele>2301</ele></trkpt>
<trkpt lat="35.95898" lon="138.38322"><ele>2298</ele></trkpt>
<trkpt lat="35.95914" lon="138.383"><ele>2296</ele></trkpt>
<trkpt lat="35.95929" lon="138.38273"><ele>2295</ele></trkpt>
<trkpt lat="35.95937" lon="138.38246"><ele>2297</ele></trkpt>
<trkpt lat="35.95949" lon="138.38223"><ele>2300</ele></trkpt>
<trkpt lat="35.95971" lon="138.3821"><ele>2299</ele></trkpt>
<trkpt lat="35.95995" lon="138.38202"><ele>2297</ele></trkpt>
<trkpt lat="35.96019" lon="138.38197"><ele>2298</ele></trkpt>
<trkpt lat="35.96046" lon="138.38186"><ele>2294</ele></trkpt>
<trkpt lat="35.96069" lon="138.38165"><ele>2295</ele></trkpt>
<trkpt lat="35.96086" lon="138.38142"><ele>2295</ele></trkpt>
<trkpt lat="35.96108" lon="138.38132"><ele>2305</ele></trkpt>
<trkpt lat="35.9612" lon="138.38112"><ele>2308</ele></trkpt>
<trkpt lat="35.96133" lon="138.38108"><ele>2311</ele></trkpt>
<trkpt lat="35.9615" lon="138.3809"><ele>2313</ele></trkpt>
<trkpt lat="35.96161" lon="138.38079"><ele>2312</ele></trkpt>
<trkpt lat="35.96179" lon="138.38058"><ele>2307</ele></trkpt>
<trkpt lat="35.96197" lon="138.38037"><ele>2307</ele></trkpt>
<trkpt lat="35.9622" lon="138.38015"><ele>2301</ele></trkpt>
<trkpt lat="35.96243" lon="138.3799"><ele>2301</ele></trkpt>
<trkpt lat="35.96262" lon="138.37971"><ele>2299</ele></trkpt>
<trkpt lat="35.96281" lon="138.37956"><ele>2298</ele></trkpt>
<trkpt lat="35.96296" lon="138.37927"><ele>2297</ele></trkpt>
<trkpt lat="35.96321" lon="138.37917"><ele>2295</ele></trkpt>
<trkpt lat="35.96346" lon="138.3791"><ele>2297</ele></trkpt>
<trkpt lat="35.96366" lon="138.3791"><ele>2304</ele></trkpt>
<trkpt lat="35.96381" lon="138.379"><ele>2307</ele></trkpt>
<trkpt lat="35.96395" lon="138.37881"><ele>2313</ele></trkpt>
<trkpt lat="35.96408" lon="138.37861"><ele>2320</ele></trkpt>
<trkpt lat="35.96416" lon="138.37842"><ele>2325</ele></trkpt>
<trkpt lat="35.96425" lon="138.37833"><ele>2332</ele></trkpt>
<trkpt lat="35.96437" lon="138.37818"><ele>2337</ele></trkpt>
<trkpt lat="35.96447" lon="138.37807"><ele>2341</ele></trkpt>
<trkpt lat="35.96464" lon="138.37798"><ele>2348</ele></trkpt>
<trkpt lat="35.96474" lon="138.37787"><ele>2356</ele></trkpt>
<trkpt lat="35.96486" lon="138.37776"><ele>2361</ele></trkpt>
<trkpt lat="35.96492" lon="138.37767"><ele>2368</ele></trkpt>
<trkpt lat="35.96501" lon="138.37753"><ele>2372</ele></trkpt>
<trkpt lat="35.96511" lon="138.37732"><ele>2375</ele></trkpt>
<trkpt lat="35.96525" lon="138.37719"><ele>2380</ele></trkpt>
<trkpt lat="35.96531" lon="138.37703"><ele>2390</ele></trkpt>
<trkpt lat="35.96541" lon="138.37689"><ele>2396</ele></trkpt>
<trkpt lat="35.96552" lon="138.37678"><ele>2406</ele></trkpt>
<trkpt lat="35.96562" lon="138.37667"><ele>2410</ele></trkpt>
<trkpt lat="35.96573" lon="138.37656"><ele>2413</ele></trkpt>
<trkpt lat="35.96583" lon="138.37645"><ele>2420</ele></trkpt>
<trkpt lat="35.96596" lon="138.3764"><ele>2427</ele></trkpt>
<trkpt lat="35.9661" lon="138.37631"><ele>2441</ele></trkpt>
<trkpt lat="35.96615" lon="138.37621"><ele>2447</ele></trkpt>
<trkpt lat="35.96627" lon="138.37607"><ele>2454</ele></trkpt>
<trkpt lat="35.96636" lon="138.37596"><ele>2463</ele></trkpt>
<trkpt lat="35.96646" lon="138.37585"><ele>2472</ele></trkpt>
<trkpt lat="35.96653" lon="138.3757"><ele>2476</ele></trkpt>
<trkpt lat="35.96661" lon="138.37558"><ele>2481</ele></trkpt>
<trkpt lat="35.96669" lon="138.3755"><ele>2485</ele></trkpt>
<trkpt lat="35.9668" lon="138.37541"><ele>2490</ele></trkpt>
<trkpt lat="35.96691" lon="138.3753"><ele>2495</ele></trkpt>
<trkpt lat="35.96696" lon="138.37508"><ele>2498</ele></trkpt>
<trkpt lat="35.96703" lon="138.37491"><ele>2500</ele></trkpt>
<trkpt lat="35.96709" lon="138.37472"><ele>2504</ele></trkpt>
<trkpt lat="35.96713" lon="138.37454"><ele>2513</ele></trkpt>
<trkpt lat="35.9672" lon="138.37439"><ele>2518</ele></trkpt>
<trkpt lat="35.96723" lon="138.37427"><ele>2528</ele></trkpt>
<trkpt lat="35.96727" lon="138.37411"><ele>2534</ele></trkpt>
<trkpt lat="35.96736" lon="138.37398"><ele>2540</ele></trkpt>
<trkpt lat="35.9674" lon="138.37387"><ele>2544</ele></trkpt>
<trkpt lat="35.96747" lon="138.37374"><ele>2554</ele></trkpt>
<trkpt lat="35.96758" lon="138.37363"><ele>2564</ele></trkpt>
<trkpt lat="35.96761" lon="138.37348"><ele>2574</ele></trkpt>
<trkpt lat="35.96766" lon="138.37334"><ele>2583</ele></trkpt>
<trkpt lat="35.9677" lon="138.37319"><ele>2591</ele></trkpt>
<trkpt lat="35.96772" lon="138.37304"><ele>2600</ele></trkpt>
<trkpt lat="35.96777" lon="138.37289"><ele>2607</ele></trkpt>
<trkpt lat="35.96777" lon="138.37278"><ele>2615</ele></trkpt>
<trkpt lat="35.96776" lon="138.37262"><ele>2627</ele></trkpt>
<trkpt lat="35.96782" lon="138.37253"><ele>2633</ele></trkpt>
<trkpt lat="35.96785" lon="138.37243"><ele>2640</ele></trkpt>
<trkpt lat="35.96791" lon="138.37221"><ele>2653</ele></trkpt>
<trkpt lat="35.96794" lon="138.3721"><ele>2663</ele></trkpt>
<trkpt lat="35.96802" lon="138.37201"><ele>2670</ele></trkpt>
<trkpt lat="35.96809" lon="138.37187"><ele>2677</ele></trkpt>
<trkpt lat="35.96819" lon="138.37182"><ele>2691</ele></trkpt>
<trkpt lat="35.96828" lon="138.37177"><ele>2701</ele></trkpt>
<trkpt lat="35.96842" lon="138.37163"><ele>2715</ele></trkpt>
<trkpt lat="35.96847" lon="138.37154"><ele>2724</ele></trkpt>
<trkpt lat="35.96856" lon="138.3715"><ele>2730</ele></trkpt>
<trkpt lat="35.96866" lon="138.37143"><ele>2747</ele></trkpt>
<trkpt lat="35.96874" lon="138.37138"><ele>2758</ele></trkpt>
<trkpt lat="35.96875" lon="138.37122"><ele>2762</ele></trkpt>
<trkpt lat="35.96883" lon="138.37116"><ele>2775</ele></trkpt>
<trkpt lat="35.96889" lon="138.371"><ele>2779</ele></trkpt>
<trkpt lat="35.96897" lon="138.37085"><ele>2785</ele></trkpt>
<trkpt lat="35.96907" lon="138.37072"><ele>2787</ele></trkpt>
<trkpt lat="35.96916" lon="138.37061"><ele>2796</ele></trkpt>
<trkpt lat="35.96923" lon="138.37055"><ele>2803</ele></trkpt>
<trkpt lat="35.96923" lon="138.37033"><ele>2817</ele></trkpt>
<trkpt lat="35.96931" lon="138.37021"><ele>2827</ele></trkpt>
<trkpt lat="35.96939" lon="138.37007"><ele>2832</ele></trkpt>
<trkpt lat="35.9695" lon="138.37013"><ele>2845</ele></trkpt>
<trkpt lat="35.96959" lon="138.37012"><ele>2846</ele></trkpt>
<trkpt lat="35.96972" lon="138.37002"><ele>2866</ele></trkpt>
<trkpt lat="35.96986" lon="138.37015"><ele>2869</ele></trkpt>
<trkpt lat="35.97" lon="138.37016"><ele>2864</ele></trkpt>
<trkpt lat="35.97009" lon="138.37017"><ele>2863</ele></trkpt>
<trkpt lat="35.97022" lon="138.37013"><ele>2864</ele></trkpt>
<trkpt lat="35.97036" lon="138.37011"><ele>2866</ele></trkpt>
<trkpt lat="35.97049" lon="138.37013"><ele>2880</ele></trkpt>
<trkpt lat="35.97062" lon="138.37009"><ele>2891</ele></trkpt>
<trkpt lat="35.9708" lon="138.37013"><ele>2889</ele></trkpt>
<trkpt lat="35.97097" lon="138.37018"><ele>2896</ele></trkpt>
<trkpt lat="35.97106" lon="138.37024"><ele>2891</ele></trkpt>
<trkpt lat="35.97116" lon="138.37034"><ele>2891</ele></trkpt>
<trkpt lat="35.97123" lon="138.37046"><ele>2889</ele></trkpt>
<trkpt lat="35.97135" lon="138.3706"><ele>2887</ele></trkpt>
<trkpt lat="35.9712" lon="138.37063"><ele>2879</ele></trkpt>
<trkpt lat="35.97134" lon="138.37066"><ele>2884</ele></trkpt>
<trkpt lat="35.97149" lon="138.37076"><ele>2872</ele></trkpt>
<trkpt lat="35.97158" lon="138.37088"><ele>2860</ele></trkpt>
<trkpt lat="35.97163" lon="138.37098"><ele>2852</ele></trkpt>
<trkpt lat="35.97173" lon="138.37109"><ele>2841</ele></trkpt>
<trkpt lat="35.97183" lon="138.37121"><ele>2827</ele></trkpt>
<trkpt lat="35.97199" lon="138.37133"><ele>2817</ele></trkpt>
<trkpt lat="35.97205" lon="138.37142"><ele>2808</ele></trkpt>
<trkpt lat="35.97202" lon="138.37152"><ele>2801</ele></trkpt>
<trkpt lat="35.97202" lon="138.37164"><ele>2794</ele></trkpt>
<trkpt lat="35.97191" lon="138.37181"><ele>2782</ele></trkpt>
<trkpt lat="35.97179" lon="138.372"><ele>2775</ele></trkpt>
<trkpt lat="35.97172" lon="138.37218"><ele>2769</ele></trkpt>
<trkpt lat="35.97164" lon="138.37232"><ele>2761</ele></trkpt>
<trkpt lat="35.97169" lon="138.37249"><ele>2752</ele></trkpt>
<trkpt lat="35.97172" lon="138.37266"><ele>2739</ele></trkpt>
<trkpt lat="35.97176" lon="138.37275"><ele>2733</ele></trkpt>
<trkpt lat="35.97179" lon="138.3729"><ele>2719</ele></trkpt>
<trkpt lat="35.97181" lon="138.37302"><ele>2714</ele></trkpt>
<trkpt lat="35.97171" lon="138.37321"><ele>2705</ele></trkpt>
<trkpt lat="35.97171" lon="138.37341"><ele>2693</ele></trkpt>
<trkpt lat="35.97176" lon="138.37357"><ele>2688</ele></trkpt>
<trkpt lat="35.97181" lon="138.37367"><ele>2678</ele></trkpt>
<trkpt lat="35.9718" lon="138.37379"><ele>2670</ele></trkpt>
<trkpt lat="35.97175" lon="138.37395"><ele>2662</ele></trkpt>
<trkpt lat="35.97167" lon="138.37413"><ele>2652</ele></trkpt>
<trkpt lat="35.97162" lon="138.37422"><ele>2640</ele></trkpt>
<trkpt lat="35.97142" lon="138.37433"><ele>2627</ele></trkpt>
<trkpt lat="35.97139" lon="138.3745"><ele>2617</ele></trkpt>
<trkpt lat="35.97138" lon="138.37467"><ele>2609</ele></trkpt>
<trkpt lat="35.97136" lon="138.37488"><ele>2600</ele></trkpt>
<trkpt lat="35.97135" lon="138.37507"><ele>2591</ele></trkpt>
<trkpt lat="35.97129" lon="138.37529"><ele>2584</ele></trkpt>
<trkpt lat="35.97133" lon="138.37558"><ele>2575</ele></trkpt>
<trkpt lat="35.97127" lon="138.3758"><ele>2571</ele></trkpt>
<trkpt lat="35.97128" lon="138.37603"><ele>2561</ele></trkpt>
<trkpt lat="35.97122" lon="138.37626"><ele>2557</ele></trkpt>
<trkpt lat="35.97121" lon="138.37649"><ele>2548</ele></trkpt>
<trkpt lat="35.97123" lon="138.3767"><ele>2541</ele></trkpt>
<trkpt lat="35.9713" lon="138.3769"><ele>2533</ele></trkpt>
<trkpt lat="35.97136" lon="138.37712"><ele>2523</ele></trkpt>
<trkpt lat="35.9714" lon="138.37729"><ele>2517</ele></trkpt>
<trkpt lat="35.97145" lon="138.3775"><ele>2507</ele></trkpt>
<trkpt lat="35.97147" lon="138.37768"><ele>2497</ele></trkpt>
<trkpt lat="35.97148" lon="138.37784"><ele>2490</ele></trkpt>
<trkpt lat="35.97152" lon="138.37801"><ele>2481</ele></trkpt>
<trkpt lat="35.97149" lon="138.37819"><ele>2475</ele></trkpt>
<trkpt lat="35.97152" lon="138.37842"><ele>2467</ele></trkpt>
<trkpt lat="35.97154" lon="138.37866"><ele>2459</ele></trkpt>
<trkpt lat="35.97156" lon="138.37889"><ele>2453</ele></trkpt>
<trkpt lat="35.97161" lon="138.37917"><ele>2447</ele></trkpt>
<trkpt lat="35.97163" lon="138.37946"><ele>2441</ele></trkpt>
<trkpt lat="35.97159" lon="138.37977"><ele>2436</ele></trkpt>
<trkpt lat="35.97157" lon="138.38013"><ele>2438</ele></trkpt>
<trkpt lat="35.97162" lon="138.38034"><ele>2435</ele></trkpt>
<trkpt lat="35.97159" lon="138.38064"><ele>2434</ele></trkpt>
<trkpt lat="35.97153" lon="138.38103"><ele>2434</ele></trkpt>
<trkpt lat="35.9715" lon="138.38137"><ele>2436</ele></trkpt>
<trkpt lat="35.97144" lon="138.38173"><ele>2436</ele></trkpt>
<trkpt lat="35.97132" lon="138.38193"><ele>2435</ele></trkpt>
<trkpt lat="35.97117" lon="138.38207"><ele>2427</ele></trkpt>
<trkpt lat="35.971" lon="138.38218"><ele>2418</ele></trkpt>
<trkpt lat="35.97083" lon="138.38235"><ele>2408</ele></trkpt>
<trkpt lat="35.97067" lon="138.38254"><ele>2401</ele></trkpt>
<trkpt lat="35.97055" lon="138.38269"><ele>2393</ele></trkpt>
<trkpt lat="35.97045" lon="138.38283"><ele>2386</ele></trkpt>
<trkpt lat="35.9703" lon="138.38305"><ele>2377</ele></trkpt>
<trkpt lat="35.97022" lon="138.38318"><ele>2368</ele></trkpt>
<trkpt lat="35.97004" lon="138.38335"><ele>2358</ele></trkpt>
<trkpt lat="35.96989" lon="138.38353"><ele>2350</ele></trkpt>
<trkpt lat="35.96974" lon="138.38366"><ele>2341</ele></trkpt>
<trkpt lat="35.96957" lon="138.38375"><ele>2332</ele></trkpt>
<trkpt lat="35.96941" lon="138.38383"><ele>2327</ele></trkpt>
<trkpt lat="35.96925" lon="138.38404"><ele>2319</ele></trkpt>
<trkpt lat="35.96912" lon="138.38422"><ele>2315</ele></trkpt>
<trkpt lat="35.96904" lon="138.38443"><ele>2312</ele></trkpt>
<trkpt lat="35.96893" lon="138.38476"><ele>2310</ele></trkpt>
<trkpt lat="35.96884" lon="138.38503"><ele>2303</ele></trkpt>
<trkpt lat="35.96869" lon="138.38535"><ele>2296</ele></trkpt>
<trkpt lat="35.96858" lon="138.3857"><ele>2290</ele></trkpt>
<trkpt lat="35.96836" lon="138.38604"><ele>2289</ele></trkpt>
<trkpt lat="35.96813" lon="138.38637"><ele>2297</ele></trkpt>
<trkpt lat="35.96791" lon="138.38683"><ele>2284</ele></trkpt>
<trkpt lat="35.96778" lon="138.38725"><ele>2281</ele></trkpt>
<trkpt lat="35.96766" lon="138.38759"><ele>2277</ele></trkpt>
<trkpt lat="35.9676" lon="138.38793"><ele>2272</ele></trkpt>
<trkpt lat="35.96749" lon="138.38841"><ele>2264</ele></trkpt>
<trkpt lat="35.96738" lon="138.38884"><ele>2258</ele></trkpt>
<trkpt lat="35.96724" lon="138.38917"><ele>2257</ele></trkpt>
<trkpt lat="35.96706" lon="138.38947"><ele>2256</ele></trkpt>
<trkpt lat="35.96691" lon="138.3898"><ele>2251</ele></trkpt>
<trkpt lat="35.96686" lon="138.39008"><ele>2243</ele></trkpt>
<trkpt lat="35.96666" lon="138.39038"><ele>2236</ele></trkpt>
<trkpt lat="35.96648" lon="138.39065"><ele>2237</ele></trkpt>
<trkpt lat="35.96634" lon="138.39096"><ele>2228</ele></trkpt>
<trkpt lat="35.96621" lon="138.39131"><ele>2224</ele></trkpt>
<trkpt lat="35.96613" lon="138.39174"><ele>2221</ele></trkpt>
<trkpt lat="35.96597" lon="138.39218"><ele>2217</ele></trkpt>
<trkpt lat="35.96589" lon="138.39255"><ele>2212</ele></trkpt>
<trkpt lat="35.96587" lon="138.39294"><ele>2208</ele></trkpt>
<trkpt lat="35.96584" lon="138.39337"><ele>2206</ele></trkpt>
<trkpt lat="35.96575" lon="138.39375"><ele>2202</ele></trkpt>
<trkpt lat="35.96566" lon="138.39421"><ele>2195</ele></trkpt>
<trkpt lat="35.9656" lon="138.3946"><ele>2197</ele></trkpt>
<trkpt lat="35.96553" lon="138.39496"><ele>2194</ele></trkpt>
<trkpt lat="35.9654" lon="138.3953"><ele>2196</ele></trkpt>
<trkpt lat="35.96518" lon="138.39562"><ele>2196</ele></trkpt>
<trkpt lat="35.96504" lon="138.39595"><ele>2189</ele></trkpt>
<trkpt lat="35.9649" lon="138.39639"><ele>2184</ele></trkpt>
<trkpt lat="35.96484" lon="138.39657"><ele>2183</ele></trkpt>
<trkpt lat="35.96477" lon="138.39695"><ele>2173</ele></trkpt>
<trkpt lat="35.9646" lon="138.39735"><ele>2175</ele></trkpt>
<trkpt lat="35.96449" lon="138.39768"><ele>2174</ele></trkpt>
<trkpt lat="35.96435" lon="138.3981"><ele>2177</ele></trkpt>
<trkpt lat="35.96432" lon="138.39846"><ele>2170</ele></trkpt>
<trkpt lat="35.96418" lon="138.39872"><ele>2167</ele></trkpt>
<trkpt lat="35.96403" lon="138.39875"><ele>2161</ele></trkpt>
<trkpt lat="35.96389" lon="138.39872"><ele>2149</ele></trkpt>
<trkpt lat="35.96371" lon="138.39879"><ele>2140</ele></trkpt>
<trkpt lat="35.9636" lon="138.39886"><ele>2132</ele></trkpt>
<trkpt lat="35.96341" lon="138.39877"><ele>2116</ele></trkpt>
<trkpt lat="35.96328" lon="138.39871"><ele>2109</ele></trkpt>
<trkpt lat="35.96312" lon="138.39874"><ele>2097</ele></trkpt>
<trkpt lat="35.96294" lon="138.39873"><ele>2088</ele></trkpt>
<trkpt lat="35.96275" lon="138.39874"><ele>2078</ele></trkpt>
<trkpt lat="35.96258" lon="138.39873"><ele>2069</ele></trkpt>
<trkpt lat="35.96249" lon="138.39875"><ele>2066</ele></trkpt>
<trkpt lat="35.96226" lon="138.39885"><ele>2056</ele></trkpt>
<trkpt lat="35.96206" lon="138.399"><ele>2045</ele></trkpt>
<trkpt lat="35.96194" lon="138.39911"><ele>2035</ele></trkpt>
<trkpt lat="35.96177" lon="138.39924"><ele>2027</ele></trkpt>
<trkpt lat="35.96146" lon="138.39927"><ele>2018</ele></trkpt>
<trkpt lat="35.96112" lon="138.39932"><ele>2015</ele></trkpt>
<trkpt lat="35.9609" lon="138.39922"><ele>2003</ele></trkpt>
<trkpt lat="35.9607" lon="138.39918"><ele>1993</ele></trkpt>
<trkpt lat="35.96057" lon="138.39911"><ele>1983</ele></trkpt>
<trkpt lat="35.96049" lon="138.39892"><ele>1974</ele></trkpt>
<trkpt lat="35.96033" lon="138.39884"><ele>1962</ele></trkpt>
<trkpt lat="35.96019" lon="138.39876"><ele>1954</ele></trkpt>
<trkpt lat="35.96003" lon="138.39862"><ele>1948</ele></trkpt>
<trkpt lat="35.9602" lon="138.3985"><ele>1941</ele></trkpt>
<trkpt lat="35.96029" lon="138.39826"><ele>1930</ele></trkpt>
<trkpt lat="35.96021" lon="138.39813"><ele>1923</ele></trkpt>
<trkpt lat="35.96017" lon="138.39797"><ele>1911</ele></trkpt>
<trkpt lat="35.96004" lon="138.39781"><ele>1897</ele></trkpt>
<trkpt lat="35.95993" lon="138.39768"><ele>1894</ele></trkpt>
<trkpt lat="35.95976" lon="138.39747"><ele>1886</ele></trkpt>
<trkpt lat="35.95956" lon="138.39729"><ele>1876</ele></trkpt>
<trkpt lat="35.95935" lon="138.39724"><ele>1869</ele></trkpt>
<trkpt lat="35.95908" lon="138.39721"><ele>1866</ele></trkpt>
<trkpt lat="35.95895" lon="138.39732"><ele>1864</ele></trkpt>
<trkpt lat="35.95883" lon="138.39752"><ele>1854</ele></trkpt>
<trkpt lat="35.95873" lon="138.39795"><ele>1849</ele></trkpt>
<trkpt lat="35.95864" lon="138.3983"><ele>1843</ele></trkpt>
<trkpt lat="35.95844" lon="138.39858"><ele>1835</ele></trkpt>
<trkpt lat="35.95826" lon="138.39878"><ele>1831</ele></trkpt>
<trkpt lat="35.95808" lon="138.39897"><ele>1825</ele></trkpt>
<trkpt lat="35.95801" lon="138.39941"><ele>1822</ele></trkpt>
<trkpt lat="35.95782" lon="138.39972"><ele>1820</ele></trkpt>
<trkpt lat="35.95763" lon="138.40001"><ele>1816</ele></trkpt>
<trkpt lat="35.95737" lon="138.40017"><ele>1810</ele></trkpt>
<trkpt lat="35.95733" lon="138.40061"><ele>1806</ele></trkpt>
<trkpt lat="35.95713" lon="138.40094"><ele>1803</ele></trkpt>
<trkpt lat="35.95695" lon="138.40132"><ele>1795</ele></trkpt>
<trkpt lat="35.95675" lon="138.40159"><ele>1787</ele></trkpt>
<trkpt lat="35.95655" lon="138.40194"><ele>1779</ele></trkpt>
<trkpt lat="35.95635" lon="138.40236"><ele>1776</ele></trkpt>
<trkpt lat="35.95612" lon="138.40257"><ele>1770</ele></trkpt>
<trkpt lat="35.95594" lon="138.40288"><ele>1763</ele></trkpt>
<trkpt lat="35.95579" lon="138.40314"><ele>1761</ele></trkpt>
<trkpt lat="35.95566" lon="138.40351"><ele>1758</ele></trkpt>
<trkpt lat="35.95549" lon="138.4038"><ele>1754</ele></trkpt>
<trkpt lat="35.9553" lon="138.40418"><ele>1748</ele></trkpt>
<trkpt lat="35.95503" lon="138.40447"><ele>1748</ele></trkpt>
<trkpt lat="35.95497" lon="138.4048"><ele>1742</ele></trkpt>
<trkpt lat="35.95485" lon="138.40513"><ele>1735</ele></trkpt>
<trkpt lat="35.95476" lon="138.40555"><ele>1730</ele></trkpt>
<trkpt lat="35.95475" lon="138.40599"><ele>1727</ele></trkpt>
<trkpt lat="35.95467" lon="138.40644"><ele>1726</ele></trkpt>
<trkpt lat="35.95463" lon="138.40685"><ele>1722</ele></trkpt>
<trkpt lat="35.9546" lon="138.40723"><ele>1720</ele></trkpt>
<trkpt lat="35.95455" lon="138.40765"><ele>1716</ele></trkpt>
<trkpt lat="35.95446" lon="138.40802"><ele>1710</ele></trkpt>
<trkpt lat="35.9543" lon="138.40836"><ele>1704</ele></trkpt>
<trkpt lat="35.95411" lon="138.40872"><ele>1699</ele></trkpt>
<trkpt lat="35.95412" lon="138.40911"><ele>1695</ele></trkpt>
<trkpt lat="35.9538" lon="138.40926"><ele>1691</ele></trkpt>
<trkpt lat="35.95349" lon="138.40943"><ele>1687</ele></trkpt>
<trkpt lat="35.95334" lon="138.4098"><ele>1688</ele></trkpt>
<trkpt lat="35.95321" lon="138.41019"><ele>1690</ele></trkpt>
<trkpt lat="35.95315" lon="138.41061"><ele>1681</ele></trkpt>
<trkpt lat="35.95308" lon="138.41107"><ele>1680</ele></trkpt>
<trkpt lat="35.95302" lon="138.41144"><ele>1675</ele></trkpt>
<trkpt lat="35.9529" lon="138.41182"><ele>1671</ele></trkpt>
<trkpt lat="35.95286" lon="138.41198"><ele>1672</ele></trkpt>
<trkpt lat="35.95305" lon="138.41234"><ele>1670</ele></trkpt>
<trkpt lat="35.95303" lon="138.4128"><ele>1664</ele></trkpt>
<trkpt lat="35.95292" lon="138.41322"><ele>1658</ele></trkpt>
<trkpt lat="35.95274" lon="138.41367"><ele>1653</ele></trkpt>
<trkpt lat="35.95255" lon="138.41402"><ele>1650</ele></trkpt>
<trkpt lat="35.9523" lon="138.41432"><ele>1648</ele></trkpt>
<trkpt lat="35.95201" lon="138.4146"><ele>1643</ele></trkpt>
<trkpt lat="35.95168" lon="138.41491"><ele>1642</ele></trkpt>
<trkpt lat="35.95151" lon="138.41532"><ele>1639</ele></trkpt>
<trkpt lat="35.95133" lon="138.41576"><ele>1636</ele></trkpt>
<trkpt lat="35.95104" lon="138.41606"><ele>1630</ele></trkpt>
<trkpt lat="35.95075" lon="138.41637"><ele>1627</ele></trkpt>
<trkpt lat="35.95046" lon="138.41664"><ele>1625</ele></trkpt>
<trkpt lat="35.95015" lon="138.41681"><ele>1619</ele></trkpt>
<trkpt lat="35.94981" lon="138.4169"><ele>1615</ele></trkpt>
<trkpt lat="35.94945" lon="138.41703"><ele>1612</ele></trkpt>
<trkpt lat="35.94917" lon="138.4173"><ele>1609</ele></trkpt>
<trkpt lat="35.94886" lon="138.41756"><ele>1605</ele></trkpt>
<trkpt lat="35.94854" lon="138.41772"><ele>1599</ele></trkpt>
<trkpt lat="35.94846" lon="138.41729"><ele>1600</ele></trkpt>
<trkpt lat="35.94832" lon="138.41685"><ele>1606</ele></trkpt>
<trkpt lat="35.94832" lon="138.41647"><ele>1607</ele></trkpt>
<trkpt lat="35.94836" lon="138.41609"><ele>1610</ele></trkpt>
<trkpt lat="35.94832" lon="138.41572"><ele>1613</ele></trkpt>
<trkpt lat="35.94817" lon="138.41552"><ele>1614</ele></trkpt>
<trkpt lat="35.94792" lon="138.41521"><ele>1613</ele></trkpt>
<trkpt lat="35.94769" lon="138.41502"><ele>1613</ele></trkpt>
</trkseg>
</trk>
</gpx>
