<?xml version="1.0" encoding="UTF-8"?>
<gpx version="1.1" creator="en.daringdaddy.com" xmlns="http://www.topografix.com/GPX/1/1">
<metadata><name>Warusawa-dake and Akaishi-dake loop from Sawarajima</name><desc>Recorded by the author on 2026-08-29/31 (timestamps removed). Sawarajima - Senmai hut - Senmai-dake - Warusawa-dake - Arakawa huts - Akaishi-dake - Akaishi hut - Sawarajima. One trip, one set of conditions: check current access and hut information before you go. Source: https://en.daringdaddy.com/</desc></metadata>
<trk><name>Warusawa-dake and Akaishi-dake loop from Sawarajima</name>
<trkseg>
<trkpt lat="35.43073" lon="138.20748"><ele>1140</ele></trkpt>
<trkpt lat="35.43092" lon="138.2074"><ele>1141</ele></trkpt>
<trkpt lat="35.43094" lon="138.20753"><ele>1141</ele></trkpt>
<trkpt lat="35.4311" lon="138.20756"><ele>1139</ele></trkpt>
<trkpt lat="35.43135" lon="138.20739"><ele>1138</ele></trkpt>
<trkpt lat="35.43162" lon="138.20723"><ele>1138</ele></trkpt>
<trkpt lat="35.43188" lon="138.20711"><ele>1140</ele></trkpt>
<trkpt lat="35.43207" lon="138.2069"><ele>1143</ele></trkpt>
<trkpt lat="35.43222" lon="138.20712"><ele>1156</ele></trkpt>
<trkpt lat="35.43245" lon="138.20711"><ele>1145</ele></trkpt>
<trkpt lat="35.43269" lon="138.20719"><ele>1150</ele></trkpt>
<trkpt lat="35.43291" lon="138.20714"><ele>1155</ele></trkpt>
<trkpt lat="35.43309" lon="138.20719"><ele>1162</ele></trkpt>
<trkpt lat="35.43323" lon="138.20701"><ele>1162</ele></trkpt>
<trkpt lat="35.43325" lon="138.20684"><ele>1180</ele></trkpt>
<trkpt lat="35.43338" lon="138.20675"><ele>1185</ele></trkpt>
<trkpt lat="35.43372" lon="138.2068"><ele>1182</ele></trkpt>
<trkpt lat="35.43401" lon="138.2068"><ele>1179</ele></trkpt>
<trkpt lat="35.43431" lon="138.20681"><ele>1182</ele></trkpt>
<trkpt lat="35.43461" lon="138.20684"><ele>1180</ele></trkpt>
<trkpt lat="35.43486" lon="138.20686"><ele>1170</ele></trkpt>
<trkpt lat="35.43516" lon="138.20689"><ele>1167</ele></trkpt>
<trkpt lat="35.43546" lon="138.20685"><ele>1167</ele></trkpt>
<trkpt lat="35.43573" lon="138.20679"><ele>1166</ele></trkpt>
<trkpt lat="35.43606" lon="138.20671"><ele>1164</ele></trkpt>
<trkpt lat="35.43634" lon="138.20653"><ele>1165</ele></trkpt>
<trkpt lat="35.43659" lon="138.2065"><ele>1158</ele></trkpt>
<trkpt lat="35.43675" lon="138.20673"><ele>1155</ele></trkpt>
<trkpt lat="35.43687" lon="138.20698"><ele>1140</ele></trkpt>
<trkpt lat="35.43692" lon="138.20735"><ele>1137</ele></trkpt>
<trkpt lat="35.43687" lon="138.20772"><ele>1151</ele></trkpt>
<trkpt lat="35.43702" lon="138.20796"><ele>1154</ele></trkpt>
<trkpt lat="35.43701" lon="138.20827"><ele>1159</ele></trkpt>
<trkpt lat="35.43699" lon="138.20862"><ele>1164</ele></trkpt>
<trkpt lat="35.4369" lon="138.2089"><ele>1168</ele></trkpt>
<trkpt lat="35.4371" lon="138.20916"><ele>1163</ele></trkpt>
<trkpt lat="35.4374" lon="138.2094"><ele>1164</ele></trkpt>
<trkpt lat="35.43751" lon="138.20944"><ele>1159</ele></trkpt>
<trkpt lat="35.43749" lon="138.20956"><ele>1162</ele></trkpt>
<trkpt lat="35.43763" lon="138.20971"><ele>1166</ele></trkpt>
<trkpt lat="35.43781" lon="138.2099"><ele>1175</ele></trkpt>
<trkpt lat="35.43783" lon="138.21008"><ele>1184</ele></trkpt>
<trkpt lat="35.43795" lon="138.21014"><ele>1189</ele></trkpt>
<trkpt lat="35.43798" lon="138.2103"><ele>1207</ele></trkpt>
<trkpt lat="35.43801" lon="138.21042"><ele>1211</ele></trkpt>
<trkpt lat="35.43813" lon="138.21043"><ele>1219</ele></trkpt>
<trkpt lat="35.43817" lon="138.21059"><ele>1225</ele></trkpt>
<trkpt lat="35.43819" lon="138.21082"><ele>1239</ele></trkpt>
<trkpt lat="35.43824" lon="138.21096"><ele>1245</ele></trkpt>
<trkpt lat="35.43836" lon="138.21112"><ele>1251</ele></trkpt>
<trkpt lat="35.43844" lon="138.21121"><ele>1266</ele></trkpt>
<trkpt lat="35.43859" lon="138.21129"><ele>1266</ele></trkpt>
<trkpt lat="35.43854" lon="138.21139"><ele>1279</ele></trkpt>
<trkpt lat="35.43864" lon="138.21154"><ele>1289</ele></trkpt>
<trkpt lat="35.43869" lon="138.21167"><ele>1300</ele></trkpt>
<trkpt lat="35.43877" lon="138.21173"><ele>1303</ele></trkpt>
<trkpt lat="35.43881" lon="138.21187"><ele>1311</ele></trkpt>
<trkpt lat="35.43881" lon="138.21199"><ele>1315</ele></trkpt>
<trkpt lat="35.43887" lon="138.21213"><ele>1325</ele></trkpt>
<trkpt lat="35.43894" lon="138.21229"><ele>1328</ele></trkpt>
<trkpt lat="35.439" lon="138.21239"><ele>1328</ele></trkpt>
<trkpt lat="35.43911" lon="138.2126"><ele>1335</ele></trkpt>
<trkpt lat="35.43916" lon="138.21269"><ele>1338</ele></trkpt>
<trkpt lat="35.43923" lon="138.21284"><ele>1345</ele></trkpt>
<trkpt lat="35.43929" lon="138.21297"><ele>1351</ele></trkpt>
<trkpt lat="35.43928" lon="138.21316"><ele>1359</ele></trkpt>
<trkpt lat="35.43938" lon="138.21334"><ele>1363</ele></trkpt>
<trkpt lat="35.43941" lon="138.21351"><ele>1371</ele></trkpt>
<trkpt lat="35.43948" lon="138.21364"><ele>1376</ele></trkpt>
<trkpt lat="35.43956" lon="138.2137"><ele>1380</ele></trkpt>
<trkpt lat="35.4397" lon="138.21373"><ele>1380</ele></trkpt>
<trkpt lat="35.43979" lon="138.21378"><ele>1386</ele></trkpt>
<trkpt lat="35.43996" lon="138.21382"><ele>1390</ele></trkpt>
<trkpt lat="35.44006" lon="138.21393"><ele>1399</ele></trkpt>
<trkpt lat="35.44022" lon="138.21403"><ele>1403</ele></trkpt>
<trkpt lat="35.44042" lon="138.21404"><ele>1405</ele></trkpt>
<trkpt lat="35.44054" lon="138.21421"><ele>1408</ele></trkpt>
<trkpt lat="35.44069" lon="138.21435"><ele>1412</ele></trkpt>
<trkpt lat="35.44078" lon="138.21453"><ele>1413</ele></trkpt>
<trkpt lat="35.44069" lon="138.21466"><ele>1415</ele></trkpt>
<trkpt lat="35.44057" lon="138.21492"><ele>1416</ele></trkpt>
<trkpt lat="35.44063" lon="138.2151"><ele>1416</ele></trkpt>
<trkpt lat="35.44079" lon="138.21522"><ele>1421</ele></trkpt>
<trkpt lat="35.44091" lon="138.21532"><ele>1422</ele></trkpt>
<trkpt lat="35.44112" lon="138.21539"><ele>1428</ele></trkpt>
<trkpt lat="35.4413" lon="138.21547"><ele>1430</ele></trkpt>
<trkpt lat="35.44147" lon="138.21546"><ele>1431</ele></trkpt>
<trkpt lat="35.44169" lon="138.2155"><ele>1431</ele></trkpt>
<trkpt lat="35.44184" lon="138.21544"><ele>1437</ele></trkpt>
<trkpt lat="35.442" lon="138.2155"><ele>1440</ele></trkpt>
<trkpt lat="35.44214" lon="138.21546"><ele>1442</ele></trkpt>
<trkpt lat="35.44238" lon="138.21536"><ele>1442</ele></trkpt>
<trkpt lat="35.44257" lon="138.21537"><ele>1441</ele></trkpt>
<trkpt lat="35.44271" lon="138.21533"><ele>1437</ele></trkpt>
<trkpt lat="35.4428" lon="138.21521"><ele>1434</ele></trkpt>
<trkpt lat="35.4429" lon="138.21503"><ele>1434</ele></trkpt>
<trkpt lat="35.44302" lon="138.21477"><ele>1431</ele></trkpt>
<trkpt lat="35.44319" lon="138.21463"><ele>1429</ele></trkpt>
<trkpt lat="35.44331" lon="138.21446"><ele>1426</ele></trkpt>
<trkpt lat="35.44342" lon="138.21438"><ele>1424</ele></trkpt>
<trkpt lat="35.44359" lon="138.21428"><ele>1422</ele></trkpt>
<trkpt lat="35.44373" lon="138.21416"><ele>1421</ele></trkpt>
<trkpt lat="35.44385" lon="138.21417"><ele>1414</ele></trkpt>
<trkpt lat="35.44394" lon="138.21415"><ele>1411</ele></trkpt>
<trkpt lat="35.44402" lon="138.21423"><ele>1402</ele></trkpt>
<trkpt lat="35.44417" lon="138.21418"><ele>1399</ele></trkpt>
<trkpt lat="35.44426" lon="138.21414"><ele>1397</ele></trkpt>
<trkpt lat="35.44437" lon="138.21412"><ele>1388</ele></trkpt>
<trkpt lat="35.44446" lon="138.21412"><ele>1389</ele></trkpt>
<trkpt lat="35.44459" lon="138.21411"><ele>1384</ele></trkpt>
<trkpt lat="35.44473" lon="138.21413"><ele>1384</ele></trkpt>
<trkpt lat="35.44483" lon="138.21415"><ele>1380</ele></trkpt>
<trkpt lat="35.44493" lon="138.21406"><ele>1379</ele></trkpt>
<trkpt lat="35.4451" lon="138.21392"><ele>1379</ele></trkpt>
<trkpt lat="35.44528" lon="138.21387"><ele>1377</ele></trkpt>
<trkpt lat="35.44538" lon="138.21371"><ele>1374</ele></trkpt>
<trkpt lat="35.44558" lon="138.21371"><ele>1376</ele></trkpt>
<trkpt lat="35.44577" lon="138.2137"><ele>1381</ele></trkpt>
<trkpt lat="35.44597" lon="138.21372"><ele>1381</ele></trkpt>
<trkpt lat="35.44615" lon="138.21379"><ele>1384</ele></trkpt>
<trkpt lat="35.44634" lon="138.2138"><ele>1390</ele></trkpt>
<trkpt lat="35.4465" lon="138.21378"><ele>1394</ele></trkpt>
<trkpt lat="35.44669" lon="138.21374"><ele>1398</ele></trkpt>
<trkpt lat="35.44683" lon="138.21369"><ele>1401</ele></trkpt>
<trkpt lat="35.44698" lon="138.21372"><ele>1404</ele></trkpt>
<trkpt lat="35.4471" lon="138.21357"><ele>1410</ele></trkpt>
<trkpt lat="35.44728" lon="138.21343"><ele>1416</ele></trkpt>
<trkpt lat="35.44723" lon="138.21362"><ele>1419</ele></trkpt>
<trkpt lat="35.44738" lon="138.21364"><ele>1422</ele></trkpt>
<trkpt lat="35.44748" lon="138.21359"><ele>1434</ele></trkpt>
<trkpt lat="35.44765" lon="138.21376"><ele>1435</ele></trkpt>
<trkpt lat="35.44781" lon="138.2137"><ele>1443</ele></trkpt>
<trkpt lat="35.44795" lon="138.2137"><ele>1450</ele></trkpt>
<trkpt lat="35.4479" lon="138.21353"><ele>1456</ele></trkpt>
<trkpt lat="35.44792" lon="138.21341"><ele>1459</ele></trkpt>
<trkpt lat="35.44802" lon="138.21342"><ele>1462</ele></trkpt>
<trkpt lat="35.44819" lon="138.21371"><ele>1466</ele></trkpt>
<trkpt lat="35.4483" lon="138.21388"><ele>1468</ele></trkpt>
<trkpt lat="35.44838" lon="138.21382"><ele>1477</ele></trkpt>
<trkpt lat="35.44857" lon="138.21387"><ele>1481</ele></trkpt>
<trkpt lat="35.44873" lon="138.21396"><ele>1489</ele></trkpt>
<trkpt lat="35.44889" lon="138.21406"><ele>1498</ele></trkpt>
<trkpt lat="35.44897" lon="138.2139"><ele>1510</ele></trkpt>
<trkpt lat="35.44904" lon="138.21407"><ele>1511</ele></trkpt>
<trkpt lat="35.44903" lon="138.21389"><ele>1514</ele></trkpt>
<trkpt lat="35.44912" lon="138.21403"><ele>1521</ele></trkpt>
<trkpt lat="35.44923" lon="138.214"><ele>1519</ele></trkpt>
<trkpt lat="35.44931" lon="138.21386"><ele>1532</ele></trkpt>
<trkpt lat="35.44943" lon="138.21398"><ele>1529</ele></trkpt>
<trkpt lat="35.44948" lon="138.21413"><ele>1536</ele></trkpt>
<trkpt lat="35.44964" lon="138.21413"><ele>1542</ele></trkpt>
<trkpt lat="35.44975" lon="138.21395"><ele>1547</ele></trkpt>
<trkpt lat="35.44974" lon="138.21377"><ele>1549</ele></trkpt>
<trkpt lat="35.44978" lon="138.21363"><ele>1558</ele></trkpt>
<trkpt lat="35.44991" lon="138.21357"><ele>1562</ele></trkpt>
<trkpt lat="35.44996" lon="138.21345"><ele>1563</ele></trkpt>
<trkpt lat="35.44999" lon="138.21333"><ele>1565</ele></trkpt>
<trkpt lat="35.45003" lon="138.21318"><ele>1567</ele></trkpt>
<trkpt lat="35.45021" lon="138.21312"><ele>1575</ele></trkpt>
<trkpt lat="35.45042" lon="138.21321"><ele>1578</ele></trkpt>
<trkpt lat="35.45065" lon="138.21329"><ele>1584</ele></trkpt>
<trkpt lat="35.45084" lon="138.21324"><ele>1589</ele></trkpt>
<trkpt lat="35.45102" lon="138.21327"><ele>1590</ele></trkpt>
<trkpt lat="35.45121" lon="138.21323"><ele>1593</ele></trkpt>
<trkpt lat="35.45138" lon="138.21322"><ele>1593</ele></trkpt>
<trkpt lat="35.45156" lon="138.21327"><ele>1594</ele></trkpt>
<trkpt lat="35.45174" lon="138.21333"><ele>1591</ele></trkpt>
<trkpt lat="35.45192" lon="138.21331"><ele>1590</ele></trkpt>
<trkpt lat="35.45215" lon="138.21329"><ele>1589</ele></trkpt>
<trkpt lat="35.45234" lon="138.2133"><ele>1590</ele></trkpt>
<trkpt lat="35.45252" lon="138.21322"><ele>1593</ele></trkpt>
<trkpt lat="35.45266" lon="138.21316"><ele>1596</ele></trkpt>
<trkpt lat="35.45285" lon="138.21312"><ele>1598</ele></trkpt>
<trkpt lat="35.453" lon="138.21315"><ele>1598</ele></trkpt>
<trkpt lat="35.45311" lon="138.21342"><ele>1600</ele></trkpt>
<trkpt lat="35.45322" lon="138.21361"><ele>1602</ele></trkpt>
<trkpt lat="35.4534" lon="138.21374"><ele>1609</ele></trkpt>
<trkpt lat="35.45354" lon="138.21374"><ele>1609</ele></trkpt>
<trkpt lat="35.45364" lon="138.21383"><ele>1614</ele></trkpt>
<trkpt lat="35.45382" lon="138.21379"><ele>1616</ele></trkpt>
<trkpt lat="35.454" lon="138.21374"><ele>1618</ele></trkpt>
<trkpt lat="35.4542" lon="138.21377"><ele>1622</ele></trkpt>
<trkpt lat="35.4544" lon="138.21368"><ele>1625</ele></trkpt>
<trkpt lat="35.45456" lon="138.21358"><ele>1630</ele></trkpt>
<trkpt lat="35.45468" lon="138.2135"><ele>1633</ele></trkpt>
<trkpt lat="35.4548" lon="138.21338"><ele>1634</ele></trkpt>
<trkpt lat="35.45497" lon="138.21327"><ele>1641</ele></trkpt>
<trkpt lat="35.45519" lon="138.21336"><ele>1650</ele></trkpt>
<trkpt lat="35.45539" lon="138.21333"><ele>1655</ele></trkpt>
<trkpt lat="35.45559" lon="138.21333"><ele>1659</ele></trkpt>
<trkpt lat="35.45576" lon="138.21323"><ele>1660</ele></trkpt>
<trkpt lat="35.45595" lon="138.21317"><ele>1664</ele></trkpt>
<trkpt lat="35.45615" lon="138.21314"><ele>1665</ele></trkpt>
<trkpt lat="35.45633" lon="138.21307"><ele>1669</ele></trkpt>
<trkpt lat="35.45652" lon="138.21298"><ele>1670</ele></trkpt>
<trkpt lat="35.45669" lon="138.21283"><ele>1672</ele></trkpt>
<trkpt lat="35.45692" lon="138.21274"><ele>1672</ele></trkpt>
<trkpt lat="35.45715" lon="138.21264"><ele>1673</ele></trkpt>
<trkpt lat="35.4573" lon="138.2125"><ele>1673</ele></trkpt>
<trkpt lat="35.45745" lon="138.21238"><ele>1671</ele></trkpt>
<trkpt lat="35.45768" lon="138.21229"><ele>1677</ele></trkpt>
<trkpt lat="35.45787" lon="138.21224"><ele>1676</ele></trkpt>
<trkpt lat="35.45806" lon="138.21216"><ele>1677</ele></trkpt>
<trkpt lat="35.45829" lon="138.21211"><ele>1675</ele></trkpt>
<trkpt lat="35.45853" lon="138.21193"><ele>1674</ele></trkpt>
<trkpt lat="35.45871" lon="138.21196"><ele>1673</ele></trkpt>
<trkpt lat="35.45891" lon="138.2119"><ele>1678</ele></trkpt>
<trkpt lat="35.45909" lon="138.21179"><ele>1674</ele></trkpt>
<trkpt lat="35.45929" lon="138.21161"><ele>1676</ele></trkpt>
<trkpt lat="35.45948" lon="138.21159"><ele>1677</ele></trkpt>
<trkpt lat="35.4597" lon="138.21157"><ele>1679</ele></trkpt>
<trkpt lat="35.45984" lon="138.2116"><ele>1685</ele></trkpt>
<trkpt lat="35.46003" lon="138.21164"><ele>1690</ele></trkpt>
<trkpt lat="35.46021" lon="138.2117"><ele>1693</ele></trkpt>
<trkpt lat="35.4604" lon="138.21174"><ele>1697</ele></trkpt>
<trkpt lat="35.46059" lon="138.21175"><ele>1703</ele></trkpt>
<trkpt lat="35.46076" lon="138.21167"><ele>1704</ele></trkpt>
<trkpt lat="35.46095" lon="138.21161"><ele>1708</ele></trkpt>
<trkpt lat="35.46111" lon="138.21149"><ele>1712</ele></trkpt>
<trkpt lat="35.46131" lon="138.21149"><ele>1716</ele></trkpt>
<trkpt lat="35.46148" lon="138.21144"><ele>1720</ele></trkpt>
<trkpt lat="35.46165" lon="138.21137"><ele>1725</ele></trkpt>
<trkpt lat="35.46178" lon="138.2113"><ele>1733</ele></trkpt>
<trkpt lat="35.46193" lon="138.21118"><ele>1737</ele></trkpt>
<trkpt lat="35.46202" lon="138.21097"><ele>1736</ele></trkpt>
<trkpt lat="35.46213" lon="138.21087"><ele>1734</ele></trkpt>
<trkpt lat="35.46222" lon="138.21079"><ele>1743</ele></trkpt>
<trkpt lat="35.46219" lon="138.21064"><ele>1738</ele></trkpt>
<trkpt lat="35.46229" lon="138.21061"><ele>1748</ele></trkpt>
<trkpt lat="35.46246" lon="138.21049"><ele>1737</ele></trkpt>
<trkpt lat="35.46265" lon="138.21043"><ele>1736</ele></trkpt>
<trkpt lat="35.46285" lon="138.21047"><ele>1739</ele></trkpt>
<trkpt lat="35.46304" lon="138.21049"><ele>1740</ele></trkpt>
<trkpt lat="35.46321" lon="138.21044"><ele>1744</ele></trkpt>
<trkpt lat="35.46339" lon="138.21035"><ele>1748</ele></trkpt>
<trkpt lat="35.46354" lon="138.21021"><ele>1748</ele></trkpt>
<trkpt lat="35.46373" lon="138.21024"><ele>1754</ele></trkpt>
<trkpt lat="35.46392" lon="138.21022"><ele>1757</ele></trkpt>
<trkpt lat="35.46414" lon="138.21025"><ele>1756</ele></trkpt>
<trkpt lat="35.46428" lon="138.21009"><ele>1758</ele></trkpt>
<trkpt lat="35.46442" lon="138.21012"><ele>1764</ele></trkpt>
<trkpt lat="35.46456" lon="138.20997"><ele>1765</ele></trkpt>
<trkpt lat="35.4647" lon="138.20995"><ele>1769</ele></trkpt>
<trkpt lat="35.46492" lon="138.20983"><ele>1775</ele></trkpt>
<trkpt lat="35.46505" lon="138.20967"><ele>1780</ele></trkpt>
<trkpt lat="35.46505" lon="138.20944"><ele>1781</ele></trkpt>
<trkpt lat="35.46517" lon="138.20926"><ele>1781</ele></trkpt>
<trkpt lat="35.46535" lon="138.20909"><ele>1787</ele></trkpt>
<trkpt lat="35.46547" lon="138.209"><ele>1793</ele></trkpt>
<trkpt lat="35.46558" lon="138.20881"><ele>1796</ele></trkpt>
<trkpt lat="35.46561" lon="138.20858"><ele>1801</ele></trkpt>
<trkpt lat="35.46573" lon="138.20844"><ele>1802</ele></trkpt>
<trkpt lat="35.46588" lon="138.20833"><ele>1798</ele></trkpt>
<trkpt lat="35.46605" lon="138.20832"><ele>1810</ele></trkpt>
<trkpt lat="35.46618" lon="138.20838"><ele>1812</ele></trkpt>
<trkpt lat="35.46636" lon="138.20831"><ele>1819</ele></trkpt>
<trkpt lat="35.46656" lon="138.20832"><ele>1826</ele></trkpt>
<trkpt lat="35.46669" lon="138.20824"><ele>1833</ele></trkpt>
<trkpt lat="35.46689" lon="138.20819"><ele>1834</ele></trkpt>
<trkpt lat="35.46709" lon="138.2082"><ele>1834</ele></trkpt>
<trkpt lat="35.46723" lon="138.20825"><ele>1839</ele></trkpt>
<trkpt lat="35.46743" lon="138.2082"><ele>1840</ele></trkpt>
<trkpt lat="35.46757" lon="138.20812"><ele>1838</ele></trkpt>
<trkpt lat="35.46775" lon="138.20805"><ele>1839</ele></trkpt>
<trkpt lat="35.46788" lon="138.20812"><ele>1843</ele></trkpt>
<trkpt lat="35.46808" lon="138.20825"><ele>1854</ele></trkpt>
<trkpt lat="35.46826" lon="138.20832"><ele>1862</ele></trkpt>
<trkpt lat="35.46837" lon="138.20831"><ele>1865</ele></trkpt>
<trkpt lat="35.46845" lon="138.20845"><ele>1872</ele></trkpt>
<trkpt lat="35.46843" lon="138.20834"><ele>1865</ele></trkpt>
<trkpt lat="35.46833" lon="138.20838"><ele>1872</ele></trkpt>
<trkpt lat="35.46844" lon="138.2083"><ele>1868</ele></trkpt>
<trkpt lat="35.4684" lon="138.20847"><ele>1869</ele></trkpt>
<trkpt lat="35.46844" lon="138.20834"><ele>1874</ele></trkpt>
<trkpt lat="35.46841" lon="138.20848"><ele>1873</ele></trkpt>
<trkpt lat="35.46847" lon="138.20838"><ele>1871</ele></trkpt>
<trkpt lat="35.46838" lon="138.20846"><ele>1875</ele></trkpt>
<trkpt lat="35.46834" lon="138.20872"><ele>1880</ele></trkpt>
<trkpt lat="35.46826" lon="138.20894"><ele>1885</ele></trkpt>
<trkpt lat="35.46832" lon="138.2091"><ele>1890</ele></trkpt>
<trkpt lat="35.46852" lon="138.20901"><ele>1895</ele></trkpt>
<trkpt lat="35.46844" lon="138.20917"><ele>1899</ele></trkpt>
<trkpt lat="35.46854" lon="138.20928"><ele>1902</ele></trkpt>
<trkpt lat="35.46859" lon="138.20944"><ele>1906</ele></trkpt>
<trkpt lat="35.46871" lon="138.20948"><ele>1912</ele></trkpt>
<trkpt lat="35.46885" lon="138.20959"><ele>1922</ele></trkpt>
<trkpt lat="35.46898" lon="138.20965"><ele>1928</ele></trkpt>
<trkpt lat="35.46913" lon="138.2097"><ele>1933</ele></trkpt>
<trkpt lat="35.46922" lon="138.2095"><ele>1936</ele></trkpt>
<trkpt lat="35.46942" lon="138.20939"><ele>1943</ele></trkpt>
<trkpt lat="35.46948" lon="138.20922"><ele>1947</ele></trkpt>
<trkpt lat="35.46962" lon="138.20927"><ele>1954</ele></trkpt>
<trkpt lat="35.46968" lon="138.20912"><ele>1960</ele></trkpt>
<trkpt lat="35.46966" lon="138.209"><ele>1962</ele></trkpt>
<trkpt lat="35.46983" lon="138.20899"><ele>1965</ele></trkpt>
<trkpt lat="35.47001" lon="138.20892"><ele>1972</ele></trkpt>
<trkpt lat="35.4701" lon="138.20888"><ele>1977</ele></trkpt>
<trkpt lat="35.47025" lon="138.20888"><ele>1986</ele></trkpt>
<trkpt lat="35.47039" lon="138.20886"><ele>1995</ele></trkpt>
<trkpt lat="35.47051" lon="138.20877"><ele>2000</ele></trkpt>
<trkpt lat="35.47068" lon="138.20878"><ele>2002</ele></trkpt>
<trkpt lat="35.47082" lon="138.20874"><ele>2008</ele></trkpt>
<trkpt lat="35.4709" lon="138.20869"><ele>2009</ele></trkpt>
<trkpt lat="35.47092" lon="138.20857"><ele>2011</ele></trkpt>
<trkpt lat="35.47096" lon="138.20868"><ele>2013</ele></trkpt>
<trkpt lat="35.47109" lon="138.20861"><ele>2014</ele></trkpt>
<trkpt lat="35.47123" lon="138.20851"><ele>2023</ele></trkpt>
<trkpt lat="35.47141" lon="138.20843"><ele>2030</ele></trkpt>
<trkpt lat="35.47159" lon="138.20834"><ele>2033</ele></trkpt>
<trkpt lat="35.4717" lon="138.20826"><ele>2036</ele></trkpt>
<trkpt lat="35.47181" lon="138.20814"><ele>2040</ele></trkpt>
<trkpt lat="35.47193" lon="138.20806"><ele>2046</ele></trkpt>
<trkpt lat="35.47205" lon="138.20786"><ele>2048</ele></trkpt>
<trkpt lat="35.47223" lon="138.20766"><ele>2048</ele></trkpt>
<trkpt lat="35.47233" lon="138.20745"><ele>2050</ele></trkpt>
<trkpt lat="35.47248" lon="138.20736"><ele>2052</ele></trkpt>
<trkpt lat="35.47261" lon="138.20733"><ele>2053</ele></trkpt>
<trkpt lat="35.47284" lon="138.20742"><ele>2058</ele></trkpt>
<trkpt lat="35.47297" lon="138.20742"><ele>2062</ele></trkpt>
<trkpt lat="35.47314" lon="138.20729"><ele>2063</ele></trkpt>
<trkpt lat="35.47339" lon="138.20724"><ele>2063</ele></trkpt>
<trkpt lat="35.47356" lon="138.20701"><ele>2064</ele></trkpt>
<trkpt lat="35.47369" lon="138.20677"><ele>2065</ele></trkpt>
<trkpt lat="35.47377" lon="138.20645"><ele>2064</ele></trkpt>
<trkpt lat="35.47367" lon="138.20616"><ele>2063</ele></trkpt>
<trkpt lat="35.47383" lon="138.20607"><ele>2065</ele></trkpt>
<trkpt lat="35.47404" lon="138.20606"><ele>2068</ele></trkpt>
<trkpt lat="35.47412" lon="138.20599"><ele>2072</ele></trkpt>
<trkpt lat="35.47426" lon="138.20596"><ele>2072</ele></trkpt>
<trkpt lat="35.47449" lon="138.20596"><ele>2078</ele></trkpt>
<trkpt lat="35.47467" lon="138.20593"><ele>2079</ele></trkpt>
<trkpt lat="35.47489" lon="138.20603"><ele>2085</ele></trkpt>
<trkpt lat="35.47513" lon="138.20607"><ele>2082</ele></trkpt>
<trkpt lat="35.47537" lon="138.20598"><ele>2081</ele></trkpt>
<trkpt lat="35.47554" lon="138.20591"><ele>2083</ele></trkpt>
<trkpt lat="35.47579" lon="138.20585"><ele>2087</ele></trkpt>
<trkpt lat="35.47603" lon="138.20585"><ele>2093</ele></trkpt>
<trkpt lat="35.47618" lon="138.20579"><ele>2100</ele></trkpt>
<trkpt lat="35.47633" lon="138.20579"><ele>2102</ele></trkpt>
<trkpt lat="35.47651" lon="138.20582"><ele>2108</ele></trkpt>
<trkpt lat="35.47666" lon="138.20579"><ele>2112</ele></trkpt>
<trkpt lat="35.47679" lon="138.2057"><ele>2115</ele></trkpt>
<trkpt lat="35.47698" lon="138.20571"><ele>2112</ele></trkpt>
<trkpt lat="35.4771" lon="138.20564"><ele>2113</ele></trkpt>
<trkpt lat="35.47724" lon="138.20562"><ele>2115</ele></trkpt>
<trkpt lat="35.47743" lon="138.20566"><ele>2118</ele></trkpt>
<trkpt lat="35.47753" lon="138.2057"><ele>2125</ele></trkpt>
<trkpt lat="35.47775" lon="138.20577"><ele>2124</ele></trkpt>
<trkpt lat="35.47792" lon="138.20591"><ele>2128</ele></trkpt>
<trkpt lat="35.47805" lon="138.206"><ele>2132</ele></trkpt>
<trkpt lat="35.47819" lon="138.20594"><ele>2137</ele></trkpt>
<trkpt lat="35.47834" lon="138.20604"><ele>2142</ele></trkpt>
<trkpt lat="35.47852" lon="138.20616"><ele>2145</ele></trkpt>
<trkpt lat="35.47869" lon="138.20621"><ele>2151</ele></trkpt>
<trkpt lat="35.47888" lon="138.20631"><ele>2154</ele></trkpt>
<trkpt lat="35.47899" lon="138.20637"><ele>2159</ele></trkpt>
<trkpt lat="35.47913" lon="138.20638"><ele>2164</ele></trkpt>
<trkpt lat="35.47933" lon="138.2064"><ele>2174</ele></trkpt>
<trkpt lat="35.47941" lon="138.20646"><ele>2178</ele></trkpt>
<trkpt lat="35.47957" lon="138.20656"><ele>2185</ele></trkpt>
<trkpt lat="35.47968" lon="138.20666"><ele>2191</ele></trkpt>
<trkpt lat="35.47983" lon="138.20677"><ele>2197</ele></trkpt>
<trkpt lat="35.47993" lon="138.20684"><ele>2198</ele></trkpt>
<trkpt lat="35.48001" lon="138.20688"><ele>2200</ele></trkpt>
<trkpt lat="35.4801" lon="138.20699"><ele>2204</ele></trkpt>
<trkpt lat="35.48021" lon="138.20708"><ele>2204</ele></trkpt>
<trkpt lat="35.48026" lon="138.20723"><ele>2211</ele></trkpt>
<trkpt lat="35.48044" lon="138.20749"><ele>2218</ele></trkpt>
<trkpt lat="35.48051" lon="138.20769"><ele>2221</ele></trkpt>
<trkpt lat="35.48047" lon="138.20792"><ele>2228</ele></trkpt>
<trkpt lat="35.48043" lon="138.20816"><ele>2232</ele></trkpt>
<trkpt lat="35.48049" lon="138.20839"><ele>2236</ele></trkpt>
<trkpt lat="35.48062" lon="138.20857"><ele>2243</ele></trkpt>
<trkpt lat="35.48075" lon="138.20864"><ele>2245</ele></trkpt>
<trkpt lat="35.48089" lon="138.20863"><ele>2248</ele></trkpt>
<trkpt lat="35.481" lon="138.20874"><ele>2254</ele></trkpt>
<trkpt lat="35.48113" lon="138.20879"><ele>2259</ele></trkpt>
<trkpt lat="35.48136" lon="138.20881"><ele>2266</ele></trkpt>
<trkpt lat="35.48157" lon="138.20888"><ele>2273</ele></trkpt>
<trkpt lat="35.48174" lon="138.20898"><ele>2279</ele></trkpt>
<trkpt lat="35.48183" lon="138.20897"><ele>2285</ele></trkpt>
<trkpt lat="35.482" lon="138.20894"><ele>2289</ele></trkpt>
<trkpt lat="35.48213" lon="138.20901"><ele>2293</ele></trkpt>
<trkpt lat="35.48221" lon="138.20906"><ele>2298</ele></trkpt>
<trkpt lat="35.48238" lon="138.20914"><ele>2301</ele></trkpt>
<trkpt lat="35.48257" lon="138.20921"><ele>2304</ele></trkpt>
<trkpt lat="35.48271" lon="138.20927"><ele>2311</ele></trkpt>
<trkpt lat="35.48284" lon="138.20933"><ele>2315</ele></trkpt>
<trkpt lat="35.48294" lon="138.20948"><ele>2318</ele></trkpt>
<trkpt lat="35.48309" lon="138.20962"><ele>2324</ele></trkpt>
<trkpt lat="35.48322" lon="138.20964"><ele>2327</ele></trkpt>
<trkpt lat="35.48341" lon="138.2096"><ele>2332</ele></trkpt>
<trkpt lat="35.48356" lon="138.2096"><ele>2339</ele></trkpt>
<trkpt lat="35.48375" lon="138.20959"><ele>2338</ele></trkpt>
<trkpt lat="35.48396" lon="138.20955"><ele>2342</ele></trkpt>
<trkpt lat="35.48409" lon="138.20953"><ele>2343</ele></trkpt>
<trkpt lat="35.48421" lon="138.20977"><ele>2351</ele></trkpt>
<trkpt lat="35.48438" lon="138.20986"><ele>2353</ele></trkpt>
<trkpt lat="35.48462" lon="138.20988"><ele>2354</ele></trkpt>
<trkpt lat="35.48479" lon="138.20984"><ele>2353</ele></trkpt>
<trkpt lat="35.48494" lon="138.21001"><ele>2360</ele></trkpt>
<trkpt lat="35.48516" lon="138.2101"><ele>2357</ele></trkpt>
<trkpt lat="35.48535" lon="138.21015"><ele>2360</ele></trkpt>
<trkpt lat="35.48555" lon="138.21019"><ele>2362</ele></trkpt>
<trkpt lat="35.48574" lon="138.21003"><ele>2363</ele></trkpt>
<trkpt lat="35.48591" lon="138.20995"><ele>2369</ele></trkpt>
<trkpt lat="35.48607" lon="138.20985"><ele>2373</ele></trkpt>
<trkpt lat="35.48626" lon="138.20975"><ele>2379</ele></trkpt>
<trkpt lat="35.48642" lon="138.20963"><ele>2381</ele></trkpt>
<trkpt lat="35.48655" lon="138.20957"><ele>2384</ele></trkpt>
<trkpt lat="35.48672" lon="138.20944"><ele>2386</ele></trkpt>
<trkpt lat="35.48686" lon="138.20942"><ele>2388</ele></trkpt>
<trkpt lat="35.48703" lon="138.20935"><ele>2396</ele></trkpt>
<trkpt lat="35.48717" lon="138.20921"><ele>2396</ele></trkpt>
<trkpt lat="35.48711" lon="138.20931"><ele>2397</ele></trkpt>
<trkpt lat="35.4872" lon="138.20925"><ele>2395</ele></trkpt>
<trkpt lat="35.48736" lon="138.20903"><ele>2401</ele></trkpt>
<trkpt lat="35.48741" lon="138.20883"><ele>2408</ele></trkpt>
<trkpt lat="35.48754" lon="138.20863"><ele>2406</ele></trkpt>
<trkpt lat="35.48761" lon="138.20845"><ele>2415</ele></trkpt>
<trkpt lat="35.48767" lon="138.20821"><ele>2419</ele></trkpt>
<trkpt lat="35.48774" lon="138.20799"><ele>2421</ele></trkpt>
<trkpt lat="35.48783" lon="138.20777"><ele>2426</ele></trkpt>
<trkpt lat="35.48794" lon="138.20756"><ele>2414</ele></trkpt>
<trkpt lat="35.48808" lon="138.20748"><ele>2419</ele></trkpt>
<trkpt lat="35.48817" lon="138.20736"><ele>2418</ele></trkpt>
<trkpt lat="35.48835" lon="138.20738"><ele>2418</ele></trkpt>
<trkpt lat="35.48853" lon="138.20732"><ele>2420</ele></trkpt>
<trkpt lat="35.48867" lon="138.20736"><ele>2426</ele></trkpt>
<trkpt lat="35.48886" lon="138.20739"><ele>2425</ele></trkpt>
<trkpt lat="35.48906" lon="138.20736"><ele>2425</ele></trkpt>
<trkpt lat="35.48923" lon="138.20729"><ele>2427</ele></trkpt>
<trkpt lat="35.4893" lon="138.20718"><ele>2429</ele></trkpt>
<trkpt lat="35.48942" lon="138.20717"><ele>2433</ele></trkpt>
<trkpt lat="35.48954" lon="138.20713"><ele>2438</ele></trkpt>
<trkpt lat="35.48973" lon="138.20701"><ele>2444</ele></trkpt>
<trkpt lat="35.4899" lon="138.20693"><ele>2447</ele></trkpt>
<trkpt lat="35.49" lon="138.20681"><ele>2448</ele></trkpt>
<trkpt lat="35.49017" lon="138.2067"><ele>2454</ele></trkpt>
<trkpt lat="35.49031" lon="138.20667"><ele>2456</ele></trkpt>
<trkpt lat="35.49045" lon="138.20672"><ele>2459</ele></trkpt>
<trkpt lat="35.4906" lon="138.2067"><ele>2463</ele></trkpt>
<trkpt lat="35.49076" lon="138.20672"><ele>2466</ele></trkpt>
<trkpt lat="35.4909" lon="138.20666"><ele>2466</ele></trkpt>
<trkpt lat="35.49103" lon="138.20668"><ele>2470</ele></trkpt>
<trkpt lat="35.49124" lon="138.20669"><ele>2471</ele></trkpt>
<trkpt lat="35.4914" lon="138.20673"><ele>2475</ele></trkpt>
<trkpt lat="35.49152" lon="138.20676"><ele>2480</ele></trkpt>
<trkpt lat="35.49172" lon="138.20667"><ele>2483</ele></trkpt>
<trkpt lat="35.49191" lon="138.20668"><ele>2483</ele></trkpt>
<trkpt lat="35.49207" lon="138.20675"><ele>2489</ele></trkpt>
<trkpt lat="35.49219" lon="138.20677"><ele>2494</ele></trkpt>
<trkpt lat="35.4924" lon="138.20676"><ele>2496</ele></trkpt>
<trkpt lat="35.49253" lon="138.20688"><ele>2497</ele></trkpt>
<trkpt lat="35.49274" lon="138.20676"><ele>2500</ele></trkpt>
<trkpt lat="35.49283" lon="138.20657"><ele>2501</ele></trkpt>
<trkpt lat="35.49289" lon="138.20629"><ele>2496</ele></trkpt>
<trkpt lat="35.4929" lon="138.20611"><ele>2500</ele></trkpt>
<trkpt lat="35.49303" lon="138.20594"><ele>2504</ele></trkpt>
<trkpt lat="35.49311" lon="138.20572"><ele>2507</ele></trkpt>
<trkpt lat="35.49323" lon="138.20545"><ele>2510</ele></trkpt>
<trkpt lat="35.49321" lon="138.20524"><ele>2511</ele></trkpt>
<trkpt lat="35.49322" lon="138.20506"><ele>2516</ele></trkpt>
<trkpt lat="35.49313" lon="138.20487"><ele>2517</ele></trkpt>
<trkpt lat="35.49308" lon="138.2046"><ele>2517</ele></trkpt>
<trkpt lat="35.49311" lon="138.20439"><ele>2521</ele></trkpt>
<trkpt lat="35.49315" lon="138.20422"><ele>2524</ele></trkpt>
<trkpt lat="35.49325" lon="138.20399"><ele>2527</ele></trkpt>
<trkpt lat="35.49327" lon="138.20381"><ele>2535</ele></trkpt>
<trkpt lat="35.49324" lon="138.20363"><ele>2538</ele></trkpt>
<trkpt lat="35.49328" lon="138.20351"><ele>2541</ele></trkpt>
<trkpt lat="35.49325" lon="138.20329"><ele>2543</ele></trkpt>
<trkpt lat="35.49325" lon="138.20314"><ele>2548</ele></trkpt>
<trkpt lat="35.49331" lon="138.20297"><ele>2551</ele></trkpt>
<trkpt lat="35.49331" lon="138.20284"><ele>2552</ele></trkpt>
<trkpt lat="35.4934" lon="138.20264"><ele>2559</ele></trkpt>
<trkpt lat="35.49349" lon="138.20243"><ele>2561</ele></trkpt>
<trkpt lat="35.49356" lon="138.20222"><ele>2560</ele></trkpt>
<trkpt lat="35.49345" lon="138.20201"><ele>2566</ele></trkpt>
<trkpt lat="35.49359" lon="138.20193"><ele>2576</ele></trkpt>
<trkpt lat="35.49345" lon="138.20176"><ele>2586</ele></trkpt>
<trkpt lat="35.4935" lon="138.20166"><ele>2590</ele></trkpt>
<trkpt lat="35.49341" lon="138.20145"><ele>2596</ele></trkpt>
<trkpt lat="35.49339" lon="138.20126"><ele>2601</ele></trkpt>
<trkpt lat="35.4934" lon="138.20108"><ele>2607</ele></trkpt>
<trkpt lat="35.49341" lon="138.20092"><ele>2611</ele></trkpt>
<trkpt lat="35.4934" lon="138.20072"><ele>2615</ele></trkpt>
<trkpt lat="35.49331" lon="138.20051"><ele>2619</ele></trkpt>
<trkpt lat="35.49307" lon="138.20056"><ele>2616</ele></trkpt>
</trkseg>
<trkseg>
<trkpt lat="35.49304" lon="138.20071"><ele>2631</ele></trkpt>
<trkpt lat="35.49308" lon="138.20052"><ele>2622</ele></trkpt>
<trkpt lat="35.49333" lon="138.20058"><ele>2625</ele></trkpt>
<trkpt lat="35.4935" lon="138.2005"><ele>2640</ele></trkpt>
<trkpt lat="35.49364" lon="138.20049"><ele>2638</ele></trkpt>
<trkpt lat="35.49385" lon="138.2006"><ele>2655</ele></trkpt>
<trkpt lat="35.49394" lon="138.20074"><ele>2649</ele></trkpt>
<trkpt lat="35.49386" lon="138.20061"><ele>2653</ele></trkpt>
<trkpt lat="35.49389" lon="138.20049"><ele>2652</ele></trkpt>
<trkpt lat="35.49387" lon="138.20031"><ele>2661</ele></trkpt>
<trkpt lat="35.49389" lon="138.2001"><ele>2661</ele></trkpt>
<trkpt lat="35.49379" lon="138.19993"><ele>2667</ele></trkpt>
<trkpt lat="35.49368" lon="138.19986"><ele>2673</ele></trkpt>
<trkpt lat="35.49358" lon="138.19968"><ele>2676</ele></trkpt>
<trkpt lat="35.49343" lon="138.19974"><ele>2675</ele></trkpt>
<trkpt lat="35.49334" lon="138.19956"><ele>2676</ele></trkpt>
<trkpt lat="35.49353" lon="138.19951"><ele>2682</ele></trkpt>
<trkpt lat="35.49368" lon="138.19946"><ele>2687</ele></trkpt>
<trkpt lat="35.4939" lon="138.19937"><ele>2695</ele></trkpt>
<trkpt lat="35.49409" lon="138.19937"><ele>2699</ele></trkpt>
<trkpt lat="35.49422" lon="138.19947"><ele>2703</ele></trkpt>
<trkpt lat="35.49441" lon="138.19952"><ele>2707</ele></trkpt>
<trkpt lat="35.49462" lon="138.19967"><ele>2709</ele></trkpt>
<trkpt lat="35.49482" lon="138.19963"><ele>2714</ele></trkpt>
<trkpt lat="35.49501" lon="138.19956"><ele>2716</ele></trkpt>
<trkpt lat="35.49514" lon="138.19962"><ele>2718</ele></trkpt>
<trkpt lat="35.49522" lon="138.19993"><ele>2719</ele></trkpt>
<trkpt lat="35.49537" lon="138.20015"><ele>2722</ele></trkpt>
<trkpt lat="35.49552" lon="138.20034"><ele>2722</ele></trkpt>
<trkpt lat="35.49563" lon="138.20054"><ele>2725</ele></trkpt>
<trkpt lat="35.49574" lon="138.20064"><ele>2723</ele></trkpt>
<trkpt lat="35.49585" lon="138.20061"><ele>2727</ele></trkpt>
<trkpt lat="35.49592" lon="138.20043"><ele>2735</ele></trkpt>
<trkpt lat="35.49599" lon="138.20026"><ele>2745</ele></trkpt>
<trkpt lat="35.49602" lon="138.20006"><ele>2751</ele></trkpt>
<trkpt lat="35.49603" lon="138.19992"><ele>2756</ele></trkpt>
<trkpt lat="35.49601" lon="138.19974"><ele>2762</ele></trkpt>
<trkpt lat="35.49604" lon="138.19954"><ele>2765</ele></trkpt>
<trkpt lat="35.4961" lon="138.19926"><ele>2770</ele></trkpt>
<trkpt lat="35.49614" lon="138.19907"><ele>2778</ele></trkpt>
<trkpt lat="35.49618" lon="138.19891"><ele>2783</ele></trkpt>
<trkpt lat="35.49622" lon="138.19871"><ele>2784</ele></trkpt>
<trkpt lat="35.49614" lon="138.19848"><ele>2797</ele></trkpt>
<trkpt lat="35.49612" lon="138.19829"><ele>2801</ele></trkpt>
<trkpt lat="35.49604" lon="138.19813"><ele>2807</ele></trkpt>
<trkpt lat="35.49606" lon="138.19794"><ele>2809</ele></trkpt>
<trkpt lat="35.49603" lon="138.19779"><ele>2817</ele></trkpt>
<trkpt lat="35.49613" lon="138.19768"><ele>2818</ele></trkpt>
<trkpt lat="35.49625" lon="138.19759"><ele>2822</ele></trkpt>
<trkpt lat="35.49628" lon="138.19742"><ele>2830</ele></trkpt>
<trkpt lat="35.49639" lon="138.19728"><ele>2837</ele></trkpt>
<trkpt lat="35.49653" lon="138.19729"><ele>2850</ele></trkpt>
<trkpt lat="35.49666" lon="138.19728"><ele>2856</ele></trkpt>
<trkpt lat="35.49676" lon="138.1972"><ele>2849</ele></trkpt>
<trkpt lat="35.49686" lon="138.19737"><ele>2871</ele></trkpt>
<trkpt lat="35.49699" lon="138.19736"><ele>2859</ele></trkpt>
<trkpt lat="35.49707" lon="138.19728"><ele>2872</ele></trkpt>
<trkpt lat="35.49721" lon="138.19728"><ele>2871</ele></trkpt>
<trkpt lat="35.49729" lon="138.19743"><ele>2882</ele></trkpt>
<trkpt lat="35.4973" lon="138.19727"><ele>2874</ele></trkpt>
<trkpt lat="35.4973" lon="138.19706"><ele>2874</ele></trkpt>
<trkpt lat="35.49732" lon="138.19683"><ele>2868</ele></trkpt>
<trkpt lat="35.49735" lon="138.19664"><ele>2864</ele></trkpt>
<trkpt lat="35.49748" lon="138.19657"><ele>2860</ele></trkpt>
<trkpt lat="35.49761" lon="138.19641"><ele>2869</ele></trkpt>
<trkpt lat="35.49767" lon="138.19627"><ele>2874</ele></trkpt>
<trkpt lat="35.49769" lon="138.19607"><ele>2875</ele></trkpt>
<trkpt lat="35.4977" lon="138.19592"><ele>2875</ele></trkpt>
<trkpt lat="35.49774" lon="138.19578"><ele>2866</ele></trkpt>
<trkpt lat="35.49777" lon="138.19555"><ele>2858</ele></trkpt>
<trkpt lat="35.49792" lon="138.19552"><ele>2872</ele></trkpt>
<trkpt lat="35.49792" lon="138.19536"><ele>2857</ele></trkpt>
<trkpt lat="35.49793" lon="138.19518"><ele>2857</ele></trkpt>
<trkpt lat="35.49795" lon="138.19496"><ele>2857</ele></trkpt>
<trkpt lat="35.49799" lon="138.19485"><ele>2860</ele></trkpt>
<trkpt lat="35.49788" lon="138.19462"><ele>2859</ele></trkpt>
<trkpt lat="35.49802" lon="138.19446"><ele>2864</ele></trkpt>
<trkpt lat="35.49793" lon="138.19428"><ele>2872</ele></trkpt>
<trkpt lat="35.49791" lon="138.19412"><ele>2884</ele></trkpt>
<trkpt lat="35.49798" lon="138.19391"><ele>2883</ele></trkpt>
<trkpt lat="35.49798" lon="138.19368"><ele>2892</ele></trkpt>
<trkpt lat="35.49795" lon="138.19357"><ele>2890</ele></trkpt>
<trkpt lat="35.49791" lon="138.19341"><ele>2894</ele></trkpt>
<trkpt lat="35.49787" lon="138.19331"><ele>2901</ele></trkpt>
<trkpt lat="35.49785" lon="138.19315"><ele>2902</ele></trkpt>
<trkpt lat="35.49785" lon="138.19297"><ele>2903</ele></trkpt>
<trkpt lat="35.49798" lon="138.19291"><ele>2913</ele></trkpt>
<trkpt lat="35.49803" lon="138.19276"><ele>2917</ele></trkpt>
<trkpt lat="35.49812" lon="138.19262"><ele>2916</ele></trkpt>
<trkpt lat="35.49825" lon="138.1926"><ele>2927</ele></trkpt>
<trkpt lat="35.49832" lon="138.19268"><ele>2929</ele></trkpt>
<trkpt lat="35.49846" lon="138.19263"><ele>2930</ele></trkpt>
<trkpt lat="35.49858" lon="138.19253"><ele>2937</ele></trkpt>
<trkpt lat="35.49869" lon="138.19243"><ele>2941</ele></trkpt>
<trkpt lat="35.49882" lon="138.19228"><ele>2946</ele></trkpt>
<trkpt lat="35.49896" lon="138.19218"><ele>2951</ele></trkpt>
<trkpt lat="35.49902" lon="138.19203"><ele>2953</ele></trkpt>
<trkpt lat="35.49911" lon="138.19184"><ele>2957</ele></trkpt>
<trkpt lat="35.49917" lon="138.19164"><ele>2960</ele></trkpt>
<trkpt lat="35.49923" lon="138.1915"><ele>2964</ele></trkpt>
<trkpt lat="35.49932" lon="138.19133"><ele>2971</ele></trkpt>
<trkpt lat="35.4994" lon="138.19119"><ele>2975</ele></trkpt>
<trkpt lat="35.49948" lon="138.19105"><ele>2979</ele></trkpt>
<trkpt lat="35.49958" lon="138.19088"><ele>2981</ele></trkpt>
<trkpt lat="35.49965" lon="138.19075"><ele>2986</ele></trkpt>
<trkpt lat="35.49973" lon="138.19061"><ele>2989</ele></trkpt>
<trkpt lat="35.49988" lon="138.19048"><ele>2999</ele></trkpt>
<trkpt lat="35.49999" lon="138.19035"><ele>3001</ele></trkpt>
<trkpt lat="35.50008" lon="138.19023"><ele>3005</ele></trkpt>
<trkpt lat="35.50026" lon="138.19021"><ele>3012</ele></trkpt>
<trkpt lat="35.50042" lon="138.19021"><ele>3018</ele></trkpt>
<trkpt lat="35.50059" lon="138.19019"><ele>3021</ele></trkpt>
<trkpt lat="35.50073" lon="138.19015"><ele>3026</ele></trkpt>
<trkpt lat="35.50086" lon="138.19007"><ele>3032</ele></trkpt>
<trkpt lat="35.50099" lon="138.19002"><ele>3036</ele></trkpt>
<trkpt lat="35.50105" lon="138.18983"><ele>3034</ele></trkpt>
<trkpt lat="35.50105" lon="138.18969"><ele>3037</ele></trkpt>
<trkpt lat="35.50097" lon="138.18954"><ele>3040</ele></trkpt>
<trkpt lat="35.50093" lon="138.18943"><ele>3038</ele></trkpt>
<trkpt lat="35.50087" lon="138.18921"><ele>3038</ele></trkpt>
<trkpt lat="35.50082" lon="138.18897"><ele>3037</ele></trkpt>
<trkpt lat="35.50075" lon="138.18874"><ele>3035</ele></trkpt>
<trkpt lat="35.50065" lon="138.18847"><ele>3035</ele></trkpt>
<trkpt lat="35.5006" lon="138.18825"><ele>3039</ele></trkpt>
<trkpt lat="35.50055" lon="138.18809"><ele>3044</ele></trkpt>
<trkpt lat="35.50048" lon="138.18795"><ele>3047</ele></trkpt>
<trkpt lat="35.50041" lon="138.1878"><ele>3052</ele></trkpt>
<trkpt lat="35.50034" lon="138.18765"><ele>3060</ele></trkpt>
<trkpt lat="35.50021" lon="138.18757"><ele>3061</ele></trkpt>
<trkpt lat="35.50015" lon="138.18736"><ele>3064</ele></trkpt>
<trkpt lat="35.50007" lon="138.18721"><ele>3069</ele></trkpt>
<trkpt lat="35.50002" lon="138.187"><ele>3067</ele></trkpt>
<trkpt lat="35.5" lon="138.18683"><ele>3074</ele></trkpt>
<trkpt lat="35.49998" lon="138.1866"><ele>3071</ele></trkpt>
<trkpt lat="35.49994" lon="138.18638"><ele>3074</ele></trkpt>
<trkpt lat="35.49997" lon="138.18628"><ele>3079</ele></trkpt>
<trkpt lat="35.49997" lon="138.18611"><ele>3083</ele></trkpt>
<trkpt lat="35.49996" lon="138.18598"><ele>3083</ele></trkpt>
<trkpt lat="35.49997" lon="138.18583"><ele>3085</ele></trkpt>
<trkpt lat="35.49993" lon="138.18556"><ele>3081</ele></trkpt>
<trkpt lat="35.49995" lon="138.18534"><ele>3082</ele></trkpt>
<trkpt lat="35.49997" lon="138.18517"><ele>3085</ele></trkpt>
<trkpt lat="35.5" lon="138.18491"><ele>3083</ele></trkpt>
<trkpt lat="35.50012" lon="138.18484"><ele>3088</ele></trkpt>
<trkpt lat="35.5002" lon="138.18469"><ele>3094</ele></trkpt>
<trkpt lat="35.5003" lon="138.1845"><ele>3097</ele></trkpt>
<trkpt lat="35.50031" lon="138.18435"><ele>3101</ele></trkpt>
<trkpt lat="35.50029" lon="138.18424"><ele>3095</ele></trkpt>
<trkpt lat="35.50033" lon="138.18408"><ele>3099</ele></trkpt>
<trkpt lat="35.50044" lon="138.18397"><ele>3103</ele></trkpt>
<trkpt lat="35.50053" lon="138.18379"><ele>3114</ele></trkpt>
<trkpt lat="35.50061" lon="138.18364"><ele>3117</ele></trkpt>
<trkpt lat="35.50062" lon="138.18353"><ele>3118</ele></trkpt>
<trkpt lat="35.50068" lon="138.18337"><ele>3120</ele></trkpt>
<trkpt lat="35.50071" lon="138.18326"><ele>3124</ele></trkpt>
<trkpt lat="35.50077" lon="138.18309"><ele>3129</ele></trkpt>
<trkpt lat="35.5009" lon="138.18291"><ele>3132</ele></trkpt>
<trkpt lat="35.50099" lon="138.18277"><ele>3136</ele></trkpt>
<trkpt lat="35.50095" lon="138.18266"><ele>3136</ele></trkpt>
<trkpt lat="35.50087" lon="138.18251"><ele>3141</ele></trkpt>
<trkpt lat="35.50072" lon="138.1824"><ele>3138</ele></trkpt>
<trkpt lat="35.50068" lon="138.18228"><ele>3144</ele></trkpt>
<trkpt lat="35.50052" lon="138.18213"><ele>3142</ele></trkpt>
<trkpt lat="35.50049" lon="138.182"><ele>3136</ele></trkpt>
<trkpt lat="35.5004" lon="138.1818"><ele>3129</ele></trkpt>
<trkpt lat="35.50029" lon="138.18154"><ele>3123</ele></trkpt>
<trkpt lat="35.50028" lon="138.18137"><ele>3118</ele></trkpt>
<trkpt lat="35.50027" lon="138.18106"><ele>3112</ele></trkpt>
<trkpt lat="35.50014" lon="138.18084"><ele>3108</ele></trkpt>
<trkpt lat="35.5001" lon="138.18065"><ele>3102</ele></trkpt>
<trkpt lat="35.5" lon="138.18052"><ele>3100</ele></trkpt>
<trkpt lat="35.49986" lon="138.18034"><ele>3096</ele></trkpt>
<trkpt lat="35.49976" lon="138.18008"><ele>3087</ele></trkpt>
<trkpt lat="35.4997" lon="138.1799"><ele>3078</ele></trkpt>
<trkpt lat="35.49955" lon="138.18004"><ele>3067</ele></trkpt>
<trkpt lat="35.49941" lon="138.17995"><ele>3059</ele></trkpt>
<trkpt lat="35.49928" lon="138.17998"><ele>3052</ele></trkpt>
<trkpt lat="35.49939" lon="138.17971"><ele>3045</ele></trkpt>
<trkpt lat="35.49941" lon="138.17947"><ele>3047</ele></trkpt>
<trkpt lat="35.49946" lon="138.17924"><ele>3042</ele></trkpt>
<trkpt lat="35.49945" lon="138.17906"><ele>3034</ele></trkpt>
<trkpt lat="35.49935" lon="138.17885"><ele>3021</ele></trkpt>
<trkpt lat="35.49942" lon="138.17876"><ele>3020</ele></trkpt>
<trkpt lat="35.49939" lon="138.17862"><ele>3011</ele></trkpt>
<trkpt lat="35.49924" lon="138.17852"><ele>3002</ele></trkpt>
<trkpt lat="35.49908" lon="138.17849"><ele>2988</ele></trkpt>
<trkpt lat="35.49899" lon="138.1784"><ele>2977</ele></trkpt>
<trkpt lat="35.49893" lon="138.1783"><ele>2965</ele></trkpt>
<trkpt lat="35.49895" lon="138.17818"><ele>2961</ele></trkpt>
<trkpt lat="35.4991" lon="138.17802"><ele>2954</ele></trkpt>
<trkpt lat="35.49921" lon="138.17788"><ele>2951</ele></trkpt>
<trkpt lat="35.49913" lon="138.17775"><ele>2944</ele></trkpt>
<trkpt lat="35.49912" lon="138.17759"><ele>2937</ele></trkpt>
<trkpt lat="35.49904" lon="138.17743"><ele>2928</ele></trkpt>
<trkpt lat="35.49903" lon="138.17716"><ele>2928</ele></trkpt>
<trkpt lat="35.49894" lon="138.17691"><ele>2930</ele></trkpt>
<trkpt lat="35.49883" lon="138.17667"><ele>2929</ele></trkpt>
<trkpt lat="35.49887" lon="138.17642"><ele>2928</ele></trkpt>
<trkpt lat="35.49882" lon="138.17618"><ele>2930</ele></trkpt>
<trkpt lat="35.49881" lon="138.17594"><ele>2931</ele></trkpt>
<trkpt lat="35.49876" lon="138.1758"><ele>2933</ele></trkpt>
<trkpt lat="35.49871" lon="138.17571"><ele>2937</ele></trkpt>
<trkpt lat="35.49868" lon="138.17547"><ele>2940</ele></trkpt>
<trkpt lat="35.49857" lon="138.17525"><ele>2948</ele></trkpt>
<trkpt lat="35.49853" lon="138.17508"><ele>2950</ele></trkpt>
<trkpt lat="35.49846" lon="138.17487"><ele>2949</ele></trkpt>
<trkpt lat="35.49837" lon="138.17473"><ele>2954</ele></trkpt>
<trkpt lat="35.49832" lon="138.17457"><ele>2952</ele></trkpt>
<trkpt lat="35.49823" lon="138.17435"><ele>2951</ele></trkpt>
<trkpt lat="35.49818" lon="138.17413"><ele>2955</ele></trkpt>
<trkpt lat="35.49801" lon="138.17398"><ele>2965</ele></trkpt>
<trkpt lat="35.49811" lon="138.17373"><ele>2971</ele></trkpt>
<trkpt lat="35.49811" lon="138.17345"><ele>2975</ele></trkpt>
<trkpt lat="35.49802" lon="138.17319"><ele>2975</ele></trkpt>
<trkpt lat="35.49795" lon="138.17287"><ele>2974</ele></trkpt>
<trkpt lat="35.49794" lon="138.17258"><ele>2974</ele></trkpt>
<trkpt lat="35.49791" lon="138.17221"><ele>2979</ele></trkpt>
<trkpt lat="35.4979" lon="138.17191"><ele>2972</ele></trkpt>
<trkpt lat="35.49773" lon="138.1716"><ele>2976</ele></trkpt>
<trkpt lat="35.49776" lon="138.1713"><ele>2982</ele></trkpt>
<trkpt lat="35.49771" lon="138.17106"><ele>2990</ele></trkpt>
<trkpt lat="35.49772" lon="138.17084"><ele>2990</ele></trkpt>
<trkpt lat="35.49768" lon="138.17068"><ele>3000</ele></trkpt>
<trkpt lat="35.4976" lon="138.17044"><ele>3004</ele></trkpt>
<trkpt lat="35.49759" lon="138.17027"><ele>3014</ele></trkpt>
<trkpt lat="35.49764" lon="138.17003"><ele>3016</ele></trkpt>
<trkpt lat="35.49754" lon="138.16988"><ele>3023</ele></trkpt>
<trkpt lat="35.49754" lon="138.16973"><ele>3021</ele></trkpt>
<trkpt lat="35.49763" lon="138.16961"><ele>3027</ele></trkpt>
<trkpt lat="35.49761" lon="138.16943"><ele>3035</ele></trkpt>
<trkpt lat="35.49765" lon="138.16918"><ele>3042</ele></trkpt>
<trkpt lat="35.49752" lon="138.1691"><ele>3046</ele></trkpt>
<trkpt lat="35.49744" lon="138.16899"><ele>3051</ele></trkpt>
<trkpt lat="35.49752" lon="138.16885"><ele>3053</ele></trkpt>
<trkpt lat="35.49747" lon="138.16866"><ele>3061</ele></trkpt>
<trkpt lat="35.49736" lon="138.1685"><ele>3065</ele></trkpt>
<trkpt lat="35.4972" lon="138.16836"><ele>3070</ele></trkpt>
<trkpt lat="35.49713" lon="138.16828"><ele>3067</ele></trkpt>
<trkpt lat="35.4972" lon="138.16813"><ele>3066</ele></trkpt>
<trkpt lat="35.49704" lon="138.16844"><ele>3044</ele></trkpt>
<trkpt lat="35.49702" lon="138.16827"><ele>3063</ele></trkpt>
<trkpt lat="35.49714" lon="138.16835"><ele>3069</ele></trkpt>
<trkpt lat="35.49701" lon="138.16808"><ele>3068</ele></trkpt>
<trkpt lat="35.49685" lon="138.16783"><ele>3075</ele></trkpt>
<trkpt lat="35.49675" lon="138.1677"><ele>3079</ele></trkpt>
<trkpt lat="35.49663" lon="138.16742"><ele>3082</ele></trkpt>
<trkpt lat="35.49657" lon="138.16715"><ele>3079</ele></trkpt>
<trkpt lat="35.49651" lon="138.16702"><ele>3085</ele></trkpt>
<trkpt lat="35.49644" lon="138.16671"><ele>3073</ele></trkpt>
<trkpt lat="35.49626" lon="138.1665"><ele>3065</ele></trkpt>
<trkpt lat="35.49608" lon="138.16641"><ele>3064</ele></trkpt>
<trkpt lat="35.49591" lon="138.16633"><ele>3061</ele></trkpt>
<trkpt lat="35.49578" lon="138.16618"><ele>3058</ele></trkpt>
<trkpt lat="35.49564" lon="138.16594"><ele>3054</ele></trkpt>
<trkpt lat="35.49545" lon="138.16576"><ele>3053</ele></trkpt>
<trkpt lat="35.49525" lon="138.16567"><ele>3049</ele></trkpt>
<trkpt lat="35.49501" lon="138.16568"><ele>3049</ele></trkpt>
<trkpt lat="35.4951" lon="138.16589"><ele>3050</ele></trkpt>
<trkpt lat="35.49497" lon="138.16587"><ele>3042</ele></trkpt>
<trkpt lat="35.49472" lon="138.16588"><ele>3045</ele></trkpt>
<trkpt lat="35.49441" lon="138.16598"><ele>3033</ele></trkpt>
<trkpt lat="35.49422" lon="138.16602"><ele>3017</ele></trkpt>
<trkpt lat="35.494" lon="138.16598"><ele>3008</ele></trkpt>
<trkpt lat="35.49378" lon="138.16601"><ele>3003</ele></trkpt>
<trkpt lat="35.49345" lon="138.16608"><ele>2998</ele></trkpt>
<trkpt lat="35.49323" lon="138.16612"><ele>2993</ele></trkpt>
<trkpt lat="35.4931" lon="138.16617"><ele>2978</ele></trkpt>
<trkpt lat="35.49293" lon="138.16633"><ele>2965</ele></trkpt>
<trkpt lat="35.49276" lon="138.16646"><ele>2956</ele></trkpt>
<trkpt lat="35.49265" lon="138.16623"><ele>2942</ele></trkpt>
<trkpt lat="35.4925" lon="138.16634"><ele>2942</ele></trkpt>
<trkpt lat="35.49236" lon="138.16614"><ele>2929</ele></trkpt>
<trkpt lat="35.49224" lon="138.16611"><ele>2918</ele></trkpt>
<trkpt lat="35.49206" lon="138.16591"><ele>2913</ele></trkpt>
<trkpt lat="35.4919" lon="138.16579"><ele>2914</ele></trkpt>
<trkpt lat="35.49181" lon="138.16575"><ele>2904</ele></trkpt>
<trkpt lat="35.49184" lon="138.16599"><ele>2901</ele></trkpt>
<trkpt lat="35.49177" lon="138.16614"><ele>2892</ele></trkpt>
<trkpt lat="35.49173" lon="138.16641"><ele>2884</ele></trkpt>
<trkpt lat="35.49161" lon="138.16645"><ele>2875</ele></trkpt>
<trkpt lat="35.49154" lon="138.16626"><ele>2870</ele></trkpt>
<trkpt lat="35.49138" lon="138.16622"><ele>2865</ele></trkpt>
<trkpt lat="35.4912" lon="138.16603"><ele>2858</ele></trkpt>
<trkpt lat="35.49109" lon="138.16585"><ele>2853</ele></trkpt>
<trkpt lat="35.4909" lon="138.16564"><ele>2851</ele></trkpt>
<trkpt lat="35.49073" lon="138.16546"><ele>2846</ele></trkpt>
<trkpt lat="35.49059" lon="138.16532"><ele>2839</ele></trkpt>
<trkpt lat="35.49044" lon="138.16521"><ele>2830</ele></trkpt>
<trkpt lat="35.49027" lon="138.1654"><ele>2821</ele></trkpt>
<trkpt lat="35.4902" lon="138.16517"><ele>2811</ele></trkpt>
<trkpt lat="35.49007" lon="138.16529"><ele>2808</ele></trkpt>
<trkpt lat="35.49005" lon="138.16546"><ele>2800</ele></trkpt>
<trkpt lat="35.49005" lon="138.16565"><ele>2793</ele></trkpt>
<trkpt lat="35.48986" lon="138.16554"><ele>2788</ele></trkpt>
<trkpt lat="35.48972" lon="138.16539"><ele>2779</ele></trkpt>
<trkpt lat="35.48958" lon="138.16536"><ele>2771</ele></trkpt>
<trkpt lat="35.48946" lon="138.16525"><ele>2760</ele></trkpt>
<trkpt lat="35.48955" lon="138.16496"><ele>2757</ele></trkpt>
<trkpt lat="35.48944" lon="138.16498"><ele>2755</ele></trkpt>
<trkpt lat="35.48941" lon="138.16477"><ele>2747</ele></trkpt>
<trkpt lat="35.4892" lon="138.16478"><ele>2734</ele></trkpt>
<trkpt lat="35.48914" lon="138.16466"><ele>2730</ele></trkpt>
<trkpt lat="35.48903" lon="138.16458"><ele>2721</ele></trkpt>
<trkpt lat="35.48909" lon="138.16435"><ele>2716</ele></trkpt>
<trkpt lat="35.48894" lon="138.16422"><ele>2712</ele></trkpt>
<trkpt lat="35.48873" lon="138.16409"><ele>2710</ele></trkpt>
<trkpt lat="35.48858" lon="138.1638"><ele>2700</ele></trkpt>
<trkpt lat="35.48843" lon="138.16364"><ele>2699</ele></trkpt>
<trkpt lat="35.4883" lon="138.16344"><ele>2698</ele></trkpt>
<trkpt lat="35.48815" lon="138.16329"><ele>2693</ele></trkpt>
<trkpt lat="35.48798" lon="138.16314"><ele>2689</ele></trkpt>
<trkpt lat="35.48782" lon="138.16291"><ele>2681</ele></trkpt>
<trkpt lat="35.48765" lon="138.16278"><ele>2685</ele></trkpt>
<trkpt lat="35.48753" lon="138.16259"><ele>2674</ele></trkpt>
<trkpt lat="35.48749" lon="138.16231"><ele>2673</ele></trkpt>
<trkpt lat="35.48754" lon="138.16201"><ele>2675</ele></trkpt>
<trkpt lat="35.48758" lon="138.16188"><ele>2673</ele></trkpt>
<trkpt lat="35.48735" lon="138.16183"><ele>2672</ele></trkpt>
<trkpt lat="35.48713" lon="138.16168"><ele>2674</ele></trkpt>
<trkpt lat="35.48688" lon="138.16161"><ele>2677</ele></trkpt>
<trkpt lat="35.48678" lon="138.16145"><ele>2659</ele></trkpt>
<trkpt lat="35.48663" lon="138.16134"><ele>2657</ele></trkpt>
<trkpt lat="35.48645" lon="138.16113"><ele>2654</ele></trkpt>
<trkpt lat="35.48632" lon="138.16093"><ele>2652</ele></trkpt>
<trkpt lat="35.48614" lon="138.16074"><ele>2646</ele></trkpt>
<trkpt lat="35.48598" lon="138.16085"><ele>2642</ele></trkpt>
<trkpt lat="35.48588" lon="138.1609"><ele>2636</ele></trkpt>
<trkpt lat="35.48586" lon="138.16121"><ele>2629</ele></trkpt>
<trkpt lat="35.48576" lon="138.16124"><ele>2629</ele></trkpt>
<trkpt lat="35.4857" lon="138.16134"><ele>2632</ele></trkpt>
<trkpt lat="35.48554" lon="138.16124"><ele>2635</ele></trkpt>
<trkpt lat="35.48541" lon="138.16116"><ele>2630</ele></trkpt>
<trkpt lat="35.48516" lon="138.16124"><ele>2630</ele></trkpt>
<trkpt lat="35.48502" lon="138.16114"><ele>2625</ele></trkpt>
<trkpt lat="35.48495" lon="138.161"><ele>2631</ele></trkpt>
<trkpt lat="35.4848" lon="138.16095"><ele>2639</ele></trkpt>
<trkpt lat="35.48482" lon="138.16076"><ele>2641</ele></trkpt>
<trkpt lat="35.48472" lon="138.16068"><ele>2647</ele></trkpt>
<trkpt lat="35.48458" lon="138.16057"><ele>2663</ele></trkpt>
<trkpt lat="35.48447" lon="138.16068"><ele>2661</ele></trkpt>
<trkpt lat="35.48437" lon="138.16085"><ele>2659</ele></trkpt>
<trkpt lat="35.48431" lon="138.16094"><ele>2658</ele></trkpt>
<trkpt lat="35.48414" lon="138.16093"><ele>2661</ele></trkpt>
<trkpt lat="35.484" lon="138.16077"><ele>2661</ele></trkpt>
<trkpt lat="35.48389" lon="138.16059"><ele>2663</ele></trkpt>
<trkpt lat="35.48373" lon="138.16036"><ele>2668</ele></trkpt>
<trkpt lat="35.48361" lon="138.16017"><ele>2670</ele></trkpt>
<trkpt lat="35.48338" lon="138.1602"><ele>2678</ele></trkpt>
<trkpt lat="35.48313" lon="138.16022"><ele>2676</ele></trkpt>
<trkpt lat="35.48299" lon="138.16027"><ele>2672</ele></trkpt>
<trkpt lat="35.4828" lon="138.16038"><ele>2676</ele></trkpt>
<trkpt lat="35.48262" lon="138.16044"><ele>2674</ele></trkpt>
<trkpt lat="35.48241" lon="138.16052"><ele>2672</ele></trkpt>
<trkpt lat="35.4822" lon="138.16038"><ele>2670</ele></trkpt>
<trkpt lat="35.48202" lon="138.16024"><ele>2672</ele></trkpt>
<trkpt lat="35.48179" lon="138.16011"><ele>2679</ele></trkpt>
<trkpt lat="35.4816" lon="138.16012"><ele>2677</ele></trkpt>
<trkpt lat="35.48141" lon="138.16014"><ele>2676</ele></trkpt>
<trkpt lat="35.48119" lon="138.16013"><ele>2681</ele></trkpt>
<trkpt lat="35.48097" lon="138.16008"><ele>2676</ele></trkpt>
<trkpt lat="35.48078" lon="138.16"><ele>2681</ele></trkpt>
<trkpt lat="35.48063" lon="138.15985"><ele>2673</ele></trkpt>
<trkpt lat="35.48048" lon="138.15965"><ele>2680</ele></trkpt>
<trkpt lat="35.48033" lon="138.15946"><ele>2676</ele></trkpt>
<trkpt lat="35.4802" lon="138.15929"><ele>2680</ele></trkpt>
<trkpt lat="35.48" lon="138.1591"><ele>2684</ele></trkpt>
<trkpt lat="35.47987" lon="138.15886"><ele>2680</ele></trkpt>
<trkpt lat="35.47974" lon="138.15869"><ele>2682</ele></trkpt>
<trkpt lat="35.47956" lon="138.15854"><ele>2687</ele></trkpt>
<trkpt lat="35.4794" lon="138.15836"><ele>2695</ele></trkpt>
<trkpt lat="35.47923" lon="138.15824"><ele>2700</ele></trkpt>
<trkpt lat="35.4791" lon="138.15806"><ele>2696</ele></trkpt>
<trkpt lat="35.47889" lon="138.15786"><ele>2691</ele></trkpt>
<trkpt lat="35.47875" lon="138.15771"><ele>2698</ele></trkpt>
<trkpt lat="35.47855" lon="138.15753"><ele>2696</ele></trkpt>
<trkpt lat="35.47835" lon="138.15747"><ele>2696</ele></trkpt>
<trkpt lat="35.47819" lon="138.15732"><ele>2693</ele></trkpt>
<trkpt lat="35.47796" lon="138.1572"><ele>2693</ele></trkpt>
<trkpt lat="35.47774" lon="138.15706"><ele>2708</ele></trkpt>
<trkpt lat="35.4776" lon="138.15688"><ele>2704</ele></trkpt>
<trkpt lat="35.4774" lon="138.15678"><ele>2704</ele></trkpt>
<trkpt lat="35.47733" lon="138.15669"><ele>2708</ele></trkpt>
<trkpt lat="35.47716" lon="138.15661"><ele>2708</ele></trkpt>
<trkpt lat="35.47702" lon="138.15656"><ele>2709</ele></trkpt>
<trkpt lat="35.47687" lon="138.15654"><ele>2717</ele></trkpt>
<trkpt lat="35.47674" lon="138.15654"><ele>2716</ele></trkpt>
<trkpt lat="35.47659" lon="138.15649"><ele>2723</ele></trkpt>
<trkpt lat="35.47646" lon="138.1564"><ele>2726</ele></trkpt>
<trkpt lat="35.47633" lon="138.15634"><ele>2734</ele></trkpt>
<trkpt lat="35.47621" lon="138.15646"><ele>2735</ele></trkpt>
<trkpt lat="35.47605" lon="138.15654"><ele>2739</ele></trkpt>
<trkpt lat="35.47591" lon="138.15663"><ele>2744</ele></trkpt>
<trkpt lat="35.4758" lon="138.15666"><ele>2756</ele></trkpt>
<trkpt lat="35.47567" lon="138.15657"><ele>2760</ele></trkpt>
<trkpt lat="35.47558" lon="138.15659"><ele>2754</ele></trkpt>
<trkpt lat="35.47546" lon="138.15657"><ele>2765</ele></trkpt>
<trkpt lat="35.47536" lon="138.15655"><ele>2769</ele></trkpt>
<trkpt lat="35.47521" lon="138.15661"><ele>2776</ele></trkpt>
<trkpt lat="35.47512" lon="138.15657"><ele>2768</ele></trkpt>
<trkpt lat="35.47499" lon="138.15654"><ele>2798</ele></trkpt>
<trkpt lat="35.47488" lon="138.15651"><ele>2798</ele></trkpt>
<trkpt lat="35.47471" lon="138.15654"><ele>2800</ele></trkpt>
<trkpt lat="35.47454" lon="138.15654"><ele>2808</ele></trkpt>
<trkpt lat="35.47436" lon="138.15658"><ele>2814</ele></trkpt>
<trkpt lat="35.47419" lon="138.1566"><ele>2820</ele></trkpt>
<trkpt lat="35.47389" lon="138.15669"><ele>2830</ele></trkpt>
<trkpt lat="35.47373" lon="138.15679"><ele>2842</ele></trkpt>
<trkpt lat="35.47355" lon="138.15683"><ele>2845</ele></trkpt>
<trkpt lat="35.47345" lon="138.15683"><ele>2847</ele></trkpt>
<trkpt lat="35.47323" lon="138.15696"><ele>2850</ele></trkpt>
<trkpt lat="35.47306" lon="138.15713"><ele>2855</ele></trkpt>
<trkpt lat="35.47297" lon="138.15728"><ele>2858</ele></trkpt>
<trkpt lat="35.47284" lon="138.15738"><ele>2861</ele></trkpt>
<trkpt lat="35.47275" lon="138.15754"><ele>2865</ele></trkpt>
<trkpt lat="35.47261" lon="138.15763"><ele>2867</ele></trkpt>
<trkpt lat="35.47261" lon="138.15776"><ele>2874</ele></trkpt>
<trkpt lat="35.47267" lon="138.15785"><ele>2878</ele></trkpt>
<trkpt lat="35.47263" lon="138.15797"><ele>2883</ele></trkpt>
<trkpt lat="35.47259" lon="138.15812"><ele>2887</ele></trkpt>
<trkpt lat="35.47254" lon="138.15823"><ele>2893</ele></trkpt>
<trkpt lat="35.47251" lon="138.15836"><ele>2903</ele></trkpt>
<trkpt lat="35.47245" lon="138.15845"><ele>2906</ele></trkpt>
<trkpt lat="35.47244" lon="138.15859"><ele>2911</ele></trkpt>
<trkpt lat="35.47245" lon="138.15878"><ele>2917</ele></trkpt>
<trkpt lat="35.47249" lon="138.15895"><ele>2923</ele></trkpt>
<trkpt lat="35.47243" lon="138.15913"><ele>2933</ele></trkpt>
<trkpt lat="35.47234" lon="138.15924"><ele>2942</ele></trkpt>
<trkpt lat="35.47234" lon="138.15939"><ele>2952</ele></trkpt>
<trkpt lat="35.47228" lon="138.15951"><ele>2957</ele></trkpt>
<trkpt lat="35.47227" lon="138.15963"><ele>2967</ele></trkpt>
<trkpt lat="35.47207" lon="138.15955"><ele>2973</ele></trkpt>
<trkpt lat="35.47204" lon="138.15967"><ele>2976</ele></trkpt>
<trkpt lat="35.47199" lon="138.15978"><ele>2978</ele></trkpt>
<trkpt lat="35.4719" lon="138.15981"><ele>2986</ele></trkpt>
<trkpt lat="35.47187" lon="138.15998"><ele>2989</ele></trkpt>
<trkpt lat="35.4718" lon="138.16007"><ele>2998</ele></trkpt>
<trkpt lat="35.47168" lon="138.16012"><ele>3004</ele></trkpt>
<trkpt lat="35.47168" lon="138.16023"><ele>3009</ele></trkpt>
<trkpt lat="35.47158" lon="138.16032"><ele>3009</ele></trkpt>
<trkpt lat="35.47148" lon="138.16032"><ele>3012</ele></trkpt>
<trkpt lat="35.47139" lon="138.16039"><ele>3021</ele></trkpt>
<trkpt lat="35.4713" lon="138.16034"><ele>3027</ele></trkpt>
<trkpt lat="35.47106" lon="138.16037"><ele>3033</ele></trkpt>
<trkpt lat="35.47088" lon="138.16043"><ele>3031</ele></trkpt>
<trkpt lat="35.47074" lon="138.16052"><ele>3026</ele></trkpt>
<trkpt lat="35.47051" lon="138.16038"><ele>3031</ele></trkpt>
<trkpt lat="35.47038" lon="138.1602"><ele>3025</ele></trkpt>
<trkpt lat="35.47033" lon="138.16037"><ele>3029</ele></trkpt>
<trkpt lat="35.47016" lon="138.16038"><ele>3032</ele></trkpt>
<trkpt lat="35.46999" lon="138.16051"><ele>3037</ele></trkpt>
<trkpt lat="35.46982" lon="138.16053"><ele>3035</ele></trkpt>
<trkpt lat="35.46968" lon="138.16048"><ele>3039</ele></trkpt>
<trkpt lat="35.4696" lon="138.16043"><ele>3043</ele></trkpt>
<trkpt lat="35.46936" lon="138.16044"><ele>3040</ele></trkpt>
<trkpt lat="35.46916" lon="138.16047"><ele>3041</ele></trkpt>
<trkpt lat="35.46906" lon="138.16045"><ele>3044</ele></trkpt>
<trkpt lat="35.46895" lon="138.16043"><ele>3047</ele></trkpt>
<trkpt lat="35.46883" lon="138.16034"><ele>3052</ele></trkpt>
<trkpt lat="35.4687" lon="138.16024"><ele>3065</ele></trkpt>
<trkpt lat="35.46855" lon="138.16025"><ele>3072</ele></trkpt>
<trkpt lat="35.46837" lon="138.16028"><ele>3076</ele></trkpt>
<trkpt lat="35.46817" lon="138.16033"><ele>3077</ele></trkpt>
<trkpt lat="35.46799" lon="138.16037"><ele>3079</ele></trkpt>
<trkpt lat="35.46779" lon="138.16043"><ele>3075</ele></trkpt>
<trkpt lat="35.46761" lon="138.16039"><ele>3080</ele></trkpt>
<trkpt lat="35.46752" lon="138.16042"><ele>3078</ele></trkpt>
<trkpt lat="35.46743" lon="138.16028"><ele>3074</ele></trkpt>
<trkpt lat="35.46728" lon="138.16015"><ele>3071</ele></trkpt>
<trkpt lat="35.46712" lon="138.15993"><ele>3068</ele></trkpt>
<trkpt lat="35.46709" lon="138.15983"><ele>3061</ele></trkpt>
<trkpt lat="35.46691" lon="138.15976"><ele>3058</ele></trkpt>
<trkpt lat="35.46675" lon="138.15967"><ele>3048</ele></trkpt>
<trkpt lat="35.46654" lon="138.15951"><ele>3047</ele></trkpt>
<trkpt lat="35.46633" lon="138.15935"><ele>3046</ele></trkpt>
<trkpt lat="35.46609" lon="138.15923"><ele>3046</ele></trkpt>
<trkpt lat="35.4658" lon="138.15912"><ele>3043</ele></trkpt>
<trkpt lat="35.46567" lon="138.15904"><ele>3040</ele></trkpt>
<trkpt lat="35.46548" lon="138.15897"><ele>3035</ele></trkpt>
<trkpt lat="35.46535" lon="138.15901"><ele>3033</ele></trkpt>
<trkpt lat="35.46522" lon="138.15893"><ele>3033</ele></trkpt>
<trkpt lat="35.46505" lon="138.15903"><ele>3032</ele></trkpt>
<trkpt lat="35.46493" lon="138.15896"><ele>3036</ele></trkpt>
<trkpt lat="35.46474" lon="138.15903"><ele>3035</ele></trkpt>
<trkpt lat="35.46461" lon="138.15906"><ele>3039</ele></trkpt>
<trkpt lat="35.46464" lon="138.15894"><ele>3044</ele></trkpt>
<trkpt lat="35.46447" lon="138.15875"><ele>3040</ele></trkpt>
<trkpt lat="35.46433" lon="138.15858"><ele>3038</ele></trkpt>
<trkpt lat="35.46427" lon="138.15837"><ele>3039</ele></trkpt>
<trkpt lat="35.46409" lon="138.15832"><ele>3034</ele></trkpt>
<trkpt lat="35.46399" lon="138.1582"><ele>3036</ele></trkpt>
<trkpt lat="35.46381" lon="138.15814"><ele>3037</ele></trkpt>
<trkpt lat="35.46368" lon="138.15798"><ele>3036</ele></trkpt>
<trkpt lat="35.46359" lon="138.15786"><ele>3035</ele></trkpt>
<trkpt lat="35.46337" lon="138.1578"><ele>3041</ele></trkpt>
<trkpt lat="35.46324" lon="138.15783"><ele>3041</ele></trkpt>
<trkpt lat="35.46312" lon="138.15774"><ele>3047</ele></trkpt>
<trkpt lat="35.46302" lon="138.15775"><ele>3051</ele></trkpt>
<trkpt lat="35.46292" lon="138.15761"><ele>3055</ele></trkpt>
<trkpt lat="35.46284" lon="138.15766"><ele>3058</ele></trkpt>
<trkpt lat="35.46265" lon="138.1576"><ele>3068</ele></trkpt>
<trkpt lat="35.46257" lon="138.15753"><ele>3071</ele></trkpt>
<trkpt lat="35.46248" lon="138.15751"><ele>3082</ele></trkpt>
<trkpt lat="35.46232" lon="138.1575"><ele>3086</ele></trkpt>
<trkpt lat="35.46223" lon="138.15747"><ele>3087</ele></trkpt>
<trkpt lat="35.46208" lon="138.15742"><ele>3092</ele></trkpt>
<trkpt lat="35.4619" lon="138.15737"><ele>3096</ele></trkpt>
<trkpt lat="35.4617" lon="138.15733"><ele>3111</ele></trkpt>
<trkpt lat="35.46159" lon="138.1572"><ele>3115</ele></trkpt>
<trkpt lat="35.46142" lon="138.15725"><ele>3118</ele></trkpt>
<trkpt lat="35.46131" lon="138.15734"><ele>3116</ele></trkpt>
<trkpt lat="35.46147" lon="138.15725"><ele>3119</ele></trkpt>
<trkpt lat="35.46167" lon="138.15731"><ele>3109</ele></trkpt>
<trkpt lat="35.46186" lon="138.15736"><ele>3097</ele></trkpt>
<trkpt lat="35.46196" lon="138.15741"><ele>3099</ele></trkpt>
<trkpt lat="35.46207" lon="138.15746"><ele>3094</ele></trkpt>
<trkpt lat="35.46221" lon="138.1575"><ele>3087</ele></trkpt>
<trkpt lat="35.46237" lon="138.15753"><ele>3085</ele></trkpt>
<trkpt lat="35.46246" lon="138.1575"><ele>3076</ele></trkpt>
<trkpt lat="35.46259" lon="138.15753"><ele>3069</ele></trkpt>
<trkpt lat="35.46276" lon="138.1576"><ele>3065</ele></trkpt>
<trkpt lat="35.46286" lon="138.15771"><ele>3064</ele></trkpt>
<trkpt lat="35.46299" lon="138.15767"><ele>3052</ele></trkpt>
<trkpt lat="35.46314" lon="138.15779"><ele>3046</ele></trkpt>
<trkpt lat="35.46327" lon="138.15781"><ele>3040</ele></trkpt>
<trkpt lat="35.46346" lon="138.15787"><ele>3039</ele></trkpt>
<trkpt lat="35.46368" lon="138.15801"><ele>3034</ele></trkpt>
<trkpt lat="35.46387" lon="138.15818"><ele>3037</ele></trkpt>
<trkpt lat="35.46403" lon="138.15827"><ele>3037</ele></trkpt>
<trkpt lat="35.46412" lon="138.15834"><ele>3041</ele></trkpt>
<trkpt lat="35.46428" lon="138.15845"><ele>3044</ele></trkpt>
<trkpt lat="35.46435" lon="138.15862"><ele>3041</ele></trkpt>
<trkpt lat="35.46447" lon="138.15886"><ele>3042</ele></trkpt>
<trkpt lat="35.46457" lon="138.15899"><ele>3045</ele></trkpt>
<trkpt lat="35.46465" lon="138.15905"><ele>3043</ele></trkpt>
<trkpt lat="35.46454" lon="138.15909"><ele>3040</ele></trkpt>
<trkpt lat="35.46459" lon="138.15929"><ele>3036</ele></trkpt>
<trkpt lat="35.46457" lon="138.15948"><ele>3026</ele></trkpt>
<trkpt lat="35.4645" lon="138.15965"><ele>3018</ele></trkpt>
<trkpt lat="35.46453" lon="138.15975"><ele>3011</ele></trkpt>
<trkpt lat="35.4645" lon="138.15986"><ele>3003</ele></trkpt>
<trkpt lat="35.46443" lon="138.16001"><ele>2993</ele></trkpt>
<trkpt lat="35.46447" lon="138.16022"><ele>2985</ele></trkpt>
<trkpt lat="35.46449" lon="138.16037"><ele>2983</ele></trkpt>
<trkpt lat="35.46463" lon="138.16049"><ele>2973</ele></trkpt>
<trkpt lat="35.46474" lon="138.16052"><ele>2962</ele></trkpt>
<trkpt lat="35.46479" lon="138.16072"><ele>2953</ele></trkpt>
<trkpt lat="35.46492" lon="138.16078"><ele>2947</ele></trkpt>
<trkpt lat="35.46506" lon="138.16082"><ele>2940</ele></trkpt>
<trkpt lat="35.46515" lon="138.16083"><ele>2934</ele></trkpt>
<trkpt lat="35.46525" lon="138.16083"><ele>2933</ele></trkpt>
<trkpt lat="35.46539" lon="138.1608"><ele>2928</ele></trkpt>
<trkpt lat="35.46554" lon="138.16098"><ele>2922</ele></trkpt>
<trkpt lat="35.46562" lon="138.1612"><ele>2916</ele></trkpt>
<trkpt lat="35.46562" lon="138.16139"><ele>2906</ele></trkpt>
<trkpt lat="35.4656" lon="138.16156"><ele>2902</ele></trkpt>
<trkpt lat="35.46564" lon="138.16172"><ele>2894</ele></trkpt>
<trkpt lat="35.46569" lon="138.16194"><ele>2892</ele></trkpt>
<trkpt lat="35.4656" lon="138.16216"><ele>2880</ele></trkpt>
<trkpt lat="35.46558" lon="138.16233"><ele>2878</ele></trkpt>
<trkpt lat="35.46548" lon="138.16236"><ele>2867</ele></trkpt>
<trkpt lat="35.46546" lon="138.16254"><ele>2861</ele></trkpt>
<trkpt lat="35.46537" lon="138.16256"><ele>2851</ele></trkpt>
<trkpt lat="35.46528" lon="138.16264"><ele>2843</ele></trkpt>
<trkpt lat="35.46518" lon="138.16261"><ele>2845</ele></trkpt>
<trkpt lat="35.46515" lon="138.16278"><ele>2846</ele></trkpt>
<trkpt lat="35.46521" lon="138.16286"><ele>2839</ele></trkpt>
<trkpt lat="35.46513" lon="138.16293"><ele>2822</ele></trkpt>
<trkpt lat="35.46508" lon="138.16307"><ele>2819</ele></trkpt>
<trkpt lat="35.46493" lon="138.16294"><ele>2814</ele></trkpt>
<trkpt lat="35.46486" lon="138.1628"><ele>2813</ele></trkpt>
<trkpt lat="35.46478" lon="138.16293"><ele>2803</ele></trkpt>
<trkpt lat="35.46473" lon="138.16309"><ele>2790</ele></trkpt>
<trkpt lat="35.46465" lon="138.16321"><ele>2776</ele></trkpt>
<trkpt lat="35.46458" lon="138.16337"><ele>2769</ele></trkpt>
<trkpt lat="35.46451" lon="138.16347"><ele>2767</ele></trkpt>
<trkpt lat="35.46453" lon="138.16364"><ele>2762</ele></trkpt>
<trkpt lat="35.46441" lon="138.16375"><ele>2750</ele></trkpt>
<trkpt lat="35.46431" lon="138.16381"><ele>2741</ele></trkpt>
<trkpt lat="35.46422" lon="138.164"><ele>2736</ele></trkpt>
<trkpt lat="35.46433" lon="138.16414"><ele>2727</ele></trkpt>
<trkpt lat="35.46432" lon="138.16432"><ele>2727</ele></trkpt>
<trkpt lat="35.46438" lon="138.16451"><ele>2723</ele></trkpt>
<trkpt lat="35.4645" lon="138.16466"><ele>2721</ele></trkpt>
<trkpt lat="35.46444" lon="138.16481"><ele>2718</ele></trkpt>
<trkpt lat="35.46448" lon="138.16497"><ele>2717</ele></trkpt>
<trkpt lat="35.46452" lon="138.16513"><ele>2720</ele></trkpt>
<trkpt lat="35.46454" lon="138.16524"><ele>2717</ele></trkpt>
<trkpt lat="35.46454" lon="138.16547"><ele>2717</ele></trkpt>
<trkpt lat="35.46453" lon="138.16568"><ele>2719</ele></trkpt>
<trkpt lat="35.46457" lon="138.16589"><ele>2720</ele></trkpt>
<trkpt lat="35.46457" lon="138.16607"><ele>2718</ele></trkpt>
<trkpt lat="35.46456" lon="138.16618"><ele>2722</ele></trkpt>
<trkpt lat="35.46456" lon="138.16636"><ele>2722</ele></trkpt>
<trkpt lat="35.46465" lon="138.16649"><ele>2729</ele></trkpt>
<trkpt lat="35.46467" lon="138.16663"><ele>2731</ele></trkpt>
<trkpt lat="35.46464" lon="138.16686"><ele>2729</ele></trkpt>
<trkpt lat="35.46457" lon="138.16702"><ele>2729</ele></trkpt>
<trkpt lat="35.46457" lon="138.16718"><ele>2732</ele></trkpt>
<trkpt lat="35.4645" lon="138.1674"><ele>2733</ele></trkpt>
<trkpt lat="35.46446" lon="138.16763"><ele>2733</ele></trkpt>
<trkpt lat="35.46445" lon="138.16787"><ele>2729</ele></trkpt>
<trkpt lat="35.46438" lon="138.16802"><ele>2723</ele></trkpt>
<trkpt lat="35.46427" lon="138.16821"><ele>2720</ele></trkpt>
<trkpt lat="35.46411" lon="138.16832"><ele>2712</ele></trkpt>
<trkpt lat="35.46393" lon="138.1684"><ele>2707</ele></trkpt>
<trkpt lat="35.4638" lon="138.16843"><ele>2709</ele></trkpt>
<trkpt lat="35.46369" lon="138.16849"><ele>2702</ele></trkpt>
<trkpt lat="35.46363" lon="138.16865"><ele>2705</ele></trkpt>
<trkpt lat="35.46365" lon="138.16885"><ele>2715</ele></trkpt>
<trkpt lat="35.46354" lon="138.16899"><ele>2718</ele></trkpt>
<trkpt lat="35.46352" lon="138.16916"><ele>2722</ele></trkpt>
<trkpt lat="35.46345" lon="138.16932"><ele>2722</ele></trkpt>
<trkpt lat="35.46338" lon="138.1695"><ele>2719</ele></trkpt>
<trkpt lat="35.46335" lon="138.16972"><ele>2717</ele></trkpt>
<trkpt lat="35.46335" lon="138.16989"><ele>2720</ele></trkpt>
<trkpt lat="35.4633" lon="138.17"><ele>2726</ele></trkpt>
<trkpt lat="35.4633" lon="138.17012"><ele>2723</ele></trkpt>
<trkpt lat="35.4633" lon="138.17031"><ele>2720</ele></trkpt>
<trkpt lat="35.46336" lon="138.17051"><ele>2724</ele></trkpt>
<trkpt lat="35.46337" lon="138.17066"><ele>2721</ele></trkpt>
<trkpt lat="35.46336" lon="138.17078"><ele>2719</ele></trkpt>
<trkpt lat="35.46328" lon="138.17092"><ele>2712</ele></trkpt>
<trkpt lat="35.46319" lon="138.17106"><ele>2705</ele></trkpt>
<trkpt lat="35.46322" lon="138.17122"><ele>2703</ele></trkpt>
<trkpt lat="35.46325" lon="138.17147"><ele>2696</ele></trkpt>
<trkpt lat="35.4634" lon="138.17162"><ele>2697</ele></trkpt>
<trkpt lat="35.46345" lon="138.17176"><ele>2703</ele></trkpt>
<trkpt lat="35.46344" lon="138.17197"><ele>2704</ele></trkpt>
<trkpt lat="35.46334" lon="138.1721"><ele>2705</ele></trkpt>
<trkpt lat="35.4634" lon="138.17219"><ele>2705</ele></trkpt>
<trkpt lat="35.46344" lon="138.17236"><ele>2710</ele></trkpt>
<trkpt lat="35.4635" lon="138.17251"><ele>2712</ele></trkpt>
<trkpt lat="35.46355" lon="138.17273"><ele>2717</ele></trkpt>
<trkpt lat="35.46359" lon="138.17283"><ele>2720</ele></trkpt>
<trkpt lat="35.46364" lon="138.17299"><ele>2719</ele></trkpt>
<trkpt lat="35.46373" lon="138.17313"><ele>2716</ele></trkpt>
<trkpt lat="35.46375" lon="138.17334"><ele>2714</ele></trkpt>
<trkpt lat="35.46375" lon="138.17351"><ele>2712</ele></trkpt>
<trkpt lat="35.46374" lon="138.17374"><ele>2710</ele></trkpt>
<trkpt lat="35.46379" lon="138.17393"><ele>2709</ele></trkpt>
<trkpt lat="35.4638" lon="138.17412"><ele>2710</ele></trkpt>
<trkpt lat="35.46384" lon="138.17428"><ele>2715</ele></trkpt>
<trkpt lat="35.46385" lon="138.17445"><ele>2724</ele></trkpt>
<trkpt lat="35.46386" lon="138.17462"><ele>2729</ele></trkpt>
<trkpt lat="35.46382" lon="138.17485"><ele>2735</ele></trkpt>
<trkpt lat="35.46397" lon="138.17513"><ele>2736</ele></trkpt>
<trkpt lat="35.46407" lon="138.17528"><ele>2730</ele></trkpt>
<trkpt lat="35.46415" lon="138.17557"><ele>2729</ele></trkpt>
<trkpt lat="35.46421" lon="138.17579"><ele>2728</ele></trkpt>
<trkpt lat="35.46433" lon="138.176"><ele>2727</ele></trkpt>
<trkpt lat="35.46448" lon="138.17622"><ele>2728</ele></trkpt>
<trkpt lat="35.46447" lon="138.17644"><ele>2723</ele></trkpt>
<trkpt lat="35.46431" lon="138.17656"><ele>2719</ele></trkpt>
<trkpt lat="35.4642" lon="138.17682"><ele>2712</ele></trkpt>
<trkpt lat="35.46406" lon="138.17699"><ele>2704</ele></trkpt>
<trkpt lat="35.46391" lon="138.1772"><ele>2693</ele></trkpt>
<trkpt lat="35.46375" lon="138.17737"><ele>2685</ele></trkpt>
<trkpt lat="35.4637" lon="138.17763"><ele>2683</ele></trkpt>
<trkpt lat="35.46359" lon="138.17781"><ele>2679</ele></trkpt>
<trkpt lat="35.46348" lon="138.17803"><ele>2675</ele></trkpt>
<trkpt lat="35.46342" lon="138.17828"><ele>2675</ele></trkpt>
<trkpt lat="35.46333" lon="138.17858"><ele>2676</ele></trkpt>
<trkpt lat="35.46315" lon="138.17863"><ele>2674</ele></trkpt>
<trkpt lat="35.46325" lon="138.17879"><ele>2666</ele></trkpt>
<trkpt lat="35.46318" lon="138.17889"><ele>2676</ele></trkpt>
<trkpt lat="35.46303" lon="138.17892"><ele>2673</ele></trkpt>
<trkpt lat="35.46307" lon="138.17913"><ele>2664</ele></trkpt>
<trkpt lat="35.46303" lon="138.17936"><ele>2655</ele></trkpt>
<trkpt lat="35.46294" lon="138.17958"><ele>2648</ele></trkpt>
<trkpt lat="35.46279" lon="138.1797"><ele>2634</ele></trkpt>
<trkpt lat="35.46267" lon="138.17978"><ele>2626</ele></trkpt>
<trkpt lat="35.4626" lon="138.18002"><ele>2623</ele></trkpt>
<trkpt lat="35.46248" lon="138.18012"><ele>2617</ele></trkpt>
<trkpt lat="35.46247" lon="138.18029"><ele>2614</ele></trkpt>
<trkpt lat="35.46236" lon="138.18046"><ele>2608</ele></trkpt>
<trkpt lat="35.46225" lon="138.18066"><ele>2602</ele></trkpt>
<trkpt lat="35.46212" lon="138.18086"><ele>2594</ele></trkpt>
<trkpt lat="35.46198" lon="138.18094"><ele>2591</ele></trkpt>
<trkpt lat="35.46182" lon="138.18096"><ele>2582</ele></trkpt>
<trkpt lat="35.46166" lon="138.1809"><ele>2573</ele></trkpt>
<trkpt lat="35.46149" lon="138.18097"><ele>2568</ele></trkpt>
<trkpt lat="35.46143" lon="138.18114"><ele>2568</ele></trkpt>
<trkpt lat="35.46132" lon="138.18132"><ele>2560</ele></trkpt>
<trkpt lat="35.46123" lon="138.18147"><ele>2554</ele></trkpt>
<trkpt lat="35.46114" lon="138.18167"><ele>2549</ele></trkpt>
<trkpt lat="35.46098" lon="138.1818"><ele>2547</ele></trkpt>
<trkpt lat="35.46086" lon="138.18208"><ele>2548</ele></trkpt>
<trkpt lat="35.46057" lon="138.18232"><ele>2549</ele></trkpt>
<trkpt lat="35.46041" lon="138.18242"><ele>2551</ele></trkpt>
</trkseg>
<trkseg>
<trkpt lat="35.46016" lon="138.18247"><ele>2542</ele></trkpt>
<trkpt lat="35.45998" lon="138.18256"><ele>2541</ele></trkpt>
<trkpt lat="35.45984" lon="138.18281"><ele>2540</ele></trkpt>
<trkpt lat="35.45967" lon="138.18304"><ele>2542</ele></trkpt>
<trkpt lat="35.4595" lon="138.18327"><ele>2540</ele></trkpt>
<trkpt lat="35.45932" lon="138.1835"><ele>2539</ele></trkpt>
<trkpt lat="35.45911" lon="138.18366"><ele>2538</ele></trkpt>
<trkpt lat="35.45895" lon="138.18381"><ele>2540</ele></trkpt>
<trkpt lat="35.45878" lon="138.18404"><ele>2533</ele></trkpt>
<trkpt lat="35.45874" lon="138.18427"><ele>2534</ele></trkpt>
<trkpt lat="35.45859" lon="138.18444"><ele>2532</ele></trkpt>
<trkpt lat="35.45852" lon="138.18468"><ele>2528</ele></trkpt>
<trkpt lat="35.45839" lon="138.18462"><ele>2522</ele></trkpt>
<trkpt lat="35.45829" lon="138.18489"><ele>2515</ele></trkpt>
<trkpt lat="35.45812" lon="138.18497"><ele>2510</ele></trkpt>
<trkpt lat="35.45787" lon="138.18493"><ele>2502</ele></trkpt>
<trkpt lat="35.45764" lon="138.18494"><ele>2495</ele></trkpt>
<trkpt lat="35.45743" lon="138.1849"><ele>2493</ele></trkpt>
<trkpt lat="35.45717" lon="138.18492"><ele>2484</ele></trkpt>
<trkpt lat="35.45698" lon="138.18499"><ele>2481</ele></trkpt>
<trkpt lat="35.45674" lon="138.18506"><ele>2480</ele></trkpt>
<trkpt lat="35.45655" lon="138.18512"><ele>2475</ele></trkpt>
<trkpt lat="35.45632" lon="138.18513"><ele>2475</ele></trkpt>
<trkpt lat="35.45617" lon="138.18529"><ele>2475</ele></trkpt>
<trkpt lat="35.45597" lon="138.1853"><ele>2471</ele></trkpt>
<trkpt lat="35.45575" lon="138.18541"><ele>2471</ele></trkpt>
<trkpt lat="35.45555" lon="138.18545"><ele>2472</ele></trkpt>
<trkpt lat="35.4553" lon="138.18547"><ele>2473</ele></trkpt>
<trkpt lat="35.45511" lon="138.18545"><ele>2475</ele></trkpt>
<trkpt lat="35.45494" lon="138.18539"><ele>2477</ele></trkpt>
<trkpt lat="35.45476" lon="138.18545"><ele>2475</ele></trkpt>
<trkpt lat="35.45463" lon="138.18537"><ele>2475</ele></trkpt>
<trkpt lat="35.4545" lon="138.18551"><ele>2466</ele></trkpt>
<trkpt lat="35.45437" lon="138.18574"><ele>2451</ele></trkpt>
<trkpt lat="35.45435" lon="138.18587"><ele>2442</ele></trkpt>
<trkpt lat="35.4542" lon="138.18585"><ele>2434</ele></trkpt>
<trkpt lat="35.45411" lon="138.18596"><ele>2428</ele></trkpt>
<trkpt lat="35.45417" lon="138.1861"><ele>2424</ele></trkpt>
<trkpt lat="35.45404" lon="138.18619"><ele>2415</ele></trkpt>
<trkpt lat="35.45389" lon="138.18634"><ele>2403</ele></trkpt>
<trkpt lat="35.45366" lon="138.18629"><ele>2394</ele></trkpt>
<trkpt lat="35.45355" lon="138.18656"><ele>2387</ele></trkpt>
<trkpt lat="35.45376" lon="138.18664"><ele>2385</ele></trkpt>
<trkpt lat="35.45353" lon="138.18679"><ele>2377</ele></trkpt>
<trkpt lat="35.45334" lon="138.1868"><ele>2373</ele></trkpt>
<trkpt lat="35.45318" lon="138.18685"><ele>2363</ele></trkpt>
<trkpt lat="35.45311" lon="138.187"><ele>2356</ele></trkpt>
<trkpt lat="35.45304" lon="138.1872"><ele>2349</ele></trkpt>
<trkpt lat="35.45284" lon="138.18707"><ele>2346</ele></trkpt>
<trkpt lat="35.45262" lon="138.18719"><ele>2338</ele></trkpt>
<trkpt lat="35.45236" lon="138.18731"><ele>2335</ele></trkpt>
<trkpt lat="35.45213" lon="138.18731"><ele>2331</ele></trkpt>
<trkpt lat="35.45187" lon="138.18738"><ele>2324</ele></trkpt>
<trkpt lat="35.45162" lon="138.18746"><ele>2324</ele></trkpt>
<trkpt lat="35.4514" lon="138.1875"><ele>2322</ele></trkpt>
<trkpt lat="35.45116" lon="138.18759"><ele>2323</ele></trkpt>
<trkpt lat="35.45091" lon="138.18763"><ele>2322</ele></trkpt>
<trkpt lat="35.45068" lon="138.18776"><ele>2323</ele></trkpt>
<trkpt lat="35.45041" lon="138.18791"><ele>2319</ele></trkpt>
<trkpt lat="35.45027" lon="138.18816"><ele>2322</ele></trkpt>
<trkpt lat="35.4502" lon="138.1884"><ele>2322</ele></trkpt>
<trkpt lat="35.45013" lon="138.18867"><ele>2324</ele></trkpt>
<trkpt lat="35.44997" lon="138.18894"><ele>2322</ele></trkpt>
<trkpt lat="35.44984" lon="138.18912"><ele>2317</ele></trkpt>
<trkpt lat="35.44972" lon="138.18939"><ele>2310</ele></trkpt>
<trkpt lat="35.44972" lon="138.18971"><ele>2308</ele></trkpt>
<trkpt lat="35.44966" lon="138.18995"><ele>2301</ele></trkpt>
<trkpt lat="35.44957" lon="138.19009"><ele>2295</ele></trkpt>
<trkpt lat="35.44943" lon="138.19027"><ele>2285</ele></trkpt>
<trkpt lat="35.44933" lon="138.19036"><ele>2274</ele></trkpt>
<trkpt lat="35.44934" lon="138.19066"><ele>2272</ele></trkpt>
<trkpt lat="35.44935" lon="138.1908"><ele>2271</ele></trkpt>
<trkpt lat="35.44927" lon="138.19092"><ele>2269</ele></trkpt>
<trkpt lat="35.44922" lon="138.19109"><ele>2262</ele></trkpt>
<trkpt lat="35.44919" lon="138.19125"><ele>2256</ele></trkpt>
<trkpt lat="35.44914" lon="138.19157"><ele>2250</ele></trkpt>
<trkpt lat="35.44903" lon="138.19173"><ele>2240</ele></trkpt>
<trkpt lat="35.44908" lon="138.19206"><ele>2232</ele></trkpt>
<trkpt lat="35.44899" lon="138.19224"><ele>2225</ele></trkpt>
<trkpt lat="35.44903" lon="138.19247"><ele>2220</ele></trkpt>
<trkpt lat="35.44896" lon="138.19268"><ele>2212</ele></trkpt>
<trkpt lat="35.44885" lon="138.19282"><ele>2204</ele></trkpt>
<trkpt lat="35.44887" lon="138.19302"><ele>2197</ele></trkpt>
<trkpt lat="35.44877" lon="138.19315"><ele>2192</ele></trkpt>
<trkpt lat="35.44867" lon="138.19334"><ele>2183</ele></trkpt>
<trkpt lat="35.4486" lon="138.19347"><ele>2175</ele></trkpt>
<trkpt lat="35.44851" lon="138.19353"><ele>2172</ele></trkpt>
<trkpt lat="35.44845" lon="138.19364"><ele>2161</ele></trkpt>
<trkpt lat="35.44843" lon="138.19386"><ele>2156</ele></trkpt>
<trkpt lat="35.4485" lon="138.194"><ele>2152</ele></trkpt>
<trkpt lat="35.4485" lon="138.19417"><ele>2146</ele></trkpt>
<trkpt lat="35.44846" lon="138.19439"><ele>2144</ele></trkpt>
<trkpt lat="35.44839" lon="138.19464"><ele>2137</ele></trkpt>
<trkpt lat="35.44831" lon="138.19487"><ele>2133</ele></trkpt>
<trkpt lat="35.44816" lon="138.19512"><ele>2128</ele></trkpt>
<trkpt lat="35.44803" lon="138.19529"><ele>2124</ele></trkpt>
<trkpt lat="35.4479" lon="138.19545"><ele>2116</ele></trkpt>
<trkpt lat="35.44767" lon="138.1955"><ele>2108</ele></trkpt>
<trkpt lat="35.44743" lon="138.19565"><ele>2105</ele></trkpt>
<trkpt lat="35.44726" lon="138.19584"><ele>2097</ele></trkpt>
<trkpt lat="35.44707" lon="138.19596"><ele>2095</ele></trkpt>
<trkpt lat="35.44688" lon="138.19601"><ele>2088</ele></trkpt>
<trkpt lat="35.4466" lon="138.19618"><ele>2080</ele></trkpt>
<trkpt lat="35.44637" lon="138.19638"><ele>2077</ele></trkpt>
<trkpt lat="35.44624" lon="138.19648"><ele>2074</ele></trkpt>
<trkpt lat="35.44611" lon="138.19668"><ele>2066</ele></trkpt>
<trkpt lat="35.44603" lon="138.19677"><ele>2067</ele></trkpt>
<trkpt lat="35.4459" lon="138.19694"><ele>2061</ele></trkpt>
<trkpt lat="35.44576" lon="138.19713"><ele>2055</ele></trkpt>
<trkpt lat="35.44557" lon="138.19736"><ele>2050</ele></trkpt>
<trkpt lat="35.44539" lon="138.19763"><ele>2049</ele></trkpt>
<trkpt lat="35.44521" lon="138.19774"><ele>2045</ele></trkpt>
<trkpt lat="35.44499" lon="138.19784"><ele>2039</ele></trkpt>
<trkpt lat="35.44482" lon="138.19791"><ele>2032</ele></trkpt>
<trkpt lat="35.4446" lon="138.19795"><ele>2023</ele></trkpt>
<trkpt lat="35.44446" lon="138.19801"><ele>2015</ele></trkpt>
<trkpt lat="35.44437" lon="138.19814"><ele>2005</ele></trkpt>
<trkpt lat="35.44422" lon="138.19803"><ele>1999</ele></trkpt>
<trkpt lat="35.44402" lon="138.19786"><ele>1991</ele></trkpt>
<trkpt lat="35.4439" lon="138.19773"><ele>1978</ele></trkpt>
<trkpt lat="35.44378" lon="138.19787"><ele>1971</ele></trkpt>
<trkpt lat="35.44365" lon="138.19788"><ele>1963</ele></trkpt>
<trkpt lat="35.44351" lon="138.19783"><ele>1954</ele></trkpt>
<trkpt lat="35.44351" lon="138.19769"><ele>1949</ele></trkpt>
<trkpt lat="35.44333" lon="138.1977"><ele>1941</ele></trkpt>
<trkpt lat="35.44317" lon="138.19784"><ele>1931</ele></trkpt>
<trkpt lat="35.44301" lon="138.19772"><ele>1922</ele></trkpt>
<trkpt lat="35.44282" lon="138.19777"><ele>1911</ele></trkpt>
<trkpt lat="35.44262" lon="138.19786"><ele>1905</ele></trkpt>
<trkpt lat="35.44241" lon="138.19787"><ele>1896</ele></trkpt>
<trkpt lat="35.44229" lon="138.1977"><ele>1888</ele></trkpt>
<trkpt lat="35.44214" lon="138.19792"><ele>1877</ele></trkpt>
<trkpt lat="35.44202" lon="138.19787"><ele>1876</ele></trkpt>
<trkpt lat="35.44196" lon="138.19767"><ele>1873</ele></trkpt>
<trkpt lat="35.44191" lon="138.19745"><ele>1868</ele></trkpt>
<trkpt lat="35.4418" lon="138.19729"><ele>1861</ele></trkpt>
<trkpt lat="35.44169" lon="138.19709"><ele>1854</ele></trkpt>
<trkpt lat="35.4415" lon="138.19706"><ele>1842</ele></trkpt>
<trkpt lat="35.44127" lon="138.1972"><ele>1831</ele></trkpt>
<trkpt lat="35.44126" lon="138.19738"><ele>1827</ele></trkpt>
<trkpt lat="35.44131" lon="138.19763"><ele>1826</ele></trkpt>
<trkpt lat="35.44129" lon="138.19787"><ele>1821</ele></trkpt>
<trkpt lat="35.4413" lon="138.19808"><ele>1817</ele></trkpt>
<trkpt lat="35.44131" lon="138.19825"><ele>1814</ele></trkpt>
<trkpt lat="35.44133" lon="138.19847"><ele>1808</ele></trkpt>
<trkpt lat="35.44128" lon="138.19864"><ele>1805</ele></trkpt>
<trkpt lat="35.4411" lon="138.19869"><ele>1787</ele></trkpt>
<trkpt lat="35.44093" lon="138.1987"><ele>1778</ele></trkpt>
<trkpt lat="35.4408" lon="138.1987"><ele>1769</ele></trkpt>
<trkpt lat="35.44084" lon="138.19853"><ele>1756</ele></trkpt>
<trkpt lat="35.44089" lon="138.19833"><ele>1764</ele></trkpt>
<trkpt lat="35.44064" lon="138.19845"><ele>1745</ele></trkpt>
<trkpt lat="35.44054" lon="138.19878"><ele>1738</ele></trkpt>
<trkpt lat="35.44039" lon="138.19906"><ele>1734</ele></trkpt>
<trkpt lat="35.44012" lon="138.19915"><ele>1719</ele></trkpt>
<trkpt lat="35.43998" lon="138.19924"><ele>1712</ele></trkpt>
<trkpt lat="35.4398" lon="138.19927"><ele>1707</ele></trkpt>
<trkpt lat="35.43969" lon="138.19933"><ele>1701</ele></trkpt>
<trkpt lat="35.43958" lon="138.19943"><ele>1695</ele></trkpt>
<trkpt lat="35.43948" lon="138.19954"><ele>1687</ele></trkpt>
<trkpt lat="35.43935" lon="138.19955"><ele>1679</ele></trkpt>
<trkpt lat="35.43921" lon="138.19952"><ele>1672</ele></trkpt>
<trkpt lat="35.43915" lon="138.19979"><ele>1666</ele></trkpt>
<trkpt lat="35.43921" lon="138.20002"><ele>1657</ele></trkpt>
<trkpt lat="35.43911" lon="138.20015"><ele>1649</ele></trkpt>
<trkpt lat="35.43894" lon="138.20021"><ele>1637</ele></trkpt>
<trkpt lat="35.43884" lon="138.20032"><ele>1629</ele></trkpt>
<trkpt lat="35.43864" lon="138.20046"><ele>1607</ele></trkpt>
<trkpt lat="35.43851" lon="138.2004"><ele>1602</ele></trkpt>
<trkpt lat="35.43837" lon="138.20043"><ele>1589</ele></trkpt>
<trkpt lat="35.43819" lon="138.20046"><ele>1583</ele></trkpt>
<trkpt lat="35.43808" lon="138.20045"><ele>1576</ele></trkpt>
<trkpt lat="35.43794" lon="138.20049"><ele>1565</ele></trkpt>
<trkpt lat="35.43779" lon="138.20067"><ele>1552</ele></trkpt>
<trkpt lat="35.43761" lon="138.20084"><ele>1544</ele></trkpt>
<trkpt lat="35.43742" lon="138.2011"><ele>1538</ele></trkpt>
<trkpt lat="35.43731" lon="138.20129"><ele>1530</ele></trkpt>
<trkpt lat="35.43714" lon="138.20144"><ele>1529</ele></trkpt>
<trkpt lat="35.43703" lon="138.20162"><ele>1522</ele></trkpt>
<trkpt lat="35.4369" lon="138.20177"><ele>1520</ele></trkpt>
<trkpt lat="35.43684" lon="138.20197"><ele>1515</ele></trkpt>
<trkpt lat="35.43663" lon="138.20195"><ele>1509</ele></trkpt>
<trkpt lat="35.4364" lon="138.20202"><ele>1500</ele></trkpt>
<trkpt lat="35.43616" lon="138.20207"><ele>1491</ele></trkpt>
<trkpt lat="35.43614" lon="138.2023"><ele>1478</ele></trkpt>
<trkpt lat="35.43601" lon="138.20247"><ele>1474</ele></trkpt>
<trkpt lat="35.43578" lon="138.2027"><ele>1464</ele></trkpt>
<trkpt lat="35.43552" lon="138.20284"><ele>1451</ele></trkpt>
<trkpt lat="35.4353" lon="138.20295"><ele>1442</ele></trkpt>
<trkpt lat="35.43501" lon="138.20302"><ele>1434</ele></trkpt>
<trkpt lat="35.43483" lon="138.20318"><ele>1429</ele></trkpt>
<trkpt lat="35.4346" lon="138.20319"><ele>1419</ele></trkpt>
<trkpt lat="35.43448" lon="138.20327"><ele>1408</ele></trkpt>
<trkpt lat="35.43434" lon="138.20329"><ele>1397</ele></trkpt>
<trkpt lat="35.43424" lon="138.20342"><ele>1391</ele></trkpt>
<trkpt lat="35.4341" lon="138.20352"><ele>1382</ele></trkpt>
<trkpt lat="35.43392" lon="138.20352"><ele>1375</ele></trkpt>
<trkpt lat="35.43379" lon="138.20357"><ele>1361</ele></trkpt>
<trkpt lat="35.43384" lon="138.20379"><ele>1359</ele></trkpt>
<trkpt lat="35.43364" lon="138.20379"><ele>1355</ele></trkpt>
<trkpt lat="35.43372" lon="138.20389"><ele>1348</ele></trkpt>
<trkpt lat="35.43354" lon="138.20404"><ele>1338</ele></trkpt>
<trkpt lat="35.43362" lon="138.20424"><ele>1335</ele></trkpt>
<trkpt lat="35.43378" lon="138.2044"><ele>1340</ele></trkpt>
<trkpt lat="35.43388" lon="138.20465"><ele>1338</ele></trkpt>
<trkpt lat="35.43396" lon="138.20485"><ele>1326</ele></trkpt>
<trkpt lat="35.43412" lon="138.20509"><ele>1314</ele></trkpt>
<trkpt lat="35.43401" lon="138.20517"><ele>1303</ele></trkpt>
<trkpt lat="35.43407" lon="138.20532"><ele>1293</ele></trkpt>
<trkpt lat="35.43389" lon="138.20523"><ele>1300</ele></trkpt>
<trkpt lat="35.43397" lon="138.20546"><ele>1275</ele></trkpt>
<trkpt lat="35.43377" lon="138.20549"><ele>1279</ele></trkpt>
<trkpt lat="35.43391" lon="138.20565"><ele>1255</ele></trkpt>
<trkpt lat="35.43368" lon="138.20567"><ele>1256</ele></trkpt>
<trkpt lat="35.43382" lon="138.20587"><ele>1245</ele></trkpt>
<trkpt lat="35.43382" lon="138.20603"><ele>1234</ele></trkpt>
<trkpt lat="35.43362" lon="138.20604"><ele>1227</ele></trkpt>
<trkpt lat="35.43357" lon="138.2062"><ele>1220</ele></trkpt>
<trkpt lat="35.43348" lon="138.20632"><ele>1208</ele></trkpt>
<trkpt lat="35.43362" lon="138.20645"><ele>1212</ele></trkpt>
<trkpt lat="35.43371" lon="138.20649"><ele>1209</ele></trkpt>
<trkpt lat="35.43346" lon="138.20649"><ele>1209</ele></trkpt>
<trkpt lat="35.4333" lon="138.20633"><ele>1205</ele></trkpt>
<trkpt lat="35.43312" lon="138.20642"><ele>1205</ele></trkpt>
<trkpt lat="35.43304" lon="138.20651"><ele>1195</ele></trkpt>
<trkpt lat="35.43299" lon="138.20662"><ele>1189</ele></trkpt>
<trkpt lat="35.4331" lon="138.20662"><ele>1182</ele></trkpt>
<trkpt lat="35.43318" lon="138.20675"><ele>1188</ele></trkpt>
<trkpt lat="35.43325" lon="138.20688"><ele>1187</ele></trkpt>
<trkpt lat="35.43314" lon="138.20691"><ele>1184</ele></trkpt>
<trkpt lat="35.43326" lon="138.20707"><ele>1167</ele></trkpt>
<trkpt lat="35.43309" lon="138.20708"><ele>1161</ele></trkpt>
<trkpt lat="35.43293" lon="138.20711"><ele>1159</ele></trkpt>
<trkpt lat="35.43275" lon="138.2071"><ele>1154</ele></trkpt>
<trkpt lat="35.43256" lon="138.20715"><ele>1152</ele></trkpt>
<trkpt lat="35.43238" lon="138.20698"><ele>1152</ele></trkpt>
<trkpt lat="35.43215" lon="138.20685"><ele>1158</ele></trkpt>
<trkpt lat="35.43197" lon="138.20687"><ele>1157</ele></trkpt>
<trkpt lat="35.43185" lon="138.20712"><ele>1146</ele></trkpt>
</trkseg>
</trk>
</gpx>
