<?xml version="1.0" encoding="UTF-8"?>
<gpx version="1.1" creator="en.daringdaddy.com" xmlns="http://www.topografix.com/GPX/1/1">
<metadata><name>Kai-Komagatake and Senjogatake from a Choei-goya tent base</name><desc>Day 1: Choei-goya - Sensui-toge - Komatsu-mine - direct ridge - Kai-Komagatake - Marishiten - back. Day 2: Kosenjo - Senjogatake - Osenjo-ga-take and back - Senjo-goya - Uma-no-se - Yabusawa - Choei-goya. September 2026; timestamps removed. en.daringdaddy.com</desc></metadata>
<trk><name>Kai-Komagatake and Senjogatake from a Choei-goya tent base</name>
<trkseg>
<trkpt lat="35.73808" lon="138.21518"><ele>1992</ele></trkpt>
<trkpt lat="35.73826" lon="138.21527"><ele>1988</ele></trkpt>
<trkpt lat="35.73843" lon="138.21555"><ele>1990</ele></trkpt>
<trkpt lat="35.73854" lon="138.21567"><ele>1989</ele></trkpt>
<trkpt lat="35.7387" lon="138.21596"><ele>1993</ele></trkpt>
<trkpt lat="35.73852" lon="138.21561"><ele>1991</ele></trkpt>
<trkpt lat="35.7383" lon="138.21526"><ele>1987</ele></trkpt>
<trkpt lat="35.73812" lon="138.21516"><ele>1984</ele></trkpt>
<trkpt lat="35.73834" lon="138.21538"><ele>1986</ele></trkpt>
<trkpt lat="35.73853" lon="138.21568"><ele>1989</ele></trkpt>
<trkpt lat="35.7387" lon="138.21581"><ele>1995</ele></trkpt>
<trkpt lat="35.73867" lon="138.21596"><ele>2001</ele></trkpt>
<trkpt lat="35.73874" lon="138.21573"><ele>2012</ele></trkpt>
<trkpt lat="35.7391" lon="138.21581"><ele>2019</ele></trkpt>
<trkpt lat="35.73849" lon="138.21578"><ele>2012</ele></trkpt>
<trkpt lat="35.73838" lon="138.21596"><ele>2008</ele></trkpt>
<trkpt lat="35.73867" lon="138.21581"><ele>1996</ele></trkpt>
<trkpt lat="35.73869" lon="138.2161"><ele>1991</ele></trkpt>
<trkpt lat="35.73876" lon="138.21628"><ele>1994</ele></trkpt>
<trkpt lat="35.73897" lon="138.21646"><ele>2001</ele></trkpt>
<trkpt lat="35.73899" lon="138.21668"><ele>2006</ele></trkpt>
<trkpt lat="35.73917" lon="138.21689"><ele>2003</ele></trkpt>
<trkpt lat="35.73944" lon="138.21697"><ele>2001</ele></trkpt>
<trkpt lat="35.73954" lon="138.21729"><ele>2007</ele></trkpt>
<trkpt lat="35.73964" lon="138.21753"><ele>2012</ele></trkpt>
<trkpt lat="35.73974" lon="138.21775"><ele>2013</ele></trkpt>
<trkpt lat="35.73983" lon="138.21795"><ele>2018</ele></trkpt>
<trkpt lat="35.73986" lon="138.2182"><ele>2015</ele></trkpt>
<trkpt lat="35.73984" lon="138.21851"><ele>2017</ele></trkpt>
<trkpt lat="35.73975" lon="138.21868"><ele>2022</ele></trkpt>
<trkpt lat="35.73972" lon="138.21885"><ele>2027</ele></trkpt>
<trkpt lat="35.73974" lon="138.21915"><ele>2037</ele></trkpt>
<trkpt lat="35.7398" lon="138.21949"><ele>2036</ele></trkpt>
<trkpt lat="35.73985" lon="138.21975"><ele>2043</ele></trkpt>
<trkpt lat="35.74001" lon="138.21995"><ele>2038</ele></trkpt>
<trkpt lat="35.74004" lon="138.22031"><ele>2044</ele></trkpt>
<trkpt lat="35.74013" lon="138.22053"><ele>2049</ele></trkpt>
<trkpt lat="35.74013" lon="138.22077"><ele>2054</ele></trkpt>
<trkpt lat="35.74033" lon="138.22091"><ele>2056</ele></trkpt>
<trkpt lat="35.74059" lon="138.2211"><ele>2053</ele></trkpt>
<trkpt lat="35.74067" lon="138.22132"><ele>2057</ele></trkpt>
<trkpt lat="35.74077" lon="138.22154"><ele>2060</ele></trkpt>
<trkpt lat="35.74096" lon="138.22173"><ele>2061</ele></trkpt>
<trkpt lat="35.74102" lon="138.22193"><ele>2067</ele></trkpt>
<trkpt lat="35.74117" lon="138.22217"><ele>2065</ele></trkpt>
<trkpt lat="35.74139" lon="138.22223"><ele>2064</ele></trkpt>
<trkpt lat="35.74151" lon="138.22227"><ele>2069</ele></trkpt>
<trkpt lat="35.74162" lon="138.22252"><ele>2076</ele></trkpt>
<trkpt lat="35.74175" lon="138.22274"><ele>2082</ele></trkpt>
<trkpt lat="35.74184" lon="138.22293"><ele>2082</ele></trkpt>
<trkpt lat="35.74195" lon="138.22311"><ele>2084</ele></trkpt>
<trkpt lat="35.74203" lon="138.22331"><ele>2087</ele></trkpt>
<trkpt lat="35.74212" lon="138.22351"><ele>2093</ele></trkpt>
<trkpt lat="35.74214" lon="138.22367"><ele>2097</ele></trkpt>
<trkpt lat="35.74218" lon="138.22377"><ele>2098</ele></trkpt>
<trkpt lat="35.74224" lon="138.22398"><ele>2103</ele></trkpt>
<trkpt lat="35.74245" lon="138.22416"><ele>2108</ele></trkpt>
<trkpt lat="35.74261" lon="138.22427"><ele>2112</ele></trkpt>
<trkpt lat="35.7428" lon="138.22451"><ele>2118</ele></trkpt>
<trkpt lat="35.74292" lon="138.2246"><ele>2126</ele></trkpt>
<trkpt lat="35.74303" lon="138.22472"><ele>2129</ele></trkpt>
<trkpt lat="35.74302" lon="138.22484"><ele>2134</ele></trkpt>
<trkpt lat="35.74305" lon="138.22505"><ele>2138</ele></trkpt>
<trkpt lat="35.74317" lon="138.22513"><ele>2139</ele></trkpt>
<trkpt lat="35.74326" lon="138.2252"><ele>2145</ele></trkpt>
<trkpt lat="35.74333" lon="138.22541"><ele>2154</ele></trkpt>
<trkpt lat="35.74348" lon="138.22555"><ele>2154</ele></trkpt>
<trkpt lat="35.74353" lon="138.22573"><ele>2163</ele></trkpt>
<trkpt lat="35.74353" lon="138.2259"><ele>2169</ele></trkpt>
<trkpt lat="35.74362" lon="138.22611"><ele>2177</ele></trkpt>
<trkpt lat="35.74374" lon="138.22633"><ele>2178</ele></trkpt>
<trkpt lat="35.74388" lon="138.22662"><ele>2181</ele></trkpt>
<trkpt lat="35.74389" lon="138.22684"><ele>2186</ele></trkpt>
<trkpt lat="35.74401" lon="138.22701"><ele>2187</ele></trkpt>
<trkpt lat="35.74423" lon="138.22727"><ele>2187</ele></trkpt>
<trkpt lat="35.74443" lon="138.22745"><ele>2192</ele></trkpt>
<trkpt lat="35.74449" lon="138.22759"><ele>2196</ele></trkpt>
<trkpt lat="35.74457" lon="138.22778"><ele>2186</ele></trkpt>
<trkpt lat="35.74456" lon="138.22795"><ele>2192</ele></trkpt>
<trkpt lat="35.74454" lon="138.22822"><ele>2196</ele></trkpt>
<trkpt lat="35.7445" lon="138.22843"><ele>2200</ele></trkpt>
<trkpt lat="35.74453" lon="138.22864"><ele>2208</ele></trkpt>
<trkpt lat="35.74467" lon="138.22885"><ele>2211</ele></trkpt>
<trkpt lat="35.74469" lon="138.22897"><ele>2213</ele></trkpt>
<trkpt lat="35.74472" lon="138.2292"><ele>2217</ele></trkpt>
<trkpt lat="35.74472" lon="138.2294"><ele>2223</ele></trkpt>
<trkpt lat="35.74475" lon="138.22956"><ele>2227</ele></trkpt>
<trkpt lat="35.74475" lon="138.22974"><ele>2231</ele></trkpt>
<trkpt lat="35.7448" lon="138.22988"><ele>2235</ele></trkpt>
<trkpt lat="35.74487" lon="138.23009"><ele>2240</ele></trkpt>
<trkpt lat="35.74492" lon="138.23025"><ele>2244</ele></trkpt>
<trkpt lat="35.74492" lon="138.23048"><ele>2246</ele></trkpt>
<trkpt lat="35.74488" lon="138.23064"><ele>2249</ele></trkpt>
<trkpt lat="35.74491" lon="138.23088"><ele>2250</ele></trkpt>
<trkpt lat="35.74488" lon="138.23111"><ele>2251</ele></trkpt>
<trkpt lat="35.74491" lon="138.23134"><ele>2251</ele></trkpt>
<trkpt lat="35.7449" lon="138.23151"><ele>2250</ele></trkpt>
<trkpt lat="35.74493" lon="138.23167"><ele>2247</ele></trkpt>
<trkpt lat="35.74505" lon="138.23186"><ele>2248</ele></trkpt>
<trkpt lat="35.74507" lon="138.23211"><ele>2249</ele></trkpt>
<trkpt lat="35.7451" lon="138.23233"><ele>2250</ele></trkpt>
<trkpt lat="35.74515" lon="138.23257"><ele>2256</ele></trkpt>
<trkpt lat="35.74516" lon="138.2328"><ele>2256</ele></trkpt>
<trkpt lat="35.74522" lon="138.23303"><ele>2257</ele></trkpt>
<trkpt lat="35.74529" lon="138.23326"><ele>2258</ele></trkpt>
<trkpt lat="35.74535" lon="138.23348"><ele>2258</ele></trkpt>
<trkpt lat="35.74544" lon="138.23369"><ele>2259</ele></trkpt>
<trkpt lat="35.74559" lon="138.23384"><ele>2260</ele></trkpt>
<trkpt lat="35.7456" lon="138.23401"><ele>2263</ele></trkpt>
<trkpt lat="35.74567" lon="138.23426"><ele>2265</ele></trkpt>
<trkpt lat="35.74577" lon="138.23425"><ele>2264</ele></trkpt>
<trkpt lat="35.74586" lon="138.23406"><ele>2266</ele></trkpt>
<trkpt lat="35.74591" lon="138.23391"><ele>2274</ele></trkpt>
<trkpt lat="35.74599" lon="138.23371"><ele>2283</ele></trkpt>
<trkpt lat="35.74599" lon="138.23353"><ele>2293</ele></trkpt>
<trkpt lat="35.74612" lon="138.2334"><ele>2303</ele></trkpt>
<trkpt lat="35.74622" lon="138.23331"><ele>2311</ele></trkpt>
<trkpt lat="35.7463" lon="138.23318"><ele>2318</ele></trkpt>
<trkpt lat="35.74642" lon="138.23301"><ele>2330</ele></trkpt>
<trkpt lat="35.74652" lon="138.23289"><ele>2339</ele></trkpt>
<trkpt lat="35.74662" lon="138.23277"><ele>2345</ele></trkpt>
<trkpt lat="35.74671" lon="138.23265"><ele>2352</ele></trkpt>
<trkpt lat="35.74683" lon="138.23248"><ele>2362</ele></trkpt>
<trkpt lat="35.74691" lon="138.23235"><ele>2369</ele></trkpt>
<trkpt lat="35.74701" lon="138.23222"><ele>2376</ele></trkpt>
<trkpt lat="35.74709" lon="138.23215"><ele>2384</ele></trkpt>
<trkpt lat="35.74725" lon="138.23207"><ele>2394</ele></trkpt>
<trkpt lat="35.74735" lon="138.23195"><ele>2401</ele></trkpt>
<trkpt lat="35.74745" lon="138.23183"><ele>2411</ele></trkpt>
<trkpt lat="35.74756" lon="138.23175"><ele>2422</ele></trkpt>
<trkpt lat="35.74764" lon="138.2317"><ele>2427</ele></trkpt>
<trkpt lat="35.74774" lon="138.23155"><ele>2436</ele></trkpt>
<trkpt lat="35.74785" lon="138.23145"><ele>2444</ele></trkpt>
<trkpt lat="35.74792" lon="138.23133"><ele>2451</ele></trkpt>
<trkpt lat="35.74799" lon="138.23119"><ele>2456</ele></trkpt>
<trkpt lat="35.74804" lon="138.23108"><ele>2465</ele></trkpt>
<trkpt lat="35.74812" lon="138.23094"><ele>2467</ele></trkpt>
<trkpt lat="35.74823" lon="138.23083"><ele>2475</ele></trkpt>
<trkpt lat="35.74841" lon="138.23075"><ele>2479</ele></trkpt>
<trkpt lat="35.74854" lon="138.23072"><ele>2487</ele></trkpt>
<trkpt lat="35.74864" lon="138.2307"><ele>2492</ele></trkpt>
<trkpt lat="35.74877" lon="138.23068"><ele>2496</ele></trkpt>
<trkpt lat="35.7489" lon="138.23062"><ele>2504</ele></trkpt>
<trkpt lat="35.749" lon="138.23059"><ele>2511</ele></trkpt>
<trkpt lat="35.74913" lon="138.23053"><ele>2518</ele></trkpt>
<trkpt lat="35.74922" lon="138.23041"><ele>2522</ele></trkpt>
<trkpt lat="35.74933" lon="138.23032"><ele>2528</ele></trkpt>
<trkpt lat="35.74949" lon="138.23026"><ele>2534</ele></trkpt>
<trkpt lat="35.74964" lon="138.23003"><ele>2537</ele></trkpt>
<trkpt lat="35.74978" lon="138.22987"><ele>2542</ele></trkpt>
<trkpt lat="35.74992" lon="138.22983"><ele>2547</ele></trkpt>
<trkpt lat="35.75005" lon="138.22978"><ele>2553</ele></trkpt>
<trkpt lat="35.75022" lon="138.22977"><ele>2561</ele></trkpt>
<trkpt lat="35.75036" lon="138.22978"><ele>2568</ele></trkpt>
<trkpt lat="35.75048" lon="138.22984"><ele>2580</ele></trkpt>
<trkpt lat="35.75057" lon="138.22988"><ele>2588</ele></trkpt>
<trkpt lat="35.7507" lon="138.22991"><ele>2595</ele></trkpt>
<trkpt lat="35.75082" lon="138.22998"><ele>2605</ele></trkpt>
<trkpt lat="35.75091" lon="138.23001"><ele>2612</ele></trkpt>
<trkpt lat="35.75099" lon="138.23008"><ele>2618</ele></trkpt>
<trkpt lat="35.75116" lon="138.23007"><ele>2627</ele></trkpt>
<trkpt lat="35.75123" lon="138.22999"><ele>2632</ele></trkpt>
<trkpt lat="35.75136" lon="138.23003"><ele>2643</ele></trkpt>
<trkpt lat="35.75149" lon="138.22999"><ele>2649</ele></trkpt>
<trkpt lat="35.7516" lon="138.22989"><ele>2655</ele></trkpt>
<trkpt lat="35.75171" lon="138.22977"><ele>2660</ele></trkpt>
<trkpt lat="35.75187" lon="138.22969"><ele>2669</ele></trkpt>
<trkpt lat="35.75204" lon="138.22962"><ele>2681</ele></trkpt>
<trkpt lat="35.75216" lon="138.22962"><ele>2689</ele></trkpt>
<trkpt lat="35.75229" lon="138.22962"><ele>2697</ele></trkpt>
<trkpt lat="35.75238" lon="138.22958"><ele>2702</ele></trkpt>
<trkpt lat="35.75246" lon="138.22952"><ele>2709</ele></trkpt>
<trkpt lat="35.75256" lon="138.22939"><ele>2715</ele></trkpt>
<trkpt lat="35.7527" lon="138.22942"><ele>2722</ele></trkpt>
<trkpt lat="35.75284" lon="138.22941"><ele>2731</ele></trkpt>
<trkpt lat="35.75298" lon="138.22942"><ele>2736</ele></trkpt>
<trkpt lat="35.75309" lon="138.22948"><ele>2742</ele></trkpt>
<trkpt lat="35.75326" lon="138.2296"><ele>2748</ele></trkpt>
<trkpt lat="35.75336" lon="138.22967"><ele>2745</ele></trkpt>
<trkpt lat="35.75346" lon="138.22971"><ele>2739</ele></trkpt>
<trkpt lat="35.75356" lon="138.22985"><ele>2733</ele></trkpt>
<trkpt lat="35.75367" lon="138.22995"><ele>2736</ele></trkpt>
<trkpt lat="35.75381" lon="138.23009"><ele>2739</ele></trkpt>
<trkpt lat="35.75391" lon="138.23022"><ele>2743</ele></trkpt>
<trkpt lat="35.75405" lon="138.23037"><ele>2744</ele></trkpt>
<trkpt lat="35.75418" lon="138.23042"><ele>2745</ele></trkpt>
<trkpt lat="35.75431" lon="138.23048"><ele>2745</ele></trkpt>
<trkpt lat="35.75444" lon="138.23052"><ele>2747</ele></trkpt>
<trkpt lat="35.75453" lon="138.23064"><ele>2750</ele></trkpt>
<trkpt lat="35.75471" lon="138.23072"><ele>2751</ele></trkpt>
<trkpt lat="35.7548" lon="138.23087"><ele>2746</ele></trkpt>
<trkpt lat="35.75492" lon="138.23094"><ele>2746</ele></trkpt>
<trkpt lat="35.75498" lon="138.23104"><ele>2738</ele></trkpt>
<trkpt lat="35.75504" lon="138.23113"><ele>2730</ele></trkpt>
<trkpt lat="35.7551" lon="138.23126"><ele>2725</ele></trkpt>
<trkpt lat="35.75514" lon="138.23137"><ele>2720</ele></trkpt>
<trkpt lat="35.75515" lon="138.23161"><ele>2718</ele></trkpt>
<trkpt lat="35.7552" lon="138.23178"><ele>2719</ele></trkpt>
<trkpt lat="35.75526" lon="138.23186"><ele>2717</ele></trkpt>
<trkpt lat="35.75535" lon="138.23206"><ele>2705</ele></trkpt>
<trkpt lat="35.75542" lon="138.23228"><ele>2707</ele></trkpt>
<trkpt lat="35.75544" lon="138.23249"><ele>2707</ele></trkpt>
<trkpt lat="35.75549" lon="138.23267"><ele>2707</ele></trkpt>
<trkpt lat="35.75548" lon="138.23284"><ele>2713</ele></trkpt>
<trkpt lat="35.75568" lon="138.23293"><ele>2712</ele></trkpt>
<trkpt lat="35.75585" lon="138.23301"><ele>2711</ele></trkpt>
<trkpt lat="35.75592" lon="138.23317"><ele>2716</ele></trkpt>
<trkpt lat="35.75595" lon="138.23333"><ele>2722</ele></trkpt>
<trkpt lat="35.756" lon="138.23342"><ele>2726</ele></trkpt>
<trkpt lat="35.75606" lon="138.2335"><ele>2733</ele></trkpt>
<trkpt lat="35.75616" lon="138.23367"><ele>2746</ele></trkpt>
<trkpt lat="35.75625" lon="138.23373"><ele>2748</ele></trkpt>
<trkpt lat="35.75635" lon="138.23368"><ele>2759</ele></trkpt>
<trkpt lat="35.75648" lon="138.23371"><ele>2774</ele></trkpt>
<trkpt lat="35.75653" lon="138.2338"><ele>2777</ele></trkpt>
<trkpt lat="35.75663" lon="138.23393"><ele>2783</ele></trkpt>
<trkpt lat="35.75668" lon="138.23409"><ele>2789</ele></trkpt>
<trkpt lat="35.75669" lon="138.23421"><ele>2790</ele></trkpt>
<trkpt lat="35.75683" lon="138.23421"><ele>2800</ele></trkpt>
<trkpt lat="35.75686" lon="138.23432"><ele>2807</ele></trkpt>
<trkpt lat="35.75698" lon="138.2344"><ele>2817</ele></trkpt>
<trkpt lat="35.75703" lon="138.2345"><ele>2816</ele></trkpt>
<trkpt lat="35.75711" lon="138.23464"><ele>2820</ele></trkpt>
<trkpt lat="35.75718" lon="138.23478"><ele>2824</ele></trkpt>
<trkpt lat="35.75723" lon="138.23488"><ele>2828</ele></trkpt>
<trkpt lat="35.75717" lon="138.23507"><ele>2836</ele></trkpt>
<trkpt lat="35.75716" lon="138.23519"><ele>2841</ele></trkpt>
<trkpt lat="35.75704" lon="138.2353"><ele>2849</ele></trkpt>
<trkpt lat="35.75698" lon="138.23541"><ele>2855</ele></trkpt>
<trkpt lat="35.757" lon="138.23552"><ele>2860</ele></trkpt>
<trkpt lat="35.75707" lon="138.23566"><ele>2867</ele></trkpt>
<trkpt lat="35.75707" lon="138.23578"><ele>2874</ele></trkpt>
<trkpt lat="35.75713" lon="138.23593"><ele>2880</ele></trkpt>
<trkpt lat="35.75715" lon="138.23604"><ele>2885</ele></trkpt>
<trkpt lat="35.75715" lon="138.23615"><ele>2888</ele></trkpt>
<trkpt lat="35.75702" lon="138.23638"><ele>2899</ele></trkpt>
<trkpt lat="35.75718" lon="138.23645"><ele>2905</ele></trkpt>
<trkpt lat="35.75731" lon="138.23643"><ele>2916</ele></trkpt>
<trkpt lat="35.75743" lon="138.23655"><ele>2928</ele></trkpt>
<trkpt lat="35.75752" lon="138.23655"><ele>2935</ele></trkpt>
<trkpt lat="35.75762" lon="138.23653"><ele>2943</ele></trkpt>
<trkpt lat="35.75767" lon="138.23663"><ele>2947</ele></trkpt>
<trkpt lat="35.75783" lon="138.23665"><ele>2956</ele></trkpt>
<trkpt lat="35.75792" lon="138.23678"><ele>2960</ele></trkpt>
<trkpt lat="35.75799" lon="138.23686"><ele>2961</ele></trkpt>
<trkpt lat="35.75792" lon="138.23664"><ele>2960</ele></trkpt>
<trkpt lat="35.75799" lon="138.23689"><ele>2960</ele></trkpt>
<trkpt lat="35.7579" lon="138.23692"><ele>2962</ele></trkpt>
<trkpt lat="35.75787" lon="138.23706"><ele>2955</ele></trkpt>
<trkpt lat="35.75779" lon="138.23724"><ele>2947</ele></trkpt>
<trkpt lat="35.75783" lon="138.23741"><ele>2946</ele></trkpt>
<trkpt lat="35.75786" lon="138.23762"><ele>2952</ele></trkpt>
<trkpt lat="35.75784" lon="138.23779"><ele>2953</ele></trkpt>
<trkpt lat="35.75792" lon="138.23769"><ele>2954</ele></trkpt>
<trkpt lat="35.75784" lon="138.23758"><ele>2952</ele></trkpt>
<trkpt lat="35.75776" lon="138.23745"><ele>2942</ele></trkpt>
<trkpt lat="35.75763" lon="138.23759"><ele>2935</ele></trkpt>
<trkpt lat="35.75758" lon="138.23775"><ele>2933</ele></trkpt>
<trkpt lat="35.75744" lon="138.23791"><ele>2926</ele></trkpt>
<trkpt lat="35.75735" lon="138.23796"><ele>2921</ele></trkpt>
<trkpt lat="35.75725" lon="138.23797"><ele>2916</ele></trkpt>
<trkpt lat="35.75724" lon="138.23785"><ele>2912</ele></trkpt>
<trkpt lat="35.75711" lon="138.23792"><ele>2904</ele></trkpt>
<trkpt lat="35.75705" lon="138.23801"><ele>2901</ele></trkpt>
<trkpt lat="35.75697" lon="138.23806"><ele>2895</ele></trkpt>
<trkpt lat="35.75674" lon="138.23813"><ele>2885</ele></trkpt>
<trkpt lat="35.75652" lon="138.23818"><ele>2875</ele></trkpt>
<trkpt lat="35.75641" lon="138.23814"><ele>2866</ele></trkpt>
<trkpt lat="35.75626" lon="138.23826"><ele>2860</ele></trkpt>
<trkpt lat="35.75612" lon="138.23817"><ele>2849</ele></trkpt>
<trkpt lat="35.75602" lon="138.23817"><ele>2842</ele></trkpt>
<trkpt lat="35.75604" lon="138.23804"><ele>2842</ele></trkpt>
<trkpt lat="35.75605" lon="138.23792"><ele>2839</ele></trkpt>
<trkpt lat="35.75614" lon="138.23764"><ele>2833</ele></trkpt>
<trkpt lat="35.75626" lon="138.23746"><ele>2828</ele></trkpt>
<trkpt lat="35.75628" lon="138.23721"><ele>2825</ele></trkpt>
<trkpt lat="35.75617" lon="138.23691"><ele>2822</ele></trkpt>
<trkpt lat="35.75602" lon="138.23676"><ele>2815</ele></trkpt>
<trkpt lat="35.75589" lon="138.23669"><ele>2806</ele></trkpt>
<trkpt lat="35.75571" lon="138.23662"><ele>2796</ele></trkpt>
<trkpt lat="35.75572" lon="138.23687"><ele>2788</ele></trkpt>
<trkpt lat="35.7557" lon="138.23704"><ele>2780</ele></trkpt>
<trkpt lat="35.75561" lon="138.23724"><ele>2778</ele></trkpt>
<trkpt lat="35.75546" lon="138.23747"><ele>2771</ele></trkpt>
<trkpt lat="35.75536" lon="138.2376"><ele>2769</ele></trkpt>
<trkpt lat="35.75528" lon="138.23782"><ele>2774</ele></trkpt>
<trkpt lat="35.75522" lon="138.23804"><ele>2775</ele></trkpt>
<trkpt lat="35.75526" lon="138.23824"><ele>2775</ele></trkpt>
<trkpt lat="35.75512" lon="138.23847"><ele>2778</ele></trkpt>
<trkpt lat="35.75503" lon="138.23866"><ele>2786</ele></trkpt>
<trkpt lat="35.75503" lon="138.23878"><ele>2793</ele></trkpt>
<trkpt lat="35.75499" lon="138.23898"><ele>2800</ele></trkpt>
<trkpt lat="35.75498" lon="138.23914"><ele>2813</ele></trkpt>
<trkpt lat="35.75489" lon="138.2392"><ele>2817</ele></trkpt>
<trkpt lat="35.75475" lon="138.2392"><ele>2822</ele></trkpt>
<trkpt lat="35.75457" lon="138.23927"><ele>2825</ele></trkpt>
<trkpt lat="35.75448" lon="138.23927"><ele>2822</ele></trkpt>
<trkpt lat="35.75465" lon="138.23922"><ele>2825</ele></trkpt>
<trkpt lat="35.75479" lon="138.23919"><ele>2823</ele></trkpt>
<trkpt lat="35.75495" lon="138.23914"><ele>2814</ele></trkpt>
<trkpt lat="35.75506" lon="138.23905"><ele>2806</ele></trkpt>
<trkpt lat="35.75501" lon="138.23891"><ele>2798</ele></trkpt>
<trkpt lat="35.75505" lon="138.23868"><ele>2788</ele></trkpt>
<trkpt lat="35.75509" lon="138.23848"><ele>2779</ele></trkpt>
<trkpt lat="35.75525" lon="138.23826"><ele>2775</ele></trkpt>
<trkpt lat="35.75523" lon="138.23803"><ele>2774</ele></trkpt>
<trkpt lat="35.7553" lon="138.23775"><ele>2775</ele></trkpt>
<trkpt lat="35.75541" lon="138.23749"><ele>2770</ele></trkpt>
<trkpt lat="35.75557" lon="138.2373"><ele>2776</ele></trkpt>
<trkpt lat="35.75565" lon="138.23715"><ele>2778</ele></trkpt>
<trkpt lat="35.7557" lon="138.23699"><ele>2784</ele></trkpt>
<trkpt lat="35.75571" lon="138.23682"><ele>2787</ele></trkpt>
<trkpt lat="35.75568" lon="138.23665"><ele>2792</ele></trkpt>
<trkpt lat="35.75562" lon="138.23656"><ele>2790</ele></trkpt>
<trkpt lat="35.75551" lon="138.23645"><ele>2783</ele></trkpt>
<trkpt lat="35.75541" lon="138.23634"><ele>2777</ele></trkpt>
<trkpt lat="35.7553" lon="138.23622"><ele>2769</ele></trkpt>
<trkpt lat="35.75534" lon="138.23607"><ele>2767</ele></trkpt>
<trkpt lat="35.75545" lon="138.2359"><ele>2760</ele></trkpt>
<trkpt lat="35.7556" lon="138.23574"><ele>2754</ele></trkpt>
<trkpt lat="35.75568" lon="138.23556"><ele>2751</ele></trkpt>
<trkpt lat="35.75573" lon="138.23533"><ele>2752</ele></trkpt>
<trkpt lat="35.75574" lon="138.23516"><ele>2749</ele></trkpt>
<trkpt lat="35.7557" lon="138.23502"><ele>2742</ele></trkpt>
<trkpt lat="35.75565" lon="138.23492"><ele>2740</ele></trkpt>
<trkpt lat="35.7557" lon="138.23475"><ele>2730</ele></trkpt>
<trkpt lat="35.75584" lon="138.23463"><ele>2723</ele></trkpt>
<trkpt lat="35.75587" lon="138.23446"><ele>2719</ele></trkpt>
<trkpt lat="35.75594" lon="138.23431"><ele>2713</ele></trkpt>
<trkpt lat="35.75596" lon="138.23407"><ele>2717</ele></trkpt>
<trkpt lat="35.75595" lon="138.2339"><ele>2714</ele></trkpt>
<trkpt lat="35.75592" lon="138.23372"><ele>2713</ele></trkpt>
<trkpt lat="35.75596" lon="138.23353"><ele>2718</ele></trkpt>
<trkpt lat="35.75595" lon="138.23342"><ele>2724</ele></trkpt>
<trkpt lat="35.75591" lon="138.23325"><ele>2720</ele></trkpt>
<trkpt lat="35.75585" lon="138.2331"><ele>2712</ele></trkpt>
<trkpt lat="35.7557" lon="138.23296"><ele>2712</ele></trkpt>
<trkpt lat="35.7556" lon="138.23285"><ele>2711</ele></trkpt>
<trkpt lat="35.75547" lon="138.23286"><ele>2713</ele></trkpt>
<trkpt lat="35.75546" lon="138.23268"><ele>2706</ele></trkpt>
<trkpt lat="35.75541" lon="138.23251"><ele>2705</ele></trkpt>
<trkpt lat="35.75539" lon="138.23234"><ele>2705</ele></trkpt>
<trkpt lat="35.75537" lon="138.23223"><ele>2706</ele></trkpt>
<trkpt lat="35.75532" lon="138.23207"><ele>2705</ele></trkpt>
<trkpt lat="35.75524" lon="138.23192"><ele>2708</ele></trkpt>
<trkpt lat="35.75522" lon="138.23181"><ele>2717</ele></trkpt>
<trkpt lat="35.75512" lon="138.23163"><ele>2719</ele></trkpt>
<trkpt lat="35.75509" lon="138.23146"><ele>2717</ele></trkpt>
<trkpt lat="35.75508" lon="138.23129"><ele>2724</ele></trkpt>
<trkpt lat="35.75501" lon="138.23115"><ele>2730</ele></trkpt>
<trkpt lat="35.75494" lon="138.23104"><ele>2741</ele></trkpt>
<trkpt lat="35.75485" lon="138.23092"><ele>2748</ele></trkpt>
<trkpt lat="35.75474" lon="138.23079"><ele>2751</ele></trkpt>
<trkpt lat="35.75468" lon="138.23071"><ele>2752</ele></trkpt>
<trkpt lat="35.75449" lon="138.23068"><ele>2749</ele></trkpt>
<trkpt lat="35.7544" lon="138.23054"><ele>2746</ele></trkpt>
<trkpt lat="35.75429" lon="138.23047"><ele>2745</ele></trkpt>
<trkpt lat="35.75415" lon="138.23043"><ele>2745</ele></trkpt>
<trkpt lat="35.75402" lon="138.23038"><ele>2743</ele></trkpt>
<trkpt lat="35.75388" lon="138.23022"><ele>2741</ele></trkpt>
<trkpt lat="35.7538" lon="138.2301"><ele>2738</ele></trkpt>
<trkpt lat="35.75365" lon="138.22998"><ele>2734</ele></trkpt>
<trkpt lat="35.75348" lon="138.2298"><ele>2736</ele></trkpt>
<trkpt lat="35.75341" lon="138.22972"><ele>2740</ele></trkpt>
<trkpt lat="35.75333" lon="138.22968"><ele>2743</ele></trkpt>
<trkpt lat="35.75314" lon="138.22956"><ele>2744</ele></trkpt>
<trkpt lat="35.75306" lon="138.22944"><ele>2739</ele></trkpt>
<trkpt lat="35.75284" lon="138.22942"><ele>2730</ele></trkpt>
<trkpt lat="35.75269" lon="138.22943"><ele>2723</ele></trkpt>
<trkpt lat="35.75256" lon="138.22938"><ele>2716</ele></trkpt>
<trkpt lat="35.75245" lon="138.22948"><ele>2710</ele></trkpt>
<trkpt lat="35.75234" lon="138.22958"><ele>2700</ele></trkpt>
<trkpt lat="35.75221" lon="138.22964"><ele>2694</ele></trkpt>
<trkpt lat="35.75209" lon="138.22962"><ele>2684</ele></trkpt>
<trkpt lat="35.75195" lon="138.22974"><ele>2678</ele></trkpt>
<trkpt lat="35.7518" lon="138.22969"><ele>2665</ele></trkpt>
<trkpt lat="35.75168" lon="138.22978"><ele>2657</ele></trkpt>
<trkpt lat="35.75158" lon="138.22989"><ele>2653</ele></trkpt>
<trkpt lat="35.75145" lon="138.22998"><ele>2647</ele></trkpt>
<trkpt lat="35.75132" lon="138.23003"><ele>2640</ele></trkpt>
<trkpt lat="35.75117" lon="138.23005"><ele>2631</ele></trkpt>
<trkpt lat="35.75104" lon="138.23011"><ele>2623</ele></trkpt>
<trkpt lat="35.75092" lon="138.23004"><ele>2613</ele></trkpt>
<trkpt lat="35.75083" lon="138.23"><ele>2602</ele></trkpt>
<trkpt lat="35.75069" lon="138.22997"><ele>2596</ele></trkpt>
<trkpt lat="35.75061" lon="138.22992"><ele>2586</ele></trkpt>
<trkpt lat="35.75046" lon="138.22985"><ele>2575</ele></trkpt>
<trkpt lat="35.7503" lon="138.2298"><ele>2565</ele></trkpt>
<trkpt lat="35.75013" lon="138.2298"><ele>2556</ele></trkpt>
<trkpt lat="35.74997" lon="138.22982"><ele>2549</ele></trkpt>
<trkpt lat="35.74983" lon="138.22987"><ele>2542</ele></trkpt>
<trkpt lat="35.74965" lon="138.23002"><ele>2535</ele></trkpt>
<trkpt lat="35.74948" lon="138.23023"><ele>2533</ele></trkpt>
<trkpt lat="35.74932" lon="138.23035"><ele>2527</ele></trkpt>
<trkpt lat="35.74917" lon="138.23046"><ele>2516</ele></trkpt>
<trkpt lat="35.74906" lon="138.23056"><ele>2512</ele></trkpt>
<trkpt lat="35.74892" lon="138.2306"><ele>2505</ele></trkpt>
<trkpt lat="35.74879" lon="138.23066"><ele>2496</ele></trkpt>
<trkpt lat="35.74865" lon="138.2307"><ele>2489</ele></trkpt>
<trkpt lat="35.74851" lon="138.2307"><ele>2482</ele></trkpt>
<trkpt lat="35.74833" lon="138.23075"><ele>2473</ele></trkpt>
<trkpt lat="35.74814" lon="138.23085"><ele>2466</ele></trkpt>
<trkpt lat="35.74803" lon="138.23103"><ele>2459</ele></trkpt>
<trkpt lat="35.74798" lon="138.2312"><ele>2455</ele></trkpt>
<trkpt lat="35.74793" lon="138.23136"><ele>2448</ele></trkpt>
<trkpt lat="35.74784" lon="138.23146"><ele>2443</ele></trkpt>
<trkpt lat="35.74772" lon="138.23156"><ele>2435</ele></trkpt>
<trkpt lat="35.74764" lon="138.23171"><ele>2425</ele></trkpt>
<trkpt lat="35.74756" lon="138.23176"><ele>2419</ele></trkpt>
<trkpt lat="35.74747" lon="138.2318"><ele>2413</ele></trkpt>
<trkpt lat="35.74737" lon="138.23191"><ele>2404</ele></trkpt>
<trkpt lat="35.74728" lon="138.23204"><ele>2395</ele></trkpt>
<trkpt lat="35.74716" lon="138.23208"><ele>2387</ele></trkpt>
<trkpt lat="35.74703" lon="138.23222"><ele>2379</ele></trkpt>
<trkpt lat="35.74693" lon="138.23233"><ele>2368</ele></trkpt>
<trkpt lat="35.7468" lon="138.23249"><ele>2361</ele></trkpt>
<trkpt lat="35.74673" lon="138.23265"><ele>2353</ele></trkpt>
<trkpt lat="35.74665" lon="138.2327"><ele>2347</ele></trkpt>
<trkpt lat="35.74659" lon="138.23283"><ele>2341</ele></trkpt>
<trkpt lat="35.74646" lon="138.23294"><ele>2332</ele></trkpt>
<trkpt lat="35.74634" lon="138.23304"><ele>2327</ele></trkpt>
<trkpt lat="35.7463" lon="138.23317"><ele>2318</ele></trkpt>
<trkpt lat="35.74624" lon="138.23328"><ele>2309</ele></trkpt>
<trkpt lat="35.74613" lon="138.23337"><ele>2306</ele></trkpt>
<trkpt lat="35.74607" lon="138.23347"><ele>2295</ele></trkpt>
<trkpt lat="35.74599" lon="138.23362"><ele>2286</ele></trkpt>
<trkpt lat="35.74589" lon="138.23374"><ele>2281</ele></trkpt>
<trkpt lat="35.74588" lon="138.2339"><ele>2273</ele></trkpt>
<trkpt lat="35.7458" lon="138.23411"><ele>2264</ele></trkpt>
<trkpt lat="35.74569" lon="138.23419"><ele>2262</ele></trkpt>
<trkpt lat="35.74561" lon="138.23398"><ele>2259</ele></trkpt>
<trkpt lat="35.74554" lon="138.23379"><ele>2259</ele></trkpt>
<trkpt lat="35.74541" lon="138.2336"><ele>2258</ele></trkpt>
<trkpt lat="35.74537" lon="138.23337"><ele>2255</ele></trkpt>
<trkpt lat="35.7453" lon="138.23322"><ele>2253</ele></trkpt>
<trkpt lat="35.74521" lon="138.23301"><ele>2252</ele></trkpt>
<trkpt lat="35.74515" lon="138.23278"><ele>2251</ele></trkpt>
<trkpt lat="35.74515" lon="138.23253"><ele>2251</ele></trkpt>
<trkpt lat="35.7451" lon="138.23231"><ele>2249</ele></trkpt>
<trkpt lat="35.74509" lon="138.23211"><ele>2246</ele></trkpt>
<trkpt lat="35.74512" lon="138.2319"><ele>2247</ele></trkpt>
<trkpt lat="35.74508" lon="138.23173"><ele>2248</ele></trkpt>
<trkpt lat="35.74499" lon="138.23159"><ele>2247</ele></trkpt>
<trkpt lat="35.74494" lon="138.23143"><ele>2248</ele></trkpt>
<trkpt lat="35.74488" lon="138.23122"><ele>2247</ele></trkpt>
<trkpt lat="35.7449" lon="138.23099"><ele>2246</ele></trkpt>
<trkpt lat="35.7449" lon="138.23077"><ele>2245</ele></trkpt>
<trkpt lat="35.7449" lon="138.23055"><ele>2245</ele></trkpt>
<trkpt lat="35.74493" lon="138.23032"><ele>2243</ele></trkpt>
<trkpt lat="35.74491" lon="138.23015"><ele>2242</ele></trkpt>
<trkpt lat="35.74481" lon="138.22995"><ele>2234</ele></trkpt>
<trkpt lat="35.7448" lon="138.22978"><ele>2229</ele></trkpt>
<trkpt lat="35.74476" lon="138.22956"><ele>2224</ele></trkpt>
<trkpt lat="35.74473" lon="138.2294"><ele>2221</ele></trkpt>
<trkpt lat="35.74473" lon="138.22917"><ele>2217</ele></trkpt>
<trkpt lat="35.74469" lon="138.22894"><ele>2211</ele></trkpt>
<trkpt lat="35.74464" lon="138.22879"><ele>2208</ele></trkpt>
<trkpt lat="35.74453" lon="138.22863"><ele>2203</ele></trkpt>
<trkpt lat="35.74451" lon="138.22843"><ele>2202</ele></trkpt>
<trkpt lat="35.74455" lon="138.2282"><ele>2195</ele></trkpt>
<trkpt lat="35.74457" lon="138.22797"><ele>2192</ele></trkpt>
<trkpt lat="35.74457" lon="138.22775"><ele>2189</ele></trkpt>
<trkpt lat="35.74442" lon="138.22744"><ele>2188</ele></trkpt>
<trkpt lat="35.74422" lon="138.22725"><ele>2186</ele></trkpt>
<trkpt lat="35.74403" lon="138.22705"><ele>2185</ele></trkpt>
<trkpt lat="35.74389" lon="138.2268"><ele>2185</ele></trkpt>
<trkpt lat="35.74384" lon="138.22652"><ele>2185</ele></trkpt>
<trkpt lat="35.74375" lon="138.22625"><ele>2178</ele></trkpt>
<trkpt lat="35.74359" lon="138.22603"><ele>2174</ele></trkpt>
<trkpt lat="35.74355" lon="138.22581"><ele>2163</ele></trkpt>
<trkpt lat="35.74354" lon="138.22558"><ele>2159</ele></trkpt>
<trkpt lat="35.74336" lon="138.22542"><ele>2151</ele></trkpt>
<trkpt lat="35.74328" lon="138.2252"><ele>2144</ele></trkpt>
<trkpt lat="35.74321" lon="138.22514"><ele>2140</ele></trkpt>
<trkpt lat="35.74304" lon="138.22504"><ele>2134</ele></trkpt>
<trkpt lat="35.74307" lon="138.22487"><ele>2128</ele></trkpt>
<trkpt lat="35.74307" lon="138.22473"><ele>2128</ele></trkpt>
<trkpt lat="35.74293" lon="138.22461"><ele>2124</ele></trkpt>
<trkpt lat="35.74282" lon="138.22451"><ele>2114</ele></trkpt>
<trkpt lat="35.7427" lon="138.22434"><ele>2113</ele></trkpt>
<trkpt lat="35.74256" lon="138.2242"><ele>2110</ele></trkpt>
<trkpt lat="35.74234" lon="138.22407"><ele>2103</ele></trkpt>
<trkpt lat="35.74222" lon="138.22389"><ele>2099</ele></trkpt>
<trkpt lat="35.74214" lon="138.22369"><ele>2097</ele></trkpt>
<trkpt lat="35.74211" lon="138.22358"><ele>2099</ele></trkpt>
<trkpt lat="35.74207" lon="138.22332"><ele>2089</ele></trkpt>
<trkpt lat="35.74194" lon="138.22303"><ele>2081</ele></trkpt>
<trkpt lat="35.7418" lon="138.22275"><ele>2076</ele></trkpt>
<trkpt lat="35.74158" lon="138.22268"><ele>2071</ele></trkpt>
<trkpt lat="35.74151" lon="138.22249"><ele>2067</ele></trkpt>
<trkpt lat="35.74148" lon="138.22227"><ele>2066</ele></trkpt>
<trkpt lat="35.74123" lon="138.22223"><ele>2063</ele></trkpt>
<trkpt lat="35.74106" lon="138.22192"><ele>2060</ele></trkpt>
<trkpt lat="35.74094" lon="138.22167"><ele>2056</ele></trkpt>
<trkpt lat="35.74075" lon="138.22138"><ele>2054</ele></trkpt>
<trkpt lat="35.74052" lon="138.22105"><ele>2045</ele></trkpt>
<trkpt lat="35.74027" lon="138.2209"><ele>2046</ele></trkpt>
<trkpt lat="35.74014" lon="138.22066"><ele>2043</ele></trkpt>
<trkpt lat="35.74005" lon="138.22039"><ele>2035</ele></trkpt>
<trkpt lat="35.74005" lon="138.22008"><ele>2033</ele></trkpt>
<trkpt lat="35.73994" lon="138.21982"><ele>2031</ele></trkpt>
<trkpt lat="35.73984" lon="138.2196"><ele>2030</ele></trkpt>
<trkpt lat="35.73975" lon="138.21932"><ele>2029</ele></trkpt>
<trkpt lat="35.73975" lon="138.21902"><ele>2031</ele></trkpt>
<trkpt lat="35.73981" lon="138.21874"><ele>2030</ele></trkpt>
<trkpt lat="35.73988" lon="138.2184"><ele>2019</ele></trkpt>
<trkpt lat="35.73995" lon="138.21811"><ele>2017</ele></trkpt>
<trkpt lat="35.73978" lon="138.21782"><ele>2013</ele></trkpt>
<trkpt lat="35.73972" lon="138.21755"><ele>2012</ele></trkpt>
<trkpt lat="35.73953" lon="138.21737"><ele>2012</ele></trkpt>
<trkpt lat="35.73953" lon="138.21708"><ele>2004</ele></trkpt>
<trkpt lat="35.7393" lon="138.21687"><ele>2002</ele></trkpt>
<trkpt lat="35.73905" lon="138.21675"><ele>2008</ele></trkpt>
<trkpt lat="35.73896" lon="138.21643"><ele>1996</ele></trkpt>
<trkpt lat="35.73871" lon="138.21622"><ele>1998</ele></trkpt>
<trkpt lat="35.73873" lon="138.21595"><ele>1992</ele></trkpt>
</trkseg>
<trkseg>
<trkpt lat="35.73866" lon="138.21578"><ele>1976</ele></trkpt>
<trkpt lat="35.73852" lon="138.21553"><ele>1993</ele></trkpt>
<trkpt lat="35.73846" lon="138.21523"><ele>1996</ele></trkpt>
<trkpt lat="35.73833" lon="138.21494"><ele>1996</ele></trkpt>
<trkpt lat="35.73824" lon="138.21465"><ele>1998</ele></trkpt>
<trkpt lat="35.73841" lon="138.21449"><ele>2005</ele></trkpt>
<trkpt lat="35.73864" lon="138.21458"><ele>2012</ele></trkpt>
<trkpt lat="35.73894" lon="138.21464"><ele>2018</ele></trkpt>
<trkpt lat="35.73915" lon="138.21478"><ele>2021</ele></trkpt>
<trkpt lat="35.73943" lon="138.21486"><ele>2025</ele></trkpt>
<trkpt lat="35.73945" lon="138.21473"><ele>2021</ele></trkpt>
<trkpt lat="35.73936" lon="138.21451"><ele>2022</ele></trkpt>
<trkpt lat="35.73925" lon="138.2144"><ele>2028</ele></trkpt>
<trkpt lat="35.73917" lon="138.21426"><ele>2032</ele></trkpt>
<trkpt lat="35.73914" lon="138.2141"><ele>2039</ele></trkpt>
<trkpt lat="35.73916" lon="138.21389"><ele>2048</ele></trkpt>
<trkpt lat="35.73923" lon="138.21371"><ele>2058</ele></trkpt>
<trkpt lat="35.73926" lon="138.21353"><ele>2067</ele></trkpt>
<trkpt lat="35.73939" lon="138.21347"><ele>2072</ele></trkpt>
<trkpt lat="35.73945" lon="138.21336"><ele>2084</ele></trkpt>
<trkpt lat="35.73947" lon="138.21318"><ele>2094</ele></trkpt>
<trkpt lat="35.7394" lon="138.21301"><ele>2101</ele></trkpt>
<trkpt lat="35.73924" lon="138.21291"><ele>2101</ele></trkpt>
<trkpt lat="35.73905" lon="138.21283"><ele>2105</ele></trkpt>
<trkpt lat="35.7389" lon="138.21268"><ele>2106</ele></trkpt>
<trkpt lat="35.73881" lon="138.21247"><ele>2109</ele></trkpt>
<trkpt lat="35.73871" lon="138.21227"><ele>2113</ele></trkpt>
<trkpt lat="35.73854" lon="138.21217"><ele>2115</ele></trkpt>
<trkpt lat="35.73841" lon="138.21209"><ele>2118</ele></trkpt>
<trkpt lat="35.73826" lon="138.21194"><ele>2118</ele></trkpt>
<trkpt lat="35.7382" lon="138.21178"><ele>2122</ele></trkpt>
<trkpt lat="35.73813" lon="138.21163"><ele>2127</ele></trkpt>
<trkpt lat="35.73805" lon="138.21142"><ele>2130</ele></trkpt>
<trkpt lat="35.73792" lon="138.21124"><ele>2141</ele></trkpt>
<trkpt lat="35.73776" lon="138.2111"><ele>2137</ele></trkpt>
<trkpt lat="35.73763" lon="138.21088"><ele>2138</ele></trkpt>
<trkpt lat="35.73755" lon="138.21067"><ele>2143</ele></trkpt>
<trkpt lat="35.73749" lon="138.21046"><ele>2144</ele></trkpt>
<trkpt lat="35.73739" lon="138.21016"><ele>2149</ele></trkpt>
<trkpt lat="35.7373" lon="138.20994"><ele>2148</ele></trkpt>
<trkpt lat="35.73724" lon="138.20979"><ele>2154</ele></trkpt>
<trkpt lat="35.73721" lon="138.20957"><ele>2162</ele></trkpt>
<trkpt lat="35.73708" lon="138.20938"><ele>2162</ele></trkpt>
<trkpt lat="35.73694" lon="138.20924"><ele>2163</ele></trkpt>
<trkpt lat="35.73682" lon="138.20906"><ele>2161</ele></trkpt>
<trkpt lat="35.7367" lon="138.20887"><ele>2165</ele></trkpt>
<trkpt lat="35.73675" lon="138.20864"><ele>2165</ele></trkpt>
<trkpt lat="35.73675" lon="138.20842"><ele>2169</ele></trkpt>
<trkpt lat="35.73676" lon="138.20813"><ele>2175</ele></trkpt>
<trkpt lat="35.73667" lon="138.20793"><ele>2174</ele></trkpt>
<trkpt lat="35.73654" lon="138.20776"><ele>2178</ele></trkpt>
<trkpt lat="35.73644" lon="138.20756"><ele>2182</ele></trkpt>
<trkpt lat="35.73626" lon="138.2074"><ele>2188</ele></trkpt>
<trkpt lat="35.73612" lon="138.20727"><ele>2193</ele></trkpt>
<trkpt lat="35.73598" lon="138.20724"><ele>2199</ele></trkpt>
<trkpt lat="35.73581" lon="138.20713"><ele>2199</ele></trkpt>
<trkpt lat="35.73564" lon="138.20701"><ele>2204</ele></trkpt>
<trkpt lat="35.73552" lon="138.20693"><ele>2212</ele></trkpt>
<trkpt lat="35.73545" lon="138.20673"><ele>2217</ele></trkpt>
<trkpt lat="35.73539" lon="138.20656"><ele>2220</ele></trkpt>
<trkpt lat="35.73532" lon="138.20641"><ele>2225</ele></trkpt>
<trkpt lat="35.73527" lon="138.20626"><ele>2230</ele></trkpt>
<trkpt lat="35.73523" lon="138.2061"><ele>2240</ele></trkpt>
<trkpt lat="35.73522" lon="138.20598"><ele>2245</ele></trkpt>
<trkpt lat="35.73517" lon="138.20584"><ele>2250</ele></trkpt>
<trkpt lat="35.73511" lon="138.20573"><ele>2259</ele></trkpt>
<trkpt lat="35.7351" lon="138.20558"><ele>2266</ele></trkpt>
<trkpt lat="35.73519" lon="138.20544"><ele>2271</ele></trkpt>
<trkpt lat="35.73525" lon="138.20523"><ele>2273</ele></trkpt>
<trkpt lat="35.7352" lon="138.20503"><ele>2276</ele></trkpt>
<trkpt lat="35.73508" lon="138.20498"><ele>2293</ele></trkpt>
<trkpt lat="35.73502" lon="138.20506"><ele>2291</ele></trkpt>
<trkpt lat="35.7349" lon="138.20496"><ele>2301</ele></trkpt>
<trkpt lat="35.73479" lon="138.2048"><ele>2315</ele></trkpt>
<trkpt lat="35.73471" lon="138.20474"><ele>2322</ele></trkpt>
<trkpt lat="35.73469" lon="138.20461"><ele>2328</ele></trkpt>
<trkpt lat="35.73465" lon="138.20444"><ele>2335</ele></trkpt>
<trkpt lat="35.73455" lon="138.20435"><ele>2338</ele></trkpt>
<trkpt lat="35.7346" lon="138.20419"><ele>2343</ele></trkpt>
<trkpt lat="35.73459" lon="138.20397"><ele>2350</ele></trkpt>
<trkpt lat="35.73452" lon="138.20376"><ele>2356</ele></trkpt>
<trkpt lat="35.73465" lon="138.20382"><ele>2364</ele></trkpt>
<trkpt lat="35.73467" lon="138.20371"><ele>2369</ele></trkpt>
<trkpt lat="35.73468" lon="138.20351"><ele>2376</ele></trkpt>
<trkpt lat="35.73478" lon="138.20337"><ele>2387</ele></trkpt>
<trkpt lat="35.73487" lon="138.20319"><ele>2397</ele></trkpt>
<trkpt lat="35.73466" lon="138.20307"><ele>2403</ele></trkpt>
<trkpt lat="35.73454" lon="138.20297"><ele>2412</ele></trkpt>
<trkpt lat="35.73453" lon="138.20284"><ele>2417</ele></trkpt>
<trkpt lat="35.7347" lon="138.20282"><ele>2422</ele></trkpt>
<trkpt lat="35.73461" lon="138.20263"><ele>2425</ele></trkpt>
<trkpt lat="35.73448" lon="138.20255"><ele>2429</ele></trkpt>
<trkpt lat="35.73431" lon="138.20246"><ele>2435</ele></trkpt>
<trkpt lat="35.73419" lon="138.20235"><ele>2443</ele></trkpt>
<trkpt lat="35.73413" lon="138.20226"><ele>2446</ele></trkpt>
<trkpt lat="35.73405" lon="138.20212"><ele>2451</ele></trkpt>
<trkpt lat="35.73393" lon="138.20202"><ele>2457</ele></trkpt>
<trkpt lat="35.73377" lon="138.20189"><ele>2463</ele></trkpt>
<trkpt lat="35.73366" lon="138.20179"><ele>2472</ele></trkpt>
<trkpt lat="35.73352" lon="138.20162"><ele>2477</ele></trkpt>
<trkpt lat="35.73341" lon="138.20152"><ele>2483</ele></trkpt>
<trkpt lat="35.73333" lon="138.20137"><ele>2484</ele></trkpt>
<trkpt lat="35.73322" lon="138.20128"><ele>2491</ele></trkpt>
<trkpt lat="35.73313" lon="138.20114"><ele>2491</ele></trkpt>
<trkpt lat="35.73302" lon="138.20095"><ele>2500</ele></trkpt>
<trkpt lat="35.73293" lon="138.20082"><ele>2507</ele></trkpt>
<trkpt lat="35.73284" lon="138.2007"><ele>2509</ele></trkpt>
<trkpt lat="35.73288" lon="138.20056"><ele>2524</ele></trkpt>
<trkpt lat="35.73295" lon="138.20048"><ele>2526</ele></trkpt>
<trkpt lat="35.7328" lon="138.20034"><ele>2528</ele></trkpt>
<trkpt lat="35.73258" lon="138.20021"><ele>2530</ele></trkpt>
<trkpt lat="35.73239" lon="138.20013"><ele>2532</ele></trkpt>
<trkpt lat="35.73226" lon="138.20009"><ele>2539</ele></trkpt>
<trkpt lat="35.73208" lon="138.20007"><ele>2544</ele></trkpt>
<trkpt lat="35.73195" lon="138.19999"><ele>2549</ele></trkpt>
<trkpt lat="35.73179" lon="138.19989"><ele>2553</ele></trkpt>
<trkpt lat="35.73162" lon="138.19977"><ele>2557</ele></trkpt>
<trkpt lat="35.7315" lon="138.19969"><ele>2564</ele></trkpt>
<trkpt lat="35.73139" lon="138.19961"><ele>2568</ele></trkpt>
<trkpt lat="35.73126" lon="138.19952"><ele>2571</ele></trkpt>
<trkpt lat="35.73109" lon="138.19941"><ele>2571</ele></trkpt>
<trkpt lat="35.731" lon="138.19929"><ele>2580</ele></trkpt>
<trkpt lat="35.73089" lon="138.1994"><ele>2585</ele></trkpt>
<trkpt lat="35.73075" lon="138.19935"><ele>2594</ele></trkpt>
<trkpt lat="35.73062" lon="138.19929"><ele>2601</ele></trkpt>
<trkpt lat="35.73053" lon="138.19925"><ele>2606</ele></trkpt>
<trkpt lat="35.73043" lon="138.19915"><ele>2611</ele></trkpt>
<trkpt lat="35.73028" lon="138.19904"><ele>2622</ele></trkpt>
<trkpt lat="35.73017" lon="138.19897"><ele>2629</ele></trkpt>
<trkpt lat="35.73009" lon="138.1989"><ele>2635</ele></trkpt>
<trkpt lat="35.72993" lon="138.19881"><ele>2645</ele></trkpt>
<trkpt lat="35.72985" lon="138.19875"><ele>2650</ele></trkpt>
<trkpt lat="35.72978" lon="138.19868"><ele>2656</ele></trkpt>
<trkpt lat="35.72968" lon="138.19855"><ele>2662</ele></trkpt>
<trkpt lat="35.72964" lon="138.19845"><ele>2667</ele></trkpt>
<trkpt lat="35.72943" lon="138.19832"><ele>2670</ele></trkpt>
<trkpt lat="35.7293" lon="138.19827"><ele>2675</ele></trkpt>
<trkpt lat="35.7292" lon="138.19816"><ele>2679</ele></trkpt>
<trkpt lat="35.72908" lon="138.1982"><ele>2683</ele></trkpt>
<trkpt lat="35.72887" lon="138.19811"><ele>2691</ele></trkpt>
<trkpt lat="35.72873" lon="138.19799"><ele>2697</ele></trkpt>
<trkpt lat="35.72859" lon="138.19796"><ele>2702</ele></trkpt>
<trkpt lat="35.72847" lon="138.19787"><ele>2707</ele></trkpt>
<trkpt lat="35.72836" lon="138.19784"><ele>2712</ele></trkpt>
<trkpt lat="35.72823" lon="138.19781"><ele>2719</ele></trkpt>
<trkpt lat="35.72812" lon="138.19771"><ele>2725</ele></trkpt>
<trkpt lat="35.72806" lon="138.1975"><ele>2730</ele></trkpt>
<trkpt lat="35.72792" lon="138.19751"><ele>2738</ele></trkpt>
<trkpt lat="35.72783" lon="138.19739"><ele>2745</ele></trkpt>
<trkpt lat="35.72771" lon="138.19749"><ele>2751</ele></trkpt>
<trkpt lat="35.72767" lon="138.19733"><ele>2755</ele></trkpt>
<trkpt lat="35.72758" lon="138.1972"><ele>2760</ele></trkpt>
<trkpt lat="35.72737" lon="138.19722"><ele>2764</ele></trkpt>
<trkpt lat="35.72733" lon="138.19697"><ele>2770</ele></trkpt>
<trkpt lat="35.7273" lon="138.19681"><ele>2780</ele></trkpt>
<trkpt lat="35.72728" lon="138.19665"><ele>2787</ele></trkpt>
<trkpt lat="35.72719" lon="138.19662"><ele>2793</ele></trkpt>
<trkpt lat="35.72705" lon="138.19664"><ele>2800</ele></trkpt>
<trkpt lat="35.72699" lon="138.19654"><ele>2807</ele></trkpt>
<trkpt lat="35.72688" lon="138.19661"><ele>2811</ele></trkpt>
<trkpt lat="35.72676" lon="138.19645"><ele>2817</ele></trkpt>
<trkpt lat="35.72664" lon="138.19635"><ele>2821</ele></trkpt>
<trkpt lat="35.72653" lon="138.19625"><ele>2828</ele></trkpt>
<trkpt lat="35.72642" lon="138.19616"><ele>2832</ele></trkpt>
<trkpt lat="35.72637" lon="138.196"><ele>2837</ele></trkpt>
<trkpt lat="35.72624" lon="138.19594"><ele>2843</ele></trkpt>
<trkpt lat="35.72613" lon="138.1958"><ele>2848</ele></trkpt>
<trkpt lat="35.72605" lon="138.19575"><ele>2853</ele></trkpt>
<trkpt lat="35.72592" lon="138.19557"><ele>2853</ele></trkpt>
<trkpt lat="35.72591" lon="138.19539"><ele>2853</ele></trkpt>
<trkpt lat="35.7259" lon="138.19509"><ele>2852</ele></trkpt>
<trkpt lat="35.72589" lon="138.19492"><ele>2852</ele></trkpt>
<trkpt lat="35.72587" lon="138.19475"><ele>2847</ele></trkpt>
<trkpt lat="35.72582" lon="138.1946"><ele>2847</ele></trkpt>
<trkpt lat="35.72579" lon="138.19436"><ele>2846</ele></trkpt>
<trkpt lat="35.72573" lon="138.1941"><ele>2850</ele></trkpt>
<trkpt lat="35.72565" lon="138.1939"><ele>2855</ele></trkpt>
<trkpt lat="35.7256" lon="138.19373"><ele>2858</ele></trkpt>
<trkpt lat="35.72557" lon="138.19345"><ele>2859</ele></trkpt>
<trkpt lat="35.7256" lon="138.19322"><ele>2862</ele></trkpt>
<trkpt lat="35.72557" lon="138.19293"><ele>2866</ele></trkpt>
<trkpt lat="35.7255" lon="138.1926"><ele>2865</ele></trkpt>
<trkpt lat="35.7254" lon="138.19233"><ele>2866</ele></trkpt>
<trkpt lat="35.72532" lon="138.19205"><ele>2865</ele></trkpt>
<trkpt lat="35.7252" lon="138.19188"><ele>2863</ele></trkpt>
<trkpt lat="35.72511" lon="138.19159"><ele>2863</ele></trkpt>
<trkpt lat="35.72497" lon="138.19135"><ele>2864</ele></trkpt>
<trkpt lat="35.72479" lon="138.1911"><ele>2862</ele></trkpt>
<trkpt lat="35.72462" lon="138.19087"><ele>2861</ele></trkpt>
<trkpt lat="35.72448" lon="138.19072"><ele>2859</ele></trkpt>
<trkpt lat="35.7243" lon="138.19053"><ele>2854</ele></trkpt>
<trkpt lat="35.72425" lon="138.19043"><ele>2850</ele></trkpt>
<trkpt lat="35.72416" lon="138.19031"><ele>2842</ele></trkpt>
<trkpt lat="35.72401" lon="138.19016"><ele>2838</ele></trkpt>
<trkpt lat="35.72387" lon="138.19"><ele>2839</ele></trkpt>
<trkpt lat="35.72382" lon="138.18976"><ele>2838</ele></trkpt>
<trkpt lat="35.72382" lon="138.18953"><ele>2840</ele></trkpt>
<trkpt lat="35.72383" lon="138.18931"><ele>2847</ele></trkpt>
<trkpt lat="35.72394" lon="138.18911"><ele>2853</ele></trkpt>
<trkpt lat="35.72379" lon="138.18905"><ele>2861</ele></trkpt>
<trkpt lat="35.72369" lon="138.189"><ele>2865</ele></trkpt>
<trkpt lat="35.72363" lon="138.18889"><ele>2872</ele></trkpt>
<trkpt lat="35.72351" lon="138.1888"><ele>2880</ele></trkpt>
<trkpt lat="35.72345" lon="138.18865"><ele>2886</ele></trkpt>
<trkpt lat="35.72337" lon="138.18848"><ele>2893</ele></trkpt>
<trkpt lat="35.72336" lon="138.1883"><ele>2903</ele></trkpt>
<trkpt lat="35.72344" lon="138.18817"><ele>2910</ele></trkpt>
<trkpt lat="35.72334" lon="138.18803"><ele>2917</ele></trkpt>
<trkpt lat="35.72324" lon="138.18778"><ele>2925</ele></trkpt>
<trkpt lat="35.72311" lon="138.18769"><ele>2929</ele></trkpt>
<trkpt lat="35.72305" lon="138.18752"><ele>2931</ele></trkpt>
<trkpt lat="35.72293" lon="138.18735"><ele>2937</ele></trkpt>
<trkpt lat="35.72279" lon="138.18721"><ele>2942</ele></trkpt>
<trkpt lat="35.72263" lon="138.18708"><ele>2945</ele></trkpt>
<trkpt lat="35.72249" lon="138.18691"><ele>2952</ele></trkpt>
<trkpt lat="35.72243" lon="138.18677"><ele>2956</ele></trkpt>
<trkpt lat="35.72235" lon="138.18663"><ele>2961</ele></trkpt>
<trkpt lat="35.72231" lon="138.18651"><ele>2967</ele></trkpt>
<trkpt lat="35.7222" lon="138.18637"><ele>2976</ele></trkpt>
<trkpt lat="35.72205" lon="138.18616"><ele>2982</ele></trkpt>
<trkpt lat="35.72188" lon="138.18607"><ele>2983</ele></trkpt>
<trkpt lat="35.72169" lon="138.18606"><ele>2988</ele></trkpt>
<trkpt lat="35.72143" lon="138.18603"><ele>2988</ele></trkpt>
<trkpt lat="35.72133" lon="138.18602"><ele>2988</ele></trkpt>
<trkpt lat="35.72109" lon="138.18606"><ele>2990</ele></trkpt>
<trkpt lat="35.72084" lon="138.18606"><ele>2989</ele></trkpt>
<trkpt lat="35.72074" lon="138.18606"><ele>2989</ele></trkpt>
<trkpt lat="35.72052" lon="138.18611"><ele>2991</ele></trkpt>
<trkpt lat="35.72035" lon="138.18603"><ele>2996</ele></trkpt>
<trkpt lat="35.72026" lon="138.18582"><ele>3000</ele></trkpt>
<trkpt lat="35.72014" lon="138.18562"><ele>3005</ele></trkpt>
<trkpt lat="35.72002" lon="138.18543"><ele>3010</ele></trkpt>
<trkpt lat="35.71993" lon="138.18531"><ele>3011</ele></trkpt>
<trkpt lat="35.71986" lon="138.18506"><ele>3012</ele></trkpt>
<trkpt lat="35.71992" lon="138.18484"><ele>3015</ele></trkpt>
<trkpt lat="35.71993" lon="138.18461"><ele>3017</ele></trkpt>
<trkpt lat="35.71995" lon="138.18438"><ele>3018</ele></trkpt>
<trkpt lat="35.7199" lon="138.18417"><ele>3012</ele></trkpt>
<trkpt lat="35.71995" lon="138.18399"><ele>3015</ele></trkpt>
<trkpt lat="35.71995" lon="138.18387"><ele>3018</ele></trkpt>
<trkpt lat="35.71996" lon="138.18369"><ele>3026</ele></trkpt>
<trkpt lat="35.72005" lon="138.18362"><ele>3030</ele></trkpt>
<trkpt lat="35.7198" lon="138.18369"><ele>3026</ele></trkpt>
<trkpt lat="35.71963" lon="138.18363"><ele>3024</ele></trkpt>
<trkpt lat="35.7194" lon="138.18353"><ele>3017</ele></trkpt>
<trkpt lat="35.71929" lon="138.18345"><ele>3014</ele></trkpt>
<trkpt lat="35.71913" lon="138.18339"><ele>3006</ele></trkpt>
<trkpt lat="35.71901" lon="138.18316"><ele>2996</ele></trkpt>
<trkpt lat="35.71889" lon="138.1829"><ele>2989</ele></trkpt>
<trkpt lat="35.71883" lon="138.18268"><ele>2982</ele></trkpt>
<trkpt lat="35.71876" lon="138.18257"><ele>2975</ele></trkpt>
<trkpt lat="35.7186" lon="138.18248"><ele>2968</ele></trkpt>
<trkpt lat="35.71841" lon="138.18233"><ele>2963</ele></trkpt>
<trkpt lat="35.71821" lon="138.18214"><ele>2958</ele></trkpt>
<trkpt lat="35.71794" lon="138.18199"><ele>2950</ele></trkpt>
<trkpt lat="35.71774" lon="138.18186"><ele>2949</ele></trkpt>
<trkpt lat="35.71752" lon="138.18174"><ele>2951</ele></trkpt>
<trkpt lat="35.71735" lon="138.18164"><ele>2951</ele></trkpt>
<trkpt lat="35.71717" lon="138.18155"><ele>2954</ele></trkpt>
<trkpt lat="35.71699" lon="138.18152"><ele>2948</ele></trkpt>
<trkpt lat="35.71685" lon="138.18149"><ele>2947</ele></trkpt>
<trkpt lat="35.71665" lon="138.18144"><ele>2942</ele></trkpt>
<trkpt lat="35.71648" lon="138.18132"><ele>2938</ele></trkpt>
<trkpt lat="35.71632" lon="138.18123"><ele>2932</ele></trkpt>
<trkpt lat="35.71616" lon="138.1811"><ele>2936</ele></trkpt>
<trkpt lat="35.71606" lon="138.181"><ele>2940</ele></trkpt>
<trkpt lat="35.71595" lon="138.1809"><ele>2940</ele></trkpt>
<trkpt lat="35.71586" lon="138.18076"><ele>2945</ele></trkpt>
<trkpt lat="35.71578" lon="138.18072"><ele>2950</ele></trkpt>
<trkpt lat="35.71559" lon="138.18066"><ele>2955</ele></trkpt>
<trkpt lat="35.71548" lon="138.18056"><ele>2957</ele></trkpt>
<trkpt lat="35.71529" lon="138.18051"><ele>2962</ele></trkpt>
<trkpt lat="35.7151" lon="138.18053"><ele>2963</ele></trkpt>
<trkpt lat="35.71496" lon="138.1805"><ele>2965</ele></trkpt>
<trkpt lat="35.71479" lon="138.18038"><ele>2971</ele></trkpt>
<trkpt lat="35.71461" lon="138.18033"><ele>2968</ele></trkpt>
<trkpt lat="35.71447" lon="138.1803"><ele>2968</ele></trkpt>
<trkpt lat="35.71424" lon="138.18021"><ele>2975</ele></trkpt>
<trkpt lat="35.71416" lon="138.18009"><ele>2978</ele></trkpt>
<trkpt lat="35.71432" lon="138.18026"><ele>2974</ele></trkpt>
<trkpt lat="35.71449" lon="138.18032"><ele>2970</ele></trkpt>
<trkpt lat="35.71464" lon="138.18034"><ele>2971</ele></trkpt>
<trkpt lat="35.71482" lon="138.18039"><ele>2971</ele></trkpt>
<trkpt lat="35.715" lon="138.18049"><ele>2965</ele></trkpt>
<trkpt lat="35.71514" lon="138.18051"><ele>2962</ele></trkpt>
<trkpt lat="35.71537" lon="138.18054"><ele>2960</ele></trkpt>
<trkpt lat="35.71554" lon="138.18062"><ele>2958</ele></trkpt>
<trkpt lat="35.71571" lon="138.1807"><ele>2954</ele></trkpt>
<trkpt lat="35.71585" lon="138.18075"><ele>2947</ele></trkpt>
<trkpt lat="35.71595" lon="138.18087"><ele>2943</ele></trkpt>
<trkpt lat="35.71604" lon="138.181"><ele>2939</ele></trkpt>
<trkpt lat="35.71619" lon="138.18114"><ele>2939</ele></trkpt>
<trkpt lat="35.71638" lon="138.18125"><ele>2937</ele></trkpt>
<trkpt lat="35.71651" lon="138.18135"><ele>2938</ele></trkpt>
<trkpt lat="35.71663" lon="138.18142"><ele>2942</ele></trkpt>
<trkpt lat="35.71676" lon="138.18148"><ele>2947</ele></trkpt>
<trkpt lat="35.71694" lon="138.18153"><ele>2951</ele></trkpt>
<trkpt lat="35.71709" lon="138.18157"><ele>2952</ele></trkpt>
<trkpt lat="35.71728" lon="138.18158"><ele>2950</ele></trkpt>
<trkpt lat="35.71748" lon="138.18171"><ele>2950</ele></trkpt>
<trkpt lat="35.71774" lon="138.18186"><ele>2948</ele></trkpt>
<trkpt lat="35.71793" lon="138.182"><ele>2950</ele></trkpt>
<trkpt lat="35.71815" lon="138.18212"><ele>2954</ele></trkpt>
<trkpt lat="35.71831" lon="138.18225"><ele>2957</ele></trkpt>
<trkpt lat="35.71846" lon="138.1824"><ele>2962</ele></trkpt>
<trkpt lat="35.71864" lon="138.18252"><ele>2966</ele></trkpt>
<trkpt lat="35.71878" lon="138.18258"><ele>2974</ele></trkpt>
<trkpt lat="35.71889" lon="138.18282"><ele>2981</ele></trkpt>
<trkpt lat="35.71897" lon="138.18303"><ele>2991</ele></trkpt>
<trkpt lat="35.71903" lon="138.18319"><ele>2997</ele></trkpt>
<trkpt lat="35.71909" lon="138.18332"><ele>3004</ele></trkpt>
<trkpt lat="35.71917" lon="138.18346"><ele>3008</ele></trkpt>
<trkpt lat="35.71931" lon="138.18352"><ele>3010</ele></trkpt>
<trkpt lat="35.71945" lon="138.18356"><ele>3017</ele></trkpt>
<trkpt lat="35.71958" lon="138.18362"><ele>3023</ele></trkpt>
<trkpt lat="35.71983" lon="138.18369"><ele>3026</ele></trkpt>
<trkpt lat="35.72002" lon="138.1837"><ele>3030</ele></trkpt>
<trkpt lat="35.72008" lon="138.18362"><ele>3034</ele></trkpt>
<trkpt lat="35.72011" lon="138.18351"><ele>3031</ele></trkpt>
<trkpt lat="35.72023" lon="138.18335"><ele>3021</ele></trkpt>
<trkpt lat="35.72032" lon="138.18315"><ele>3022</ele></trkpt>
<trkpt lat="35.72048" lon="138.18313"><ele>3011</ele></trkpt>
<trkpt lat="35.72062" lon="138.18312"><ele>3005</ele></trkpt>
<trkpt lat="35.72073" lon="138.18313"><ele>2998</ele></trkpt>
<trkpt lat="35.72094" lon="138.18293"><ele>2990</ele></trkpt>
<trkpt lat="35.72113" lon="138.18292"><ele>2983</ele></trkpt>
<trkpt lat="35.72135" lon="138.18292"><ele>2976</ele></trkpt>
<trkpt lat="35.7216" lon="138.18294"><ele>2972</ele></trkpt>
<trkpt lat="35.722" lon="138.18285"><ele>2962</ele></trkpt>
<trkpt lat="35.72226" lon="138.1829"><ele>2949</ele></trkpt>
<trkpt lat="35.7224" lon="138.18292"><ele>2943</ele></trkpt>
<trkpt lat="35.72248" lon="138.18297"><ele>2938</ele></trkpt>
<trkpt lat="35.72245" lon="138.18323"><ele>2926</ele></trkpt>
<trkpt lat="35.72239" lon="138.18345"><ele>2920</ele></trkpt>
<trkpt lat="35.72231" lon="138.18367"><ele>2911</ele></trkpt>
<trkpt lat="35.72231" lon="138.18405"><ele>2899</ele></trkpt>
<trkpt lat="35.72241" lon="138.18439"><ele>2890</ele></trkpt>
<trkpt lat="35.7227" lon="138.18451"><ele>2885</ele></trkpt>
<trkpt lat="35.7228" lon="138.18445"><ele>2883</ele></trkpt>
<trkpt lat="35.72272" lon="138.18438"><ele>2886</ele></trkpt>
<trkpt lat="35.72286" lon="138.18436"><ele>2886</ele></trkpt>
<trkpt lat="35.72273" lon="138.18455"><ele>2886</ele></trkpt>
<trkpt lat="35.72281" lon="138.18448"><ele>2885</ele></trkpt>
<trkpt lat="35.72273" lon="138.18437"><ele>2885</ele></trkpt>
<trkpt lat="35.72274" lon="138.18454"><ele>2885</ele></trkpt>
<trkpt lat="35.72297" lon="138.18471"><ele>2873</ele></trkpt>
<trkpt lat="35.72315" lon="138.18475"><ele>2868</ele></trkpt>
<trkpt lat="35.72334" lon="138.18475"><ele>2858</ele></trkpt>
<trkpt lat="35.72349" lon="138.18458"><ele>2851</ele></trkpt>
<trkpt lat="35.72358" lon="138.18437"><ele>2845</ele></trkpt>
<trkpt lat="35.72372" lon="138.18423"><ele>2837</ele></trkpt>
<trkpt lat="35.72392" lon="138.18423"><ele>2830</ele></trkpt>
<trkpt lat="35.72415" lon="138.18432"><ele>2822</ele></trkpt>
<trkpt lat="35.72434" lon="138.18423"><ele>2811</ele></trkpt>
<trkpt lat="35.7245" lon="138.18411"><ele>2805</ele></trkpt>
<trkpt lat="35.7247" lon="138.18409"><ele>2798</ele></trkpt>
<trkpt lat="35.72484" lon="138.18407"><ele>2793</ele></trkpt>
<trkpt lat="35.72505" lon="138.18397"><ele>2785</ele></trkpt>
<trkpt lat="35.72519" lon="138.18395"><ele>2778</ele></trkpt>
<trkpt lat="35.72537" lon="138.18386"><ele>2773</ele></trkpt>
<trkpt lat="35.72561" lon="138.18392"><ele>2769</ele></trkpt>
<trkpt lat="35.7259" lon="138.18394"><ele>2768</ele></trkpt>
<trkpt lat="35.72613" lon="138.18403"><ele>2771</ele></trkpt>
<trkpt lat="35.72631" lon="138.18422"><ele>2768</ele></trkpt>
<trkpt lat="35.72638" lon="138.18443"><ele>2767</ele></trkpt>
<trkpt lat="35.7265" lon="138.18473"><ele>2763</ele></trkpt>
<trkpt lat="35.72665" lon="138.18494"><ele>2769</ele></trkpt>
<trkpt lat="35.72683" lon="138.18523"><ele>2765</ele></trkpt>
<trkpt lat="35.727" lon="138.18545"><ele>2765</ele></trkpt>
<trkpt lat="35.72713" lon="138.18571"><ele>2761</ele></trkpt>
<trkpt lat="35.72731" lon="138.18591"><ele>2755</ele></trkpt>
<trkpt lat="35.7275" lon="138.18596"><ele>2747</ele></trkpt>
<trkpt lat="35.72761" lon="138.18605"><ele>2743</ele></trkpt>
<trkpt lat="35.72778" lon="138.18627"><ele>2738</ele></trkpt>
<trkpt lat="35.72795" lon="138.18637"><ele>2733</ele></trkpt>
<trkpt lat="35.72813" lon="138.18648"><ele>2729</ele></trkpt>
<trkpt lat="35.72826" lon="138.18666"><ele>2723</ele></trkpt>
<trkpt lat="35.72856" lon="138.18675"><ele>2719</ele></trkpt>
<trkpt lat="35.72883" lon="138.18686"><ele>2712</ele></trkpt>
<trkpt lat="35.72916" lon="138.18703"><ele>2702</ele></trkpt>
<trkpt lat="35.72929" lon="138.18709"><ele>2701</ele></trkpt>
<trkpt lat="35.72955" lon="138.18696"><ele>2699</ele></trkpt>
<trkpt lat="35.72986" lon="138.18698"><ele>2699</ele></trkpt>
<trkpt lat="35.73005" lon="138.18699"><ele>2700</ele></trkpt>
<trkpt lat="35.73036" lon="138.18693"><ele>2699</ele></trkpt>
<trkpt lat="35.73058" lon="138.18707"><ele>2700</ele></trkpt>
<trkpt lat="35.73069" lon="138.18726"><ele>2707</ele></trkpt>
<trkpt lat="35.73076" lon="138.18741"><ele>2714</ele></trkpt>
<trkpt lat="35.73099" lon="138.18757"><ele>2717</ele></trkpt>
<trkpt lat="35.73114" lon="138.1877"><ele>2719</ele></trkpt>
<trkpt lat="35.73119" lon="138.18786"><ele>2723</ele></trkpt>
<trkpt lat="35.73125" lon="138.1877"><ele>2717</ele></trkpt>
<trkpt lat="35.73145" lon="138.18774"><ele>2719</ele></trkpt>
<trkpt lat="35.73169" lon="138.18765"><ele>2720</ele></trkpt>
<trkpt lat="35.73183" lon="138.18761"><ele>2724</ele></trkpt>
<trkpt lat="35.73202" lon="138.18768"><ele>2725</ele></trkpt>
<trkpt lat="35.73217" lon="138.1879"><ele>2728</ele></trkpt>
<trkpt lat="35.7324" lon="138.18796"><ele>2727</ele></trkpt>
<trkpt lat="35.73266" lon="138.18809"><ele>2727</ele></trkpt>
<trkpt lat="35.73289" lon="138.1881"><ele>2727</ele></trkpt>
<trkpt lat="35.73314" lon="138.18808"><ele>2727</ele></trkpt>
<trkpt lat="35.73334" lon="138.18814"><ele>2727</ele></trkpt>
<trkpt lat="35.73349" lon="138.18799"><ele>2723</ele></trkpt>
<trkpt lat="35.73377" lon="138.18788"><ele>2725</ele></trkpt>
<trkpt lat="35.73402" lon="138.18798"><ele>2722</ele></trkpt>
<trkpt lat="35.73424" lon="138.18812"><ele>2725</ele></trkpt>
<trkpt lat="35.73444" lon="138.18828"><ele>2729</ele></trkpt>
<trkpt lat="35.73434" lon="138.18834"><ele>2732</ele></trkpt>
<trkpt lat="35.73445" lon="138.18831"><ele>2731</ele></trkpt>
<trkpt lat="35.73429" lon="138.1882"><ele>2728</ele></trkpt>
<trkpt lat="35.7341" lon="138.18802"><ele>2722</ele></trkpt>
<trkpt lat="35.73397" lon="138.18796"><ele>2724</ele></trkpt>
<trkpt lat="35.73383" lon="138.18789"><ele>2725</ele></trkpt>
<trkpt lat="35.73359" lon="138.18795"><ele>2725</ele></trkpt>
<trkpt lat="35.73342" lon="138.18806"><ele>2725</ele></trkpt>
<trkpt lat="35.7333" lon="138.18814"><ele>2726</ele></trkpt>
<trkpt lat="35.73305" lon="138.18811"><ele>2727</ele></trkpt>
<trkpt lat="35.73276" lon="138.18813"><ele>2728</ele></trkpt>
<trkpt lat="35.73249" lon="138.18798"><ele>2727</ele></trkpt>
<trkpt lat="35.73221" lon="138.18794"><ele>2728</ele></trkpt>
<trkpt lat="35.73203" lon="138.18768"><ele>2725</ele></trkpt>
<trkpt lat="35.7318" lon="138.18763"><ele>2722</ele></trkpt>
<trkpt lat="35.7315" lon="138.18772"><ele>2721</ele></trkpt>
<trkpt lat="35.73126" lon="138.1877"><ele>2717</ele></trkpt>
<trkpt lat="35.73103" lon="138.18762"><ele>2717</ele></trkpt>
<trkpt lat="35.73082" lon="138.18751"><ele>2717</ele></trkpt>
<trkpt lat="35.73072" lon="138.1873"><ele>2709</ele></trkpt>
<trkpt lat="35.73059" lon="138.18707"><ele>2700</ele></trkpt>
<trkpt lat="35.73031" lon="138.18693"><ele>2696</ele></trkpt>
<trkpt lat="35.73006" lon="138.18699"><ele>2696</ele></trkpt>
<trkpt lat="35.72976" lon="138.18696"><ele>2697</ele></trkpt>
<trkpt lat="35.72951" lon="138.18696"><ele>2697</ele></trkpt>
<trkpt lat="35.72936" lon="138.18714"><ele>2698</ele></trkpt>
<trkpt lat="35.72944" lon="138.18729"><ele>2695</ele></trkpt>
<trkpt lat="35.72963" lon="138.18742"><ele>2688</ele></trkpt>
<trkpt lat="35.72975" lon="138.18762"><ele>2681</ele></trkpt>
<trkpt lat="35.72983" lon="138.18784"><ele>2676</ele></trkpt>
<trkpt lat="35.72989" lon="138.18807"><ele>2672</ele></trkpt>
<trkpt lat="35.72997" lon="138.1883"><ele>2665</ele></trkpt>
<trkpt lat="35.72983" lon="138.18844"><ele>2654</ele></trkpt>
<trkpt lat="35.72961" lon="138.18829"><ele>2649</ele></trkpt>
<trkpt lat="35.72949" lon="138.18847"><ele>2642</ele></trkpt>
<trkpt lat="35.72946" lon="138.1887"><ele>2638</ele></trkpt>
<trkpt lat="35.72936" lon="138.18881"><ele>2639</ele></trkpt>
<trkpt lat="35.72936" lon="138.18869"><ele>2639</ele></trkpt>
<trkpt lat="35.72949" lon="138.18872"><ele>2643</ele></trkpt>
<trkpt lat="35.72956" lon="138.18898"><ele>2631</ele></trkpt>
<trkpt lat="35.72959" lon="138.18921"><ele>2624</ele></trkpt>
<trkpt lat="35.72953" lon="138.18947"><ele>2616</ele></trkpt>
<trkpt lat="35.7294" lon="138.1897"><ele>2607</ele></trkpt>
<trkpt lat="35.7293" lon="138.18989"><ele>2600</ele></trkpt>
<trkpt lat="35.7292" lon="138.19005"><ele>2590</ele></trkpt>
<trkpt lat="35.72897" lon="138.19002"><ele>2584</ele></trkpt>
<trkpt lat="35.72885" lon="138.19003"><ele>2577</ele></trkpt>
<trkpt lat="35.72886" lon="138.19021"><ele>2573</ele></trkpt>
<trkpt lat="35.7289" lon="138.19037"><ele>2569</ele></trkpt>
<trkpt lat="35.72898" lon="138.19063"><ele>2570</ele></trkpt>
<trkpt lat="35.72904" lon="138.19092"><ele>2571</ele></trkpt>
<trkpt lat="35.72912" lon="138.19113"><ele>2570</ele></trkpt>
<trkpt lat="35.7292" lon="138.19135"><ele>2566</ele></trkpt>
<trkpt lat="35.72931" lon="138.19163"><ele>2561</ele></trkpt>
<trkpt lat="35.72937" lon="138.19185"><ele>2559</ele></trkpt>
<trkpt lat="35.72939" lon="138.19208"><ele>2562</ele></trkpt>
<trkpt lat="35.72943" lon="138.1923"><ele>2565</ele></trkpt>
<trkpt lat="35.72951" lon="138.19251"><ele>2561</ele></trkpt>
<trkpt lat="35.72963" lon="138.19271"><ele>2563</ele></trkpt>
<trkpt lat="35.72978" lon="138.19294"><ele>2560</ele></trkpt>
<trkpt lat="35.72989" lon="138.19318"><ele>2555</ele></trkpt>
<trkpt lat="35.72992" lon="138.19341"><ele>2553</ele></trkpt>
<trkpt lat="35.72989" lon="138.19369"><ele>2545</ele></trkpt>
<trkpt lat="35.72983" lon="138.1939"><ele>2543</ele></trkpt>
<trkpt lat="35.72975" lon="138.19408"><ele>2536</ele></trkpt>
<trkpt lat="35.72993" lon="138.1943"><ele>2541</ele></trkpt>
<trkpt lat="35.73008" lon="138.19452"><ele>2537</ele></trkpt>
<trkpt lat="35.73022" lon="138.19485"><ele>2540</ele></trkpt>
<trkpt lat="35.73028" lon="138.19513"><ele>2544</ele></trkpt>
<trkpt lat="35.73034" lon="138.19542"><ele>2540</ele></trkpt>
<trkpt lat="35.73043" lon="138.1957"><ele>2539</ele></trkpt>
<trkpt lat="35.73052" lon="138.1959"><ele>2533</ele></trkpt>
<trkpt lat="35.73062" lon="138.19618"><ele>2532</ele></trkpt>
<trkpt lat="35.7306" lon="138.19636"><ele>2532</ele></trkpt>
<trkpt lat="35.73063" lon="138.1965"><ele>2533</ele></trkpt>
<trkpt lat="35.73049" lon="138.19671"><ele>2539</ele></trkpt>
<trkpt lat="35.73069" lon="138.19687"><ele>2536</ele></trkpt>
<trkpt lat="35.73084" lon="138.19717"><ele>2532</ele></trkpt>
<trkpt lat="35.731" lon="138.19738"><ele>2531</ele></trkpt>
<trkpt lat="35.73115" lon="138.19762"><ele>2531</ele></trkpt>
<trkpt lat="35.73121" lon="138.19791"><ele>2533</ele></trkpt>
<trkpt lat="35.73131" lon="138.19824"><ele>2531</ele></trkpt>
<trkpt lat="35.73137" lon="138.19855"><ele>2531</ele></trkpt>
<trkpt lat="35.73145" lon="138.19888"><ele>2529</ele></trkpt>
<trkpt lat="35.73155" lon="138.19909"><ele>2536</ele></trkpt>
<trkpt lat="35.7317" lon="138.19923"><ele>2528</ele></trkpt>
<trkpt lat="35.73183" lon="138.19942"><ele>2530</ele></trkpt>
<trkpt lat="35.73197" lon="138.19964"><ele>2532</ele></trkpt>
<trkpt lat="35.73211" lon="138.19981"><ele>2532</ele></trkpt>
<trkpt lat="35.73226" lon="138.20003"><ele>2531</ele></trkpt>
<trkpt lat="35.73247" lon="138.20015"><ele>2530</ele></trkpt>
<trkpt lat="35.73274" lon="138.20033"><ele>2526</ele></trkpt>
<trkpt lat="35.73291" lon="138.20053"><ele>2519</ele></trkpt>
<trkpt lat="35.7328" lon="138.20064"><ele>2509</ele></trkpt>
<trkpt lat="35.73291" lon="138.20083"><ele>2503</ele></trkpt>
<trkpt lat="35.73306" lon="138.20106"><ele>2494</ele></trkpt>
<trkpt lat="35.73318" lon="138.20124"><ele>2488</ele></trkpt>
<trkpt lat="35.7333" lon="138.20141"><ele>2481</ele></trkpt>
<trkpt lat="35.73342" lon="138.20157"><ele>2474</ele></trkpt>
<trkpt lat="35.73356" lon="138.20174"><ele>2469</ele></trkpt>
<trkpt lat="35.7337" lon="138.20189"><ele>2461</ele></trkpt>
<trkpt lat="35.73392" lon="138.20207"><ele>2453</ele></trkpt>
<trkpt lat="35.73408" lon="138.20218"><ele>2448</ele></trkpt>
<trkpt lat="35.73414" lon="138.20233"><ele>2440</ele></trkpt>
<trkpt lat="35.73431" lon="138.20247"><ele>2432</ele></trkpt>
<trkpt lat="35.73448" lon="138.20258"><ele>2425</ele></trkpt>
<trkpt lat="35.73466" lon="138.20273"><ele>2421</ele></trkpt>
<trkpt lat="35.73453" lon="138.20281"><ele>2412</ele></trkpt>
<trkpt lat="35.73455" lon="138.20302"><ele>2406</ele></trkpt>
<trkpt lat="35.73467" lon="138.20312"><ele>2400</ele></trkpt>
<trkpt lat="35.73481" lon="138.20326"><ele>2392</ele></trkpt>
<trkpt lat="35.73472" lon="138.20329"><ele>2386</ele></trkpt>
<trkpt lat="35.73467" lon="138.20348"><ele>2374</ele></trkpt>
<trkpt lat="35.73464" lon="138.20367"><ele>2367</ele></trkpt>
<trkpt lat="35.73463" lon="138.20379"><ele>2359</ele></trkpt>
<trkpt lat="35.73449" lon="138.20378"><ele>2354</ele></trkpt>
<trkpt lat="35.73456" lon="138.20408"><ele>2345</ele></trkpt>
<trkpt lat="35.73455" lon="138.20436"><ele>2336</ele></trkpt>
<trkpt lat="35.73467" lon="138.20453"><ele>2331</ele></trkpt>
<trkpt lat="35.73464" lon="138.2047"><ele>2322</ele></trkpt>
<trkpt lat="35.73477" lon="138.20481"><ele>2312</ele></trkpt>
<trkpt lat="35.7349" lon="138.20499"><ele>2300</ele></trkpt>
<trkpt lat="35.73505" lon="138.20505"><ele>2289</ele></trkpt>
<trkpt lat="35.73521" lon="138.20508"><ele>2275</ele></trkpt>
<trkpt lat="35.7352" lon="138.2053"><ele>2271</ele></trkpt>
<trkpt lat="35.73513" lon="138.20551"><ele>2268</ele></trkpt>
<trkpt lat="35.73508" lon="138.2057"><ele>2259</ele></trkpt>
<trkpt lat="35.73514" lon="138.20584"><ele>2251</ele></trkpt>
<trkpt lat="35.73521" lon="138.20605"><ele>2241</ele></trkpt>
<trkpt lat="35.73524" lon="138.20624"><ele>2231</ele></trkpt>
<trkpt lat="35.73534" lon="138.20651"><ele>2220</ele></trkpt>
<trkpt lat="35.73543" lon="138.20677"><ele>2211</ele></trkpt>
<trkpt lat="35.73552" lon="138.20695"><ele>2205</ele></trkpt>
<trkpt lat="35.73564" lon="138.20705"><ele>2199</ele></trkpt>
<trkpt lat="35.73591" lon="138.20723"><ele>2195</ele></trkpt>
<trkpt lat="35.73611" lon="138.20731"><ele>2190</ele></trkpt>
<trkpt lat="35.73626" lon="138.20745"><ele>2185</ele></trkpt>
<trkpt lat="35.73643" lon="138.20759"><ele>2178</ele></trkpt>
<trkpt lat="35.73667" lon="138.20793"><ele>2170</ele></trkpt>
<trkpt lat="35.73673" lon="138.20833"><ele>2164</ele></trkpt>
<trkpt lat="35.73671" lon="138.2087"><ele>2162</ele></trkpt>
<trkpt lat="35.73675" lon="138.209"><ele>2156</ele></trkpt>
<trkpt lat="35.73694" lon="138.20928"><ele>2155</ele></trkpt>
<trkpt lat="35.73718" lon="138.20951"><ele>2154</ele></trkpt>
<trkpt lat="35.73725" lon="138.20987"><ele>2149</ele></trkpt>
<trkpt lat="35.73733" lon="138.21008"><ele>2143</ele></trkpt>
<trkpt lat="35.73738" lon="138.21018"><ele>2146</ele></trkpt>
<trkpt lat="35.73744" lon="138.21033"><ele>2141</ele></trkpt>
<trkpt lat="35.73752" lon="138.21049"><ele>2136</ele></trkpt>
<trkpt lat="35.73753" lon="138.21077"><ele>2134</ele></trkpt>
<trkpt lat="35.73766" lon="138.21101"><ele>2133</ele></trkpt>
<trkpt lat="35.73787" lon="138.21126"><ele>2131</ele></trkpt>
<trkpt lat="35.73802" lon="138.21143"><ele>2132</ele></trkpt>
<trkpt lat="35.73814" lon="138.2117"><ele>2129</ele></trkpt>
<trkpt lat="35.73823" lon="138.21197"><ele>2115</ele></trkpt>
<trkpt lat="35.73842" lon="138.21215"><ele>2109</ele></trkpt>
<trkpt lat="35.73859" lon="138.2122"><ele>2107</ele></trkpt>
<trkpt lat="35.73873" lon="138.21238"><ele>2106</ele></trkpt>
<trkpt lat="35.73883" lon="138.21264"><ele>2099</ele></trkpt>
<trkpt lat="35.739" lon="138.21284"><ele>2097</ele></trkpt>
<trkpt lat="35.73923" lon="138.21296"><ele>2099</ele></trkpt>
<trkpt lat="35.73941" lon="138.21302"><ele>2093</ele></trkpt>
<trkpt lat="35.73948" lon="138.21328"><ele>2081</ele></trkpt>
<trkpt lat="35.7394" lon="138.21343"><ele>2070</ele></trkpt>
<trkpt lat="35.73922" lon="138.21348"><ele>2059</ele></trkpt>
<trkpt lat="35.73928" lon="138.21363"><ele>2054</ele></trkpt>
<trkpt lat="35.73921" lon="138.21379"><ele>2045</ele></trkpt>
<trkpt lat="35.73921" lon="138.21398"><ele>2032</ele></trkpt>
<trkpt lat="35.73913" lon="138.21415"><ele>2024</ele></trkpt>
<trkpt lat="35.73921" lon="138.21437"><ele>2018</ele></trkpt>
<trkpt lat="35.73935" lon="138.21452"><ele>2014</ele></trkpt>
<trkpt lat="35.7394" lon="138.21481"><ele>2011</ele></trkpt>
<trkpt lat="35.7392" lon="138.21476"><ele>2016</ele></trkpt>
<trkpt lat="35.73893" lon="138.2146"><ele>2012</ele></trkpt>
<trkpt lat="35.73864" lon="138.21453"><ele>2005</ele></trkpt>
<trkpt lat="35.73842" lon="138.21445"><ele>1997</ele></trkpt>
<trkpt lat="35.73823" lon="138.2146"><ele>1992</ele></trkpt>
<trkpt lat="35.7383" lon="138.21497"><ele>1992</ele></trkpt>
<trkpt lat="35.73842" lon="138.21523"><ele>1990</ele></trkpt>
</trkseg>
</trk>
</gpx>
