<?xml version="1.0" encoding="UTF-8"?>
<gpx version="1.1" creator="en.daringdaddy.com" xmlns="http://www.topografix.com/GPX/1/1">
<metadata><name>Shirouma-dake: Sarukura to Tsugaike via the Hakuba Daisekkei</name><desc>Recorded by the author on 2026-08-02/03 (timestamps removed). Day 1 Sarukura to the Chojo-shukusha campsite; Day 2 campsite over the summit to Tsugaike. One trip, one set of conditions: check current snow, trail and access information before you go. Source: https://en.daringdaddy.com/</desc></metadata>
<trk><name>Shirouma-dake: Sarukura to Tsugaike via the Hakuba Daisekkei</name>
<trkseg>
<trkpt lat="36.74589" lon="137.80078"><ele>1252</ele></trkpt>
<trkpt lat="36.74599" lon="137.80068"><ele>1256</ele></trkpt>
<trkpt lat="36.7459" lon="137.80073"><ele>1248</ele></trkpt>
<trkpt lat="36.74612" lon="137.80067"><ele>1253</ele></trkpt>
<trkpt lat="36.74631" lon="137.80064"><ele>1254</ele></trkpt>
<trkpt lat="36.74634" lon="137.80043"><ele>1260</ele></trkpt>
<trkpt lat="36.7461" lon="137.80044"><ele>1264</ele></trkpt>
<trkpt lat="36.7459" lon="137.80045"><ele>1269</ele></trkpt>
<trkpt lat="36.74571" lon="137.80043"><ele>1269</ele></trkpt>
<trkpt lat="36.74552" lon="137.80052"><ele>1269</ele></trkpt>
<trkpt lat="36.74534" lon="137.8006"><ele>1272</ele></trkpt>
<trkpt lat="36.74509" lon="137.80056"><ele>1275</ele></trkpt>
<trkpt lat="36.74495" lon="137.80038"><ele>1275</ele></trkpt>
<trkpt lat="36.745" lon="137.80021"><ele>1279</ele></trkpt>
<trkpt lat="36.74506" lon="137.80005"><ele>1283</ele></trkpt>
<trkpt lat="36.74507" lon="137.79988"><ele>1287</ele></trkpt>
<trkpt lat="36.74514" lon="137.79966"><ele>1294</ele></trkpt>
<trkpt lat="36.74519" lon="137.79943"><ele>1298</ele></trkpt>
<trkpt lat="36.74541" lon="137.79954"><ele>1302</ele></trkpt>
<trkpt lat="36.74565" lon="137.79956"><ele>1304</ele></trkpt>
<trkpt lat="36.74583" lon="137.79935"><ele>1307</ele></trkpt>
<trkpt lat="36.74597" lon="137.79911"><ele>1310</ele></trkpt>
<trkpt lat="36.74579" lon="137.799"><ele>1317</ele></trkpt>
<trkpt lat="36.74562" lon="137.79922"><ele>1315</ele></trkpt>
<trkpt lat="36.7455" lon="137.79903"><ele>1318</ele></trkpt>
<trkpt lat="36.74568" lon="137.79882"><ele>1322</ele></trkpt>
<trkpt lat="36.74588" lon="137.79863"><ele>1326</ele></trkpt>
<trkpt lat="36.74604" lon="137.7985"><ele>1327</ele></trkpt>
<trkpt lat="36.74623" lon="137.79832"><ele>1328</ele></trkpt>
<trkpt lat="36.74627" lon="137.79802"><ele>1333</ele></trkpt>
<trkpt lat="36.74638" lon="137.79771"><ele>1339</ele></trkpt>
<trkpt lat="36.74657" lon="137.79753"><ele>1341</ele></trkpt>
<trkpt lat="36.74672" lon="137.7974"><ele>1343</ele></trkpt>
<trkpt lat="36.74682" lon="137.79721"><ele>1345</ele></trkpt>
<trkpt lat="36.74694" lon="137.79696"><ele>1348</ele></trkpt>
<trkpt lat="36.74683" lon="137.79669"><ele>1350</ele></trkpt>
<trkpt lat="36.74673" lon="137.79641"><ele>1350</ele></trkpt>
<trkpt lat="36.74662" lon="137.79613"><ele>1346</ele></trkpt>
<trkpt lat="36.74655" lon="137.79576"><ele>1346</ele></trkpt>
<trkpt lat="36.74657" lon="137.79536"><ele>1347</ele></trkpt>
<trkpt lat="36.74666" lon="137.79496"><ele>1349</ele></trkpt>
<trkpt lat="36.74684" lon="137.79468"><ele>1348</ele></trkpt>
<trkpt lat="36.74703" lon="137.7944"><ele>1351</ele></trkpt>
<trkpt lat="36.74728" lon="137.79423"><ele>1349</ele></trkpt>
<trkpt lat="36.74733" lon="137.794"><ele>1347</ele></trkpt>
<trkpt lat="36.74721" lon="137.79365"><ele>1347</ele></trkpt>
<trkpt lat="36.74719" lon="137.7933"><ele>1345</ele></trkpt>
<trkpt lat="36.7472" lon="137.79315"><ele>1342</ele></trkpt>
<trkpt lat="36.74735" lon="137.79295"><ele>1348</ele></trkpt>
<trkpt lat="36.74752" lon="137.79276"><ele>1350</ele></trkpt>
<trkpt lat="36.74752" lon="137.79249"><ele>1357</ele></trkpt>
<trkpt lat="36.7475" lon="137.79219"><ele>1356</ele></trkpt>
<trkpt lat="36.74755" lon="137.79201"><ele>1359</ele></trkpt>
<trkpt lat="36.74758" lon="137.79171"><ele>1363</ele></trkpt>
<trkpt lat="36.74765" lon="137.79143"><ele>1365</ele></trkpt>
<trkpt lat="36.74777" lon="137.7912"><ele>1366</ele></trkpt>
<trkpt lat="36.74801" lon="137.79113"><ele>1370</ele></trkpt>
<trkpt lat="36.74794" lon="137.79094"><ele>1374</ele></trkpt>
<trkpt lat="36.74771" lon="137.79104"><ele>1376</ele></trkpt>
<trkpt lat="36.7475" lon="137.79117"><ele>1378</ele></trkpt>
<trkpt lat="36.74741" lon="137.7911"><ele>1382</ele></trkpt>
<trkpt lat="36.74756" lon="137.79096"><ele>1385</ele></trkpt>
<trkpt lat="36.74778" lon="137.79082"><ele>1388</ele></trkpt>
<trkpt lat="36.74794" lon="137.79067"><ele>1390</ele></trkpt>
<trkpt lat="36.74811" lon="137.79057"><ele>1394</ele></trkpt>
<trkpt lat="36.74833" lon="137.79046"><ele>1396</ele></trkpt>
<trkpt lat="36.74854" lon="137.79034"><ele>1400</ele></trkpt>
<trkpt lat="36.74879" lon="137.79036"><ele>1402</ele></trkpt>
<trkpt lat="36.74902" lon="137.79048"><ele>1403</ele></trkpt>
<trkpt lat="36.74926" lon="137.79048"><ele>1406</ele></trkpt>
<trkpt lat="36.74949" lon="137.79041"><ele>1408</ele></trkpt>
<trkpt lat="36.74973" lon="137.79036"><ele>1412</ele></trkpt>
<trkpt lat="36.74997" lon="137.79024"><ele>1414</ele></trkpt>
<trkpt lat="36.7502" lon="137.79011"><ele>1414</ele></trkpt>
<trkpt lat="36.75042" lon="137.78996"><ele>1417</ele></trkpt>
<trkpt lat="36.75059" lon="137.78974"><ele>1422</ele></trkpt>
<trkpt lat="36.75071" lon="137.78958"><ele>1423</ele></trkpt>
<trkpt lat="36.75079" lon="137.78937"><ele>1428</ele></trkpt>
<trkpt lat="36.75079" lon="137.78912"><ele>1430</ele></trkpt>
<trkpt lat="36.75073" lon="137.7889"><ele>1435</ele></trkpt>
<trkpt lat="36.75072" lon="137.78869"><ele>1439</ele></trkpt>
<trkpt lat="36.75072" lon="137.7884"><ele>1441</ele></trkpt>
<trkpt lat="36.7507" lon="137.78816"><ele>1447</ele></trkpt>
<trkpt lat="36.7507" lon="137.78792"><ele>1452</ele></trkpt>
<trkpt lat="36.75079" lon="137.78771"><ele>1455</ele></trkpt>
<trkpt lat="36.75083" lon="137.78755"><ele>1459</ele></trkpt>
<trkpt lat="36.7509" lon="137.78733"><ele>1463</ele></trkpt>
<trkpt lat="36.75103" lon="137.78714"><ele>1467</ele></trkpt>
<trkpt lat="36.751" lon="137.78691"><ele>1470</ele></trkpt>
<trkpt lat="36.75102" lon="137.78668"><ele>1474</ele></trkpt>
<trkpt lat="36.75101" lon="137.78651"><ele>1481</ele></trkpt>
<trkpt lat="36.75103" lon="137.78628"><ele>1484</ele></trkpt>
<trkpt lat="36.75113" lon="137.78606"><ele>1486</ele></trkpt>
<trkpt lat="36.75108" lon="137.78582"><ele>1492</ele></trkpt>
<trkpt lat="36.75111" lon="137.78561"><ele>1491</ele></trkpt>
<trkpt lat="36.75116" lon="137.78543"><ele>1496</ele></trkpt>
<trkpt lat="36.75112" lon="137.78525"><ele>1503</ele></trkpt>
<trkpt lat="36.75112" lon="137.78508"><ele>1503</ele></trkpt>
<trkpt lat="36.75111" lon="137.78484"><ele>1510</ele></trkpt>
<trkpt lat="36.75111" lon="137.78461"><ele>1514</ele></trkpt>
<trkpt lat="36.75109" lon="137.78444"><ele>1516</ele></trkpt>
<trkpt lat="36.75105" lon="137.78421"><ele>1521</ele></trkpt>
<trkpt lat="36.75102" lon="137.78402"><ele>1528</ele></trkpt>
<trkpt lat="36.75102" lon="137.78385"><ele>1534</ele></trkpt>
<trkpt lat="36.75095" lon="137.78358"><ele>1542</ele></trkpt>
<trkpt lat="36.75092" lon="137.7834"><ele>1541</ele></trkpt>
<trkpt lat="36.7509" lon="137.78323"><ele>1544</ele></trkpt>
<trkpt lat="36.75085" lon="137.78306"><ele>1550</ele></trkpt>
<trkpt lat="36.75085" lon="137.78294"><ele>1553</ele></trkpt>
<trkpt lat="36.75094" lon="137.78299"><ele>1553</ele></trkpt>
<trkpt lat="36.75091" lon="137.7827"><ele>1554</ele></trkpt>
<trkpt lat="36.75094" lon="137.78247"><ele>1558</ele></trkpt>
<trkpt lat="36.75095" lon="137.78225"><ele>1561</ele></trkpt>
<trkpt lat="36.75098" lon="137.78202"><ele>1563</ele></trkpt>
<trkpt lat="36.75104" lon="137.7818"><ele>1565</ele></trkpt>
<trkpt lat="36.75102" lon="137.78157"><ele>1569</ele></trkpt>
<trkpt lat="36.75106" lon="137.78135"><ele>1576</ele></trkpt>
<trkpt lat="36.75116" lon="137.78113"><ele>1576</ele></trkpt>
<trkpt lat="36.75119" lon="137.7809"><ele>1583</ele></trkpt>
<trkpt lat="36.75121" lon="137.78072"><ele>1587</ele></trkpt>
<trkpt lat="36.75123" lon="137.78056"><ele>1590</ele></trkpt>
<trkpt lat="36.75134" lon="137.78032"><ele>1595</ele></trkpt>
<trkpt lat="36.75138" lon="137.78016"><ele>1600</ele></trkpt>
<trkpt lat="36.7513" lon="137.77994"><ele>1602</ele></trkpt>
<trkpt lat="36.75132" lon="137.77976"><ele>1612</ele></trkpt>
<trkpt lat="36.75132" lon="137.77959"><ele>1612</ele></trkpt>
<trkpt lat="36.75129" lon="137.77941"><ele>1617</ele></trkpt>
<trkpt lat="36.75124" lon="137.77918"><ele>1623</ele></trkpt>
<trkpt lat="36.75127" lon="137.77901"><ele>1624</ele></trkpt>
<trkpt lat="36.75125" lon="137.77884"><ele>1629</ele></trkpt>
<trkpt lat="36.75125" lon="137.77867"><ele>1634</ele></trkpt>
<trkpt lat="36.75132" lon="137.77845"><ele>1637</ele></trkpt>
<trkpt lat="36.75132" lon="137.77822"><ele>1641</ele></trkpt>
<trkpt lat="36.75139" lon="137.77807"><ele>1644</ele></trkpt>
<trkpt lat="36.75136" lon="137.77792"><ele>1648</ele></trkpt>
<trkpt lat="36.75134" lon="137.77776"><ele>1653</ele></trkpt>
<trkpt lat="36.75135" lon="137.77751"><ele>1657</ele></trkpt>
<trkpt lat="36.75136" lon="137.77734"><ele>1660</ele></trkpt>
<trkpt lat="36.75132" lon="137.77718"><ele>1663</ele></trkpt>
<trkpt lat="36.75125" lon="137.77704"><ele>1669</ele></trkpt>
<trkpt lat="36.75124" lon="137.77692"><ele>1672</ele></trkpt>
<trkpt lat="36.75121" lon="137.77674"><ele>1677</ele></trkpt>
<trkpt lat="36.75123" lon="137.77654"><ele>1684</ele></trkpt>
<trkpt lat="36.75122" lon="137.77632"><ele>1693</ele></trkpt>
<trkpt lat="36.75118" lon="137.77616"><ele>1698</ele></trkpt>
<trkpt lat="36.75119" lon="137.77592"><ele>1700</ele></trkpt>
<trkpt lat="36.75119" lon="137.77571"><ele>1708</ele></trkpt>
<trkpt lat="36.75119" lon="137.77553"><ele>1709</ele></trkpt>
<trkpt lat="36.75122" lon="137.77538"><ele>1717</ele></trkpt>
<trkpt lat="36.75117" lon="137.77517"><ele>1719</ele></trkpt>
<trkpt lat="36.75112" lon="137.77501"><ele>1723</ele></trkpt>
<trkpt lat="36.75107" lon="137.7748"><ele>1730</ele></trkpt>
<trkpt lat="36.75109" lon="137.77463"><ele>1733</ele></trkpt>
<trkpt lat="36.75101" lon="137.77452"><ele>1741</ele></trkpt>
<trkpt lat="36.751" lon="137.77434"><ele>1744</ele></trkpt>
<trkpt lat="36.75097" lon="137.77417"><ele>1751</ele></trkpt>
<trkpt lat="36.75096" lon="137.774"><ele>1755</ele></trkpt>
<trkpt lat="36.75089" lon="137.77386"><ele>1763</ele></trkpt>
<trkpt lat="36.75088" lon="137.77364"><ele>1770</ele></trkpt>
<trkpt lat="36.75087" lon="137.77352"><ele>1776</ele></trkpt>
<trkpt lat="36.75084" lon="137.77341"><ele>1782</ele></trkpt>
<trkpt lat="36.75081" lon="137.77331"><ele>1786</ele></trkpt>
<trkpt lat="36.75082" lon="137.77314"><ele>1790</ele></trkpt>
<trkpt lat="36.75078" lon="137.77298"><ele>1797</ele></trkpt>
<trkpt lat="36.75071" lon="137.77283"><ele>1806</ele></trkpt>
<trkpt lat="36.75066" lon="137.77273"><ele>1810</ele></trkpt>
<trkpt lat="36.75057" lon="137.77254"><ele>1821</ele></trkpt>
<trkpt lat="36.75062" lon="137.77236"><ele>1822</ele></trkpt>
<trkpt lat="36.7506" lon="137.77224"><ele>1825</ele></trkpt>
<trkpt lat="36.75061" lon="137.77207"><ele>1830</ele></trkpt>
<trkpt lat="36.7506" lon="137.77195"><ele>1835</ele></trkpt>
<trkpt lat="36.75055" lon="137.77178"><ele>1839</ele></trkpt>
<trkpt lat="36.75052" lon="137.77161"><ele>1846</ele></trkpt>
<trkpt lat="36.75044" lon="137.77146"><ele>1854</ele></trkpt>
<trkpt lat="36.75038" lon="137.77129"><ele>1858</ele></trkpt>
<trkpt lat="36.75032" lon="137.77113"><ele>1863</ele></trkpt>
<trkpt lat="36.75024" lon="137.77098"><ele>1867</ele></trkpt>
<trkpt lat="36.7502" lon="137.77088"><ele>1871</ele></trkpt>
<trkpt lat="36.75014" lon="137.77078"><ele>1874</ele></trkpt>
<trkpt lat="36.75007" lon="137.77063"><ele>1878</ele></trkpt>
<trkpt lat="36.74996" lon="137.77052"><ele>1881</ele></trkpt>
<trkpt lat="36.74988" lon="137.77038"><ele>1889</ele></trkpt>
<trkpt lat="36.74979" lon="137.77025"><ele>1896</ele></trkpt>
<trkpt lat="36.74971" lon="137.77011"><ele>1901</ele></trkpt>
<trkpt lat="36.74963" lon="137.76996"><ele>1904</ele></trkpt>
<trkpt lat="36.74955" lon="137.76981"><ele>1913</ele></trkpt>
<trkpt lat="36.74948" lon="137.76967"><ele>1919</ele></trkpt>
<trkpt lat="36.74939" lon="137.76951"><ele>1924</ele></trkpt>
<trkpt lat="36.74927" lon="137.76935"><ele>1931</ele></trkpt>
<trkpt lat="36.74918" lon="137.76921"><ele>1935</ele></trkpt>
<trkpt lat="36.74909" lon="137.76908"><ele>1943</ele></trkpt>
<trkpt lat="36.74897" lon="137.76897"><ele>1945</ele></trkpt>
<trkpt lat="36.74888" lon="137.76885"><ele>1951</ele></trkpt>
<trkpt lat="36.74882" lon="137.7687"><ele>1957</ele></trkpt>
<trkpt lat="36.74873" lon="137.76856"><ele>1963</ele></trkpt>
<trkpt lat="36.74868" lon="137.76839"><ele>1969</ele></trkpt>
<trkpt lat="36.74864" lon="137.76829"><ele>1974</ele></trkpt>
<trkpt lat="36.74859" lon="137.76813"><ele>1982</ele></trkpt>
<trkpt lat="36.74855" lon="137.76796"><ele>1987</ele></trkpt>
<trkpt lat="36.7485" lon="137.7678"><ele>1993</ele></trkpt>
<trkpt lat="36.74847" lon="137.76769"><ele>1999</ele></trkpt>
<trkpt lat="36.74844" lon="137.76758"><ele>2006</ele></trkpt>
<trkpt lat="36.74841" lon="137.76741"><ele>2012</ele></trkpt>
<trkpt lat="36.74839" lon="137.76723"><ele>2017</ele></trkpt>
<trkpt lat="36.74835" lon="137.76706"><ele>2022</ele></trkpt>
<trkpt lat="36.74832" lon="137.76695"><ele>2025</ele></trkpt>
<trkpt lat="36.74829" lon="137.76678"><ele>2030</ele></trkpt>
<trkpt lat="36.74827" lon="137.76661"><ele>2041</ele></trkpt>
<trkpt lat="36.74825" lon="137.76644"><ele>2046</ele></trkpt>
<trkpt lat="36.74823" lon="137.76632"><ele>2052</ele></trkpt>
<trkpt lat="36.74824" lon="137.76615"><ele>2057</ele></trkpt>
<trkpt lat="36.74821" lon="137.76597"><ele>2061</ele></trkpt>
<trkpt lat="36.7482" lon="137.7658"><ele>2069</ele></trkpt>
<trkpt lat="36.74817" lon="137.76569"><ele>2072</ele></trkpt>
<trkpt lat="36.74814" lon="137.76559"><ele>2073</ele></trkpt>
<trkpt lat="36.74813" lon="137.76541"><ele>2083</ele></trkpt>
<trkpt lat="36.74813" lon="137.76523"><ele>2090</ele></trkpt>
<trkpt lat="36.74812" lon="137.76512"><ele>2094</ele></trkpt>
<trkpt lat="36.74809" lon="137.76494"><ele>2104</ele></trkpt>
<trkpt lat="36.74807" lon="137.76476"><ele>2110</ele></trkpt>
<trkpt lat="36.74805" lon="137.76459"><ele>2117</ele></trkpt>
<trkpt lat="36.74813" lon="137.76445"><ele>2121</ele></trkpt>
<trkpt lat="36.74824" lon="137.76433"><ele>2128</ele></trkpt>
<trkpt lat="36.74841" lon="137.76427"><ele>2138</ele></trkpt>
<trkpt lat="36.74834" lon="137.76414"><ele>2140</ele></trkpt>
<trkpt lat="36.74836" lon="137.76398"><ele>2149</ele></trkpt>
<trkpt lat="36.74839" lon="137.76383"><ele>2158</ele></trkpt>
<trkpt lat="36.74838" lon="137.76367"><ele>2165</ele></trkpt>
<trkpt lat="36.74828" lon="137.76355"><ele>2167</ele></trkpt>
<trkpt lat="36.74822" lon="137.76338"><ele>2173</ele></trkpt>
<trkpt lat="36.7482" lon="137.76326"><ele>2177</ele></trkpt>
<trkpt lat="36.74826" lon="137.76317"><ele>2185</ele></trkpt>
<trkpt lat="36.74819" lon="137.76301"><ele>2194</ele></trkpt>
<trkpt lat="36.74823" lon="137.76287"><ele>2201</ele></trkpt>
<trkpt lat="36.74825" lon="137.7627"><ele>2209</ele></trkpt>
<trkpt lat="36.74816" lon="137.76259"><ele>2212</ele></trkpt>
<trkpt lat="36.74808" lon="137.76251"><ele>2213</ele></trkpt>
<trkpt lat="36.74791" lon="137.76243"><ele>2221</ele></trkpt>
<trkpt lat="36.74784" lon="137.76235"><ele>2223</ele></trkpt>
<trkpt lat="36.74793" lon="137.76225"><ele>2235</ele></trkpt>
<trkpt lat="36.74792" lon="137.76209"><ele>2244</ele></trkpt>
<trkpt lat="36.74798" lon="137.76194"><ele>2254</ele></trkpt>
<trkpt lat="36.74798" lon="137.76183"><ele>2259</ele></trkpt>
<trkpt lat="36.748" lon="137.76165"><ele>2268</ele></trkpt>
<trkpt lat="36.74792" lon="137.76148"><ele>2275</ele></trkpt>
<trkpt lat="36.74794" lon="137.76137"><ele>2282</ele></trkpt>
<trkpt lat="36.74801" lon="137.76128"><ele>2286</ele></trkpt>
<trkpt lat="36.7481" lon="137.76118"><ele>2299</ele></trkpt>
<trkpt lat="36.74802" lon="137.76112"><ele>2303</ele></trkpt>
<trkpt lat="36.74808" lon="137.76093"><ele>2308</ele></trkpt>
<trkpt lat="36.74809" lon="137.76078"><ele>2317</ele></trkpt>
<trkpt lat="36.7481" lon="137.76064"><ele>2327</ele></trkpt>
<trkpt lat="36.74805" lon="137.76044"><ele>2339</ele></trkpt>
<trkpt lat="36.74798" lon="137.76032"><ele>2346</ele></trkpt>
<trkpt lat="36.74801" lon="137.76017"><ele>2353</ele></trkpt>
<trkpt lat="36.74799" lon="137.76001"><ele>2360</ele></trkpt>
<trkpt lat="36.74801" lon="137.75984"><ele>2368</ele></trkpt>
<trkpt lat="36.74796" lon="137.75969"><ele>2377</ele></trkpt>
<trkpt lat="36.74791" lon="137.7596"><ele>2381</ele></trkpt>
<trkpt lat="36.74793" lon="137.75947"><ele>2386</ele></trkpt>
<trkpt lat="36.74809" lon="137.75951"><ele>2394</ele></trkpt>
<trkpt lat="36.74821" lon="137.75942"><ele>2399</ele></trkpt>
<trkpt lat="36.74823" lon="137.75929"><ele>2406</ele></trkpt>
<trkpt lat="36.74836" lon="137.75923"><ele>2413</ele></trkpt>
<trkpt lat="36.74846" lon="137.75925"><ele>2416</ele></trkpt>
<trkpt lat="36.74848" lon="137.75908"><ele>2425</ele></trkpt>
<trkpt lat="36.74856" lon="137.75902"><ele>2431</ele></trkpt>
<trkpt lat="36.74863" lon="137.75888"><ele>2437</ele></trkpt>
<trkpt lat="36.74858" lon="137.75875"><ele>2442</ele></trkpt>
<trkpt lat="36.74859" lon="137.7586"><ele>2447</ele></trkpt>
<trkpt lat="36.74861" lon="137.7584"><ele>2453</ele></trkpt>
<trkpt lat="36.74866" lon="137.75823"><ele>2459</ele></trkpt>
<trkpt lat="36.74863" lon="137.75807"><ele>2466</ele></trkpt>
<trkpt lat="36.74868" lon="137.75791"><ele>2469</ele></trkpt>
<trkpt lat="36.74874" lon="137.75782"><ele>2474</ele></trkpt>
<trkpt lat="36.74862" lon="137.7577"><ele>2479</ele></trkpt>
<trkpt lat="36.74859" lon="137.75753"><ele>2485</ele></trkpt>
<trkpt lat="36.74857" lon="137.75736"><ele>2489</ele></trkpt>
<trkpt lat="36.74856" lon="137.7572"><ele>2495</ele></trkpt>
<trkpt lat="36.74865" lon="137.75708"><ele>2502</ele></trkpt>
<trkpt lat="36.74867" lon="137.75697"><ele>2504</ele></trkpt>
<trkpt lat="36.74869" lon="137.75681"><ele>2511</ele></trkpt>
<trkpt lat="36.74872" lon="137.75667"><ele>2518</ele></trkpt>
<trkpt lat="36.74875" lon="137.75653"><ele>2523</ele></trkpt>
<trkpt lat="36.74888" lon="137.75644"><ele>2529</ele></trkpt>
<trkpt lat="36.74902" lon="137.75631"><ele>2533</ele></trkpt>
<trkpt lat="36.74913" lon="137.75621"><ele>2538</ele></trkpt>
<trkpt lat="36.74927" lon="137.75618"><ele>2540</ele></trkpt>
<trkpt lat="36.74946" lon="137.75618"><ele>2543</ele></trkpt>
<trkpt lat="36.7496" lon="137.75617"><ele>2546</ele></trkpt>
<trkpt lat="36.74971" lon="137.75599"><ele>2548</ele></trkpt>
<trkpt lat="36.74986" lon="137.75587"><ele>2558</ele></trkpt>
<trkpt lat="36.74992" lon="137.75573"><ele>2561</ele></trkpt>
<trkpt lat="36.75004" lon="137.7556"><ele>2568</ele></trkpt>
<trkpt lat="36.75013" lon="137.75559"><ele>2572</ele></trkpt>
<trkpt lat="36.75027" lon="137.75554"><ele>2577</ele></trkpt>
<trkpt lat="36.75044" lon="137.75546"><ele>2586</ele></trkpt>
<trkpt lat="36.75052" lon="137.7554"><ele>2591</ele></trkpt>
<trkpt lat="36.75069" lon="137.75534"><ele>2598</ele></trkpt>
<trkpt lat="36.75083" lon="137.75531"><ele>2603</ele></trkpt>
<trkpt lat="36.75097" lon="137.75535"><ele>2613</ele></trkpt>
<trkpt lat="36.7511" lon="137.75533"><ele>2620</ele></trkpt>
<trkpt lat="36.75117" lon="137.75524"><ele>2628</ele></trkpt>
<trkpt lat="36.75122" lon="137.75515"><ele>2633</ele></trkpt>
<trkpt lat="36.75136" lon="137.7551"><ele>2638</ele></trkpt>
<trkpt lat="36.75142" lon="137.75501"><ele>2643</ele></trkpt>
<trkpt lat="36.75146" lon="137.75491"><ele>2646</ele></trkpt>
<trkpt lat="36.75154" lon="137.75486"><ele>2653</ele></trkpt>
<trkpt lat="36.7516" lon="137.75472"><ele>2660</ele></trkpt>
<trkpt lat="36.75173" lon="137.75466"><ele>2666</ele></trkpt>
<trkpt lat="36.75185" lon="137.75457"><ele>2669</ele></trkpt>
<trkpt lat="36.75197" lon="137.75448"><ele>2673</ele></trkpt>
<trkpt lat="36.7521" lon="137.75447"><ele>2678</ele></trkpt>
<trkpt lat="36.75226" lon="137.75436"><ele>2684</ele></trkpt>
<trkpt lat="36.75234" lon="137.7543"><ele>2690</ele></trkpt>
<trkpt lat="36.75246" lon="137.75428"><ele>2694</ele></trkpt>
<trkpt lat="36.75253" lon="137.75421"><ele>2700</ele></trkpt>
<trkpt lat="36.75262" lon="137.75415"><ele>2706</ele></trkpt>
<trkpt lat="36.7528" lon="137.75409"><ele>2710</ele></trkpt>
<trkpt lat="36.75289" lon="137.75404"><ele>2713</ele></trkpt>
<trkpt lat="36.753" lon="137.75388"><ele>2721</ele></trkpt>
</trkseg>
<trkseg>
<trkpt lat="36.75364" lon="137.75351"><ele>2755</ele></trkpt>
<trkpt lat="36.75375" lon="137.7537"><ele>2757</ele></trkpt>
<trkpt lat="36.75387" lon="137.7539"><ele>2762</ele></trkpt>
<trkpt lat="36.754" lon="137.75407"><ele>2766</ele></trkpt>
<trkpt lat="36.75415" lon="137.75425"><ele>2766</ele></trkpt>
<trkpt lat="36.75432" lon="137.75436"><ele>2772</ele></trkpt>
<trkpt lat="36.75449" lon="137.75448"><ele>2775</ele></trkpt>
<trkpt lat="36.75464" lon="137.75463"><ele>2778</ele></trkpt>
<trkpt lat="36.75475" lon="137.75482"><ele>2781</ele></trkpt>
<trkpt lat="36.75485" lon="137.75506"><ele>2785</ele></trkpt>
<trkpt lat="36.75493" lon="137.75521"><ele>2790</ele></trkpt>
<trkpt lat="36.75503" lon="137.75538"><ele>2795</ele></trkpt>
<trkpt lat="36.75508" lon="137.75554"><ele>2801</ele></trkpt>
<trkpt lat="36.75511" lon="137.7557"><ele>2804</ele></trkpt>
<trkpt lat="36.75515" lon="137.75597"><ele>2812</ele></trkpt>
<trkpt lat="36.75518" lon="137.75616"><ele>2816</ele></trkpt>
<trkpt lat="36.75525" lon="137.75633"><ele>2820</ele></trkpt>
<trkpt lat="36.75527" lon="137.75648"><ele>2824</ele></trkpt>
<trkpt lat="36.75542" lon="137.75659"><ele>2831</ele></trkpt>
<trkpt lat="36.75544" lon="137.7567"><ele>2836</ele></trkpt>
<trkpt lat="36.75563" lon="137.7567"><ele>2836</ele></trkpt>
<trkpt lat="36.75583" lon="137.75675"><ele>2835</ele></trkpt>
<trkpt lat="36.75595" lon="137.75683"><ele>2841</ele></trkpt>
<trkpt lat="36.75611" lon="137.75695"><ele>2845</ele></trkpt>
<trkpt lat="36.75623" lon="137.75703"><ele>2848</ele></trkpt>
<trkpt lat="36.75637" lon="137.75708"><ele>2854</ele></trkpt>
<trkpt lat="36.7565" lon="137.75717"><ele>2860</ele></trkpt>
<trkpt lat="36.75659" lon="137.7573"><ele>2864</ele></trkpt>
<trkpt lat="36.75667" lon="137.75747"><ele>2869</ele></trkpt>
<trkpt lat="36.75685" lon="137.75747"><ele>2874</ele></trkpt>
<trkpt lat="36.75699" lon="137.75753"><ele>2880</ele></trkpt>
<trkpt lat="36.757" lon="137.7577"><ele>2885</ele></trkpt>
<trkpt lat="36.75715" lon="137.75755"><ele>2885</ele></trkpt>
<trkpt lat="36.75734" lon="137.75757"><ele>2890</ele></trkpt>
<trkpt lat="36.75754" lon="137.75765"><ele>2896</ele></trkpt>
<trkpt lat="36.75769" lon="137.75773"><ele>2904</ele></trkpt>
<trkpt lat="36.75784" lon="137.75782"><ele>2910</ele></trkpt>
<trkpt lat="36.75795" lon="137.75793"><ele>2913</ele></trkpt>
<trkpt lat="36.7581" lon="137.75806"><ele>2919</ele></trkpt>
<trkpt lat="36.75822" lon="137.75815"><ele>2922</ele></trkpt>
<trkpt lat="36.75832" lon="137.75828"><ele>2927</ele></trkpt>
<trkpt lat="36.75843" lon="137.75846"><ele>2930</ele></trkpt>
<trkpt lat="36.75852" lon="137.75852"><ele>2931</ele></trkpt>
<trkpt lat="36.75866" lon="137.7585"><ele>2928</ele></trkpt>
<trkpt lat="36.75885" lon="137.75844"><ele>2924</ele></trkpt>
<trkpt lat="36.75906" lon="137.75835"><ele>2921</ele></trkpt>
<trkpt lat="36.75925" lon="137.75838"><ele>2916</ele></trkpt>
<trkpt lat="36.75944" lon="137.75839"><ele>2908</ele></trkpt>
<trkpt lat="36.75965" lon="137.75855"><ele>2903</ele></trkpt>
<trkpt lat="36.75986" lon="137.75871"><ele>2900</ele></trkpt>
<trkpt lat="36.76006" lon="137.75886"><ele>2900</ele></trkpt>
<trkpt lat="36.76025" lon="137.75892"><ele>2897</ele></trkpt>
<trkpt lat="36.76048" lon="137.75898"><ele>2896</ele></trkpt>
<trkpt lat="36.7607" lon="137.75889"><ele>2895</ele></trkpt>
<trkpt lat="36.76088" lon="137.75882"><ele>2890</ele></trkpt>
<trkpt lat="36.76097" lon="137.75883"><ele>2888</ele></trkpt>
<trkpt lat="36.76118" lon="137.75883"><ele>2883</ele></trkpt>
<trkpt lat="36.76145" lon="137.75888"><ele>2880</ele></trkpt>
<trkpt lat="36.76172" lon="137.75886"><ele>2876</ele></trkpt>
<trkpt lat="36.76184" lon="137.75897"><ele>2873</ele></trkpt>
<trkpt lat="36.762" lon="137.7591"><ele>2866</ele></trkpt>
<trkpt lat="36.76227" lon="137.75915"><ele>2862</ele></trkpt>
<trkpt lat="36.76249" lon="137.75927"><ele>2862</ele></trkpt>
<trkpt lat="36.7627" lon="137.75937"><ele>2860</ele></trkpt>
<trkpt lat="36.76284" lon="137.75943"><ele>2857</ele></trkpt>
<trkpt lat="36.76293" lon="137.75944"><ele>2855</ele></trkpt>
<trkpt lat="36.76307" lon="137.75941"><ele>2846</ele></trkpt>
<trkpt lat="36.76319" lon="137.7595"><ele>2840</ele></trkpt>
<trkpt lat="36.7633" lon="137.75965"><ele>2831</ele></trkpt>
<trkpt lat="36.76357" lon="137.75978"><ele>2825</ele></trkpt>
<trkpt lat="36.76384" lon="137.75991"><ele>2824</ele></trkpt>
<trkpt lat="36.76414" lon="137.75989"><ele>2823</ele></trkpt>
<trkpt lat="36.7644" lon="137.75988"><ele>2821</ele></trkpt>
<trkpt lat="36.76453" lon="137.75988"><ele>2818</ele></trkpt>
<trkpt lat="36.76466" lon="137.76003"><ele>2811</ele></trkpt>
<trkpt lat="36.76485" lon="137.76015"><ele>2806</ele></trkpt>
<trkpt lat="36.76499" lon="137.76022"><ele>2800</ele></trkpt>
<trkpt lat="36.76507" lon="137.76029"><ele>2797</ele></trkpt>
<trkpt lat="36.76512" lon="137.76042"><ele>2789</ele></trkpt>
<trkpt lat="36.76517" lon="137.76061"><ele>2777</ele></trkpt>
<trkpt lat="36.76531" lon="137.76062"><ele>2772</ele></trkpt>
<trkpt lat="36.76544" lon="137.76073"><ele>2766</ele></trkpt>
<trkpt lat="36.76553" lon="137.76079"><ele>2762</ele></trkpt>
<trkpt lat="36.76564" lon="137.76089"><ele>2756</ele></trkpt>
<trkpt lat="36.76579" lon="137.76104"><ele>2750</ele></trkpt>
<trkpt lat="36.76599" lon="137.76118"><ele>2744</ele></trkpt>
<trkpt lat="36.76613" lon="137.76134"><ele>2741</ele></trkpt>
<trkpt lat="36.76632" lon="137.76152"><ele>2736</ele></trkpt>
<trkpt lat="36.76654" lon="137.76169"><ele>2729</ele></trkpt>
<trkpt lat="36.76671" lon="137.76179"><ele>2726</ele></trkpt>
<trkpt lat="36.76683" lon="137.76198"><ele>2724</ele></trkpt>
<trkpt lat="36.767" lon="137.76223"><ele>2725</ele></trkpt>
<trkpt lat="36.76708" lon="137.76236"><ele>2724</ele></trkpt>
<trkpt lat="36.76722" lon="137.76261"><ele>2723</ele></trkpt>
<trkpt lat="36.76728" lon="137.76283"><ele>2717</ele></trkpt>
<trkpt lat="36.7673" lon="137.76312"><ele>2713</ele></trkpt>
<trkpt lat="36.76735" lon="137.76346"><ele>2705</ele></trkpt>
<trkpt lat="36.76739" lon="137.76377"><ele>2700</ele></trkpt>
<trkpt lat="36.76745" lon="137.76399"><ele>2698</ele></trkpt>
<trkpt lat="36.76749" lon="137.76423"><ele>2688</ele></trkpt>
<trkpt lat="36.76754" lon="137.76448"><ele>2684</ele></trkpt>
<trkpt lat="36.76757" lon="137.76459"><ele>2681</ele></trkpt>
<trkpt lat="36.76769" lon="137.76478"><ele>2676</ele></trkpt>
<trkpt lat="36.76797" lon="137.76495"><ele>2677</ele></trkpt>
<trkpt lat="36.76813" lon="137.76508"><ele>2682</ele></trkpt>
<trkpt lat="36.76831" lon="137.76528"><ele>2687</ele></trkpt>
<trkpt lat="36.7685" lon="137.76548"><ele>2689</ele></trkpt>
<trkpt lat="36.76866" lon="137.76569"><ele>2690</ele></trkpt>
<trkpt lat="36.76885" lon="137.76594"><ele>2693</ele></trkpt>
<trkpt lat="36.76904" lon="137.76612"><ele>2691</ele></trkpt>
<trkpt lat="36.76924" lon="137.76626"><ele>2692</ele></trkpt>
<trkpt lat="36.76949" lon="137.76645"><ele>2688</ele></trkpt>
<trkpt lat="36.76967" lon="137.76672"><ele>2692</ele></trkpt>
<trkpt lat="36.7699" lon="137.76686"><ele>2696</ele></trkpt>
<trkpt lat="36.7701" lon="137.76702"><ele>2699</ele></trkpt>
<trkpt lat="36.77031" lon="137.76716"><ele>2698</ele></trkpt>
<trkpt lat="36.77057" lon="137.76733"><ele>2694</ele></trkpt>
<trkpt lat="36.77073" lon="137.76761"><ele>2694</ele></trkpt>
<trkpt lat="36.77084" lon="137.76791"><ele>2695</ele></trkpt>
<trkpt lat="36.77095" lon="137.76815"><ele>2699</ele></trkpt>
<trkpt lat="36.77103" lon="137.76837"><ele>2705</ele></trkpt>
<trkpt lat="36.77117" lon="137.76858"><ele>2714</ele></trkpt>
<trkpt lat="36.7713" lon="137.76881"><ele>2718</ele></trkpt>
<trkpt lat="36.77145" lon="137.76905"><ele>2718</ele></trkpt>
<trkpt lat="36.7714" lon="137.76884"><ele>2720</ele></trkpt>
<trkpt lat="36.77151" lon="137.76909"><ele>2718</ele></trkpt>
<trkpt lat="36.77146" lon="137.76938"><ele>2719</ele></trkpt>
<trkpt lat="36.77139" lon="137.76964"><ele>2720</ele></trkpt>
<trkpt lat="36.77142" lon="137.76996"><ele>2723</ele></trkpt>
<trkpt lat="36.77147" lon="137.77026"><ele>2725</ele></trkpt>
<trkpt lat="36.77148" lon="137.7705"><ele>2727</ele></trkpt>
<trkpt lat="36.77155" lon="137.77069"><ele>2731</ele></trkpt>
<trkpt lat="36.77164" lon="137.77088"><ele>2735</ele></trkpt>
<trkpt lat="36.77171" lon="137.77104"><ele>2738</ele></trkpt>
<trkpt lat="36.77187" lon="137.77129"><ele>2740</ele></trkpt>
<trkpt lat="36.77196" lon="137.77157"><ele>2740</ele></trkpt>
<trkpt lat="36.77195" lon="137.77186"><ele>2738</ele></trkpt>
<trkpt lat="36.77192" lon="137.77223"><ele>2735</ele></trkpt>
<trkpt lat="36.77201" lon="137.77259"><ele>2736</ele></trkpt>
<trkpt lat="36.77211" lon="137.77287"><ele>2738</ele></trkpt>
<trkpt lat="36.77223" lon="137.77316"><ele>2744</ele></trkpt>
<trkpt lat="36.7724" lon="137.77338"><ele>2743</ele></trkpt>
<trkpt lat="36.7725" lon="137.77372"><ele>2742</ele></trkpt>
<trkpt lat="36.77259" lon="137.77401"><ele>2743</ele></trkpt>
<trkpt lat="36.77267" lon="137.77425"><ele>2749</ele></trkpt>
<trkpt lat="36.77288" lon="137.7744"><ele>2746</ele></trkpt>
<trkpt lat="36.77307" lon="137.77458"><ele>2743</ele></trkpt>
<trkpt lat="36.77321" lon="137.77483"><ele>2745</ele></trkpt>
<trkpt lat="36.77329" lon="137.7751"><ele>2751</ele></trkpt>
<trkpt lat="36.77342" lon="137.77527"><ele>2753</ele></trkpt>
<trkpt lat="36.77359" lon="137.77549"><ele>2757</ele></trkpt>
<trkpt lat="36.77368" lon="137.77569"><ele>2760</ele></trkpt>
<trkpt lat="36.77376" lon="137.77585"><ele>2762</ele></trkpt>
<trkpt lat="36.7738" lon="137.77595"><ele>2765</ele></trkpt>
<trkpt lat="36.77375" lon="137.77612"><ele>2760</ele></trkpt>
<trkpt lat="36.77358" lon="137.77634"><ele>2757</ele></trkpt>
<trkpt lat="36.77354" lon="137.77658"><ele>2752</ele></trkpt>
<trkpt lat="36.77351" lon="137.77682"><ele>2749</ele></trkpt>
<trkpt lat="36.77343" lon="137.7771"><ele>2750</ele></trkpt>
<trkpt lat="36.77338" lon="137.77725"><ele>2751</ele></trkpt>
<trkpt lat="36.77332" lon="137.77747"><ele>2742</ele></trkpt>
<trkpt lat="36.77326" lon="137.7777"><ele>2739</ele></trkpt>
<trkpt lat="36.77333" lon="137.778"><ele>2736</ele></trkpt>
<trkpt lat="36.77325" lon="137.77827"><ele>2737</ele></trkpt>
<trkpt lat="36.77321" lon="137.77851"><ele>2736</ele></trkpt>
<trkpt lat="36.77318" lon="137.77874"><ele>2732</ele></trkpt>
<trkpt lat="36.77319" lon="137.77891"><ele>2728</ele></trkpt>
<trkpt lat="36.77321" lon="137.77906"><ele>2729</ele></trkpt>
<trkpt lat="36.77322" lon="137.7793"><ele>2726</ele></trkpt>
<trkpt lat="36.77315" lon="137.77953"><ele>2722</ele></trkpt>
<trkpt lat="36.77317" lon="137.77975"><ele>2716</ele></trkpt>
<trkpt lat="36.77313" lon="137.77996"><ele>2709</ele></trkpt>
<trkpt lat="36.7731" lon="137.78019"><ele>2702</ele></trkpt>
<trkpt lat="36.77312" lon="137.78045"><ele>2697</ele></trkpt>
<trkpt lat="36.7731" lon="137.78068"><ele>2695</ele></trkpt>
<trkpt lat="36.77309" lon="137.78081"><ele>2694</ele></trkpt>
<trkpt lat="36.77308" lon="137.78109"><ele>2687</ele></trkpt>
<trkpt lat="36.77315" lon="137.78132"><ele>2685</ele></trkpt>
<trkpt lat="36.77319" lon="137.78155"><ele>2678</ele></trkpt>
<trkpt lat="36.77315" lon="137.78182"><ele>2672</ele></trkpt>
<trkpt lat="36.7732" lon="137.78207"><ele>2665</ele></trkpt>
<trkpt lat="36.77324" lon="137.78231"><ele>2659</ele></trkpt>
<trkpt lat="36.77337" lon="137.78246"><ele>2654</ele></trkpt>
<trkpt lat="36.77344" lon="137.78256"><ele>2651</ele></trkpt>
<trkpt lat="36.77353" lon="137.78272"><ele>2645</ele></trkpt>
<trkpt lat="36.77371" lon="137.78272"><ele>2639</ele></trkpt>
<trkpt lat="36.77377" lon="137.78294"><ele>2632</ele></trkpt>
<trkpt lat="36.77389" lon="137.78318"><ele>2625</ele></trkpt>
<trkpt lat="36.77402" lon="137.78338"><ele>2622</ele></trkpt>
<trkpt lat="36.77407" lon="137.78352"><ele>2617</ele></trkpt>
<trkpt lat="36.77415" lon="137.78379"><ele>2610</ele></trkpt>
<trkpt lat="36.77419" lon="137.78404"><ele>2611</ele></trkpt>
<trkpt lat="36.77426" lon="137.78424"><ele>2615</ele></trkpt>
<trkpt lat="36.77436" lon="137.78453"><ele>2616</ele></trkpt>
<trkpt lat="36.77449" lon="137.7847"><ele>2617</ele></trkpt>
<trkpt lat="36.77468" lon="137.7849"><ele>2614</ele></trkpt>
<trkpt lat="36.77485" lon="137.78501"><ele>2611</ele></trkpt>
<trkpt lat="36.77502" lon="137.78532"><ele>2604</ele></trkpt>
<trkpt lat="36.77515" lon="137.78556"><ele>2604</ele></trkpt>
<trkpt lat="36.77537" lon="137.78571"><ele>2603</ele></trkpt>
<trkpt lat="36.77547" lon="137.78591"><ele>2598</ele></trkpt>
<trkpt lat="36.77558" lon="137.78615"><ele>2594</ele></trkpt>
<trkpt lat="36.77572" lon="137.78638"><ele>2590</ele></trkpt>
<trkpt lat="36.7758" lon="137.78665"><ele>2585</ele></trkpt>
<trkpt lat="36.77594" lon="137.78689"><ele>2580</ele></trkpt>
<trkpt lat="36.77612" lon="137.78711"><ele>2576</ele></trkpt>
<trkpt lat="36.77629" lon="137.78732"><ele>2581</ele></trkpt>
<trkpt lat="36.77644" lon="137.78746"><ele>2584</ele></trkpt>
<trkpt lat="36.77656" lon="137.78762"><ele>2590</ele></trkpt>
<trkpt lat="36.77672" lon="137.78771"><ele>2597</ele></trkpt>
<trkpt lat="36.77685" lon="137.78786"><ele>2604</ele></trkpt>
<trkpt lat="36.77692" lon="137.78793"><ele>2606</ele></trkpt>
<trkpt lat="36.77688" lon="137.78804"><ele>2610</ele></trkpt>
<trkpt lat="36.77702" lon="137.78801"><ele>2605</ele></trkpt>
<trkpt lat="36.77711" lon="137.78829"><ele>2596</ele></trkpt>
<trkpt lat="36.77718" lon="137.78865"><ele>2596</ele></trkpt>
<trkpt lat="36.77727" lon="137.78894"><ele>2596</ele></trkpt>
<trkpt lat="36.77744" lon="137.78915"><ele>2590</ele></trkpt>
<trkpt lat="36.7776" lon="137.78927"><ele>2585</ele></trkpt>
<trkpt lat="36.77779" lon="137.78946"><ele>2582</ele></trkpt>
<trkpt lat="36.778" lon="137.78963"><ele>2583</ele></trkpt>
<trkpt lat="36.77819" lon="137.78982"><ele>2584</ele></trkpt>
<trkpt lat="36.77835" lon="137.78995"><ele>2578</ele></trkpt>
<trkpt lat="36.77848" lon="137.79003"><ele>2573</ele></trkpt>
<trkpt lat="36.77856" lon="137.79025"><ele>2569</ele></trkpt>
<trkpt lat="36.77863" lon="137.79043"><ele>2568</ele></trkpt>
<trkpt lat="36.77874" lon="137.79068"><ele>2561</ele></trkpt>
<trkpt lat="36.77888" lon="137.7908"><ele>2555</ele></trkpt>
<trkpt lat="36.77908" lon="137.79094"><ele>2546</ele></trkpt>
<trkpt lat="36.77925" lon="137.79121"><ele>2539</ele></trkpt>
<trkpt lat="36.77947" lon="137.79137"><ele>2531</ele></trkpt>
<trkpt lat="36.77966" lon="137.79141"><ele>2525</ele></trkpt>
<trkpt lat="36.77982" lon="137.7914"><ele>2521</ele></trkpt>
<trkpt lat="36.77995" lon="137.79145"><ele>2514</ele></trkpt>
<trkpt lat="36.78012" lon="137.79154"><ele>2506</ele></trkpt>
<trkpt lat="36.78029" lon="137.7915"><ele>2500</ele></trkpt>
<trkpt lat="36.78045" lon="137.79157"><ele>2494</ele></trkpt>
<trkpt lat="36.78065" lon="137.79159"><ele>2489</ele></trkpt>
<trkpt lat="36.78082" lon="137.79151"><ele>2487</ele></trkpt>
<trkpt lat="36.78101" lon="137.79148"><ele>2479</ele></trkpt>
<trkpt lat="36.78124" lon="137.79166"><ele>2475</ele></trkpt>
<trkpt lat="36.78149" lon="137.79173"><ele>2468</ele></trkpt>
<trkpt lat="36.78177" lon="137.79189"><ele>2462</ele></trkpt>
<trkpt lat="36.78207" lon="137.79199"><ele>2461</ele></trkpt>
<trkpt lat="36.78237" lon="137.79201"><ele>2458</ele></trkpt>
<trkpt lat="36.78263" lon="137.79218"><ele>2453</ele></trkpt>
<trkpt lat="36.78288" lon="137.79221"><ele>2448</ele></trkpt>
<trkpt lat="36.78305" lon="137.79217"><ele>2443</ele></trkpt>
<trkpt lat="36.78329" lon="137.79214"><ele>2439</ele></trkpt>
<trkpt lat="36.7835" lon="137.79226"><ele>2437</ele></trkpt>
<trkpt lat="36.7838" lon="137.79236"><ele>2436</ele></trkpt>
<trkpt lat="36.78407" lon="137.79253"><ele>2436</ele></trkpt>
<trkpt lat="36.78434" lon="137.79267"><ele>2435</ele></trkpt>
<trkpt lat="36.78459" lon="137.79276"><ele>2436</ele></trkpt>
<trkpt lat="36.78473" lon="137.79297"><ele>2431</ele></trkpt>
<trkpt lat="36.78473" lon="137.7932"><ele>2426</ele></trkpt>
<trkpt lat="36.78492" lon="137.79328"><ele>2419</ele></trkpt>
<trkpt lat="36.78514" lon="137.79339"><ele>2411</ele></trkpt>
<trkpt lat="36.78526" lon="137.79356"><ele>2408</ele></trkpt>
<trkpt lat="36.78546" lon="137.79356"><ele>2403</ele></trkpt>
<trkpt lat="36.78571" lon="137.79361"><ele>2398</ele></trkpt>
<trkpt lat="36.78593" lon="137.79367"><ele>2394</ele></trkpt>
<trkpt lat="36.78616" lon="137.7938"><ele>2389</ele></trkpt>
<trkpt lat="36.78634" lon="137.79402"><ele>2384</ele></trkpt>
<trkpt lat="36.78639" lon="137.79421"><ele>2383</ele></trkpt>
<trkpt lat="36.78651" lon="137.79457"><ele>2382</ele></trkpt>
<trkpt lat="36.78655" lon="137.79494"><ele>2382</ele></trkpt>
<trkpt lat="36.7866" lon="137.79505"><ele>2380</ele></trkpt>
<trkpt lat="36.78657" lon="137.79493"><ele>2381</ele></trkpt>
<trkpt lat="36.78659" lon="137.79506"><ele>2381</ele></trkpt>
<trkpt lat="36.78671" lon="137.7953"><ele>2378</ele></trkpt>
<trkpt lat="36.78673" lon="137.79561"><ele>2374</ele></trkpt>
<trkpt lat="36.78677" lon="137.79583"><ele>2373</ele></trkpt>
<trkpt lat="36.78675" lon="137.79608"><ele>2375</ele></trkpt>
<trkpt lat="36.78666" lon="137.7963"><ele>2375</ele></trkpt>
<trkpt lat="36.78652" lon="137.79643"><ele>2377</ele></trkpt>
<trkpt lat="36.78639" lon="137.7966"><ele>2379</ele></trkpt>
<trkpt lat="36.78629" lon="137.79686"><ele>2382</ele></trkpt>
<trkpt lat="36.78624" lon="137.79702"><ele>2385</ele></trkpt>
<trkpt lat="36.78622" lon="137.79718"><ele>2382</ele></trkpt>
<trkpt lat="36.78624" lon="137.7974"><ele>2380</ele></trkpt>
<trkpt lat="36.78626" lon="137.79765"><ele>2377</ele></trkpt>
<trkpt lat="36.78628" lon="137.79793"><ele>2377</ele></trkpt>
<trkpt lat="36.78623" lon="137.79817"><ele>2377</ele></trkpt>
<trkpt lat="36.7862" lon="137.79834"><ele>2379</ele></trkpt>
<trkpt lat="36.78615" lon="137.79857"><ele>2379</ele></trkpt>
<trkpt lat="36.78605" lon="137.79869"><ele>2384</ele></trkpt>
<trkpt lat="36.78594" lon="137.79881"><ele>2387</ele></trkpt>
<trkpt lat="36.78581" lon="137.79888"><ele>2390</ele></trkpt>
<trkpt lat="36.78564" lon="137.79896"><ele>2392</ele></trkpt>
<trkpt lat="36.78551" lon="137.79901"><ele>2396</ele></trkpt>
<trkpt lat="36.78538" lon="137.79917"><ele>2400</ele></trkpt>
<trkpt lat="36.78524" lon="137.79922"><ele>2402</ele></trkpt>
<trkpt lat="36.78511" lon="137.7993"><ele>2402</ele></trkpt>
<trkpt lat="36.78502" lon="137.79935"><ele>2405</ele></trkpt>
<trkpt lat="36.78487" lon="137.79945"><ele>2409</ele></trkpt>
<trkpt lat="36.7847" lon="137.79955"><ele>2411</ele></trkpt>
<trkpt lat="36.78452" lon="137.79952"><ele>2407</ele></trkpt>
<trkpt lat="36.78435" lon="137.7996"><ele>2407</ele></trkpt>
<trkpt lat="36.78424" lon="137.79971"><ele>2408</ele></trkpt>
<trkpt lat="36.78412" lon="137.7998"><ele>2412</ele></trkpt>
<trkpt lat="36.78398" lon="137.79982"><ele>2414</ele></trkpt>
<trkpt lat="36.78387" lon="137.79992"><ele>2419</ele></trkpt>
<trkpt lat="36.78373" lon="137.79996"><ele>2422</ele></trkpt>
<trkpt lat="36.7836" lon="137.80003"><ele>2426</ele></trkpt>
<trkpt lat="36.78346" lon="137.8002"><ele>2430</ele></trkpt>
<trkpt lat="36.78331" lon="137.80033"><ele>2434</ele></trkpt>
<trkpt lat="36.78322" lon="137.80045"><ele>2436</ele></trkpt>
<trkpt lat="36.7831" lon="137.80058"><ele>2440</ele></trkpt>
<trkpt lat="36.78299" lon="137.80077"><ele>2440</ele></trkpt>
<trkpt lat="36.78279" lon="137.80078"><ele>2442</ele></trkpt>
<trkpt lat="36.78269" lon="137.80098"><ele>2443</ele></trkpt>
<trkpt lat="36.78261" lon="137.8012"><ele>2445</ele></trkpt>
<trkpt lat="36.78251" lon="137.80138"><ele>2446</ele></trkpt>
<trkpt lat="36.78249" lon="137.80155"><ele>2448</ele></trkpt>
<trkpt lat="36.7826" lon="137.80184"><ele>2447</ele></trkpt>
<trkpt lat="36.78262" lon="137.80209"><ele>2447</ele></trkpt>
<trkpt lat="36.78265" lon="137.80238"><ele>2445</ele></trkpt>
<trkpt lat="36.78271" lon="137.80259"><ele>2446</ele></trkpt>
<trkpt lat="36.78274" lon="137.80283"><ele>2446</ele></trkpt>
<trkpt lat="36.7828" lon="137.80311"><ele>2445</ele></trkpt>
<trkpt lat="36.78288" lon="137.80332"><ele>2445</ele></trkpt>
<trkpt lat="36.78291" lon="137.80356"><ele>2445</ele></trkpt>
<trkpt lat="36.78304" lon="137.80378"><ele>2443</ele></trkpt>
<trkpt lat="36.78319" lon="137.80399"><ele>2439</ele></trkpt>
<trkpt lat="36.78321" lon="137.8042"><ele>2436</ele></trkpt>
<trkpt lat="36.78309" lon="137.80437"><ele>2434</ele></trkpt>
<trkpt lat="36.78295" lon="137.80453"><ele>2424</ele></trkpt>
<trkpt lat="36.78282" lon="137.80454"><ele>2421</ele></trkpt>
<trkpt lat="36.78266" lon="137.80458"><ele>2412</ele></trkpt>
<trkpt lat="36.78268" lon="137.80471"><ele>2406</ele></trkpt>
<trkpt lat="36.78261" lon="137.80479"><ele>2402</ele></trkpt>
<trkpt lat="36.78265" lon="137.80496"><ele>2396</ele></trkpt>
<trkpt lat="36.78271" lon="137.80504"><ele>2393</ele></trkpt>
<trkpt lat="36.78259" lon="137.80519"><ele>2385</ele></trkpt>
<trkpt lat="36.78259" lon="137.80536"><ele>2384</ele></trkpt>
<trkpt lat="36.78265" lon="137.80551"><ele>2382</ele></trkpt>
<trkpt lat="36.78271" lon="137.80566"><ele>2380</ele></trkpt>
<trkpt lat="36.7828" lon="137.80579"><ele>2377</ele></trkpt>
<trkpt lat="36.78289" lon="137.80581"><ele>2373</ele></trkpt>
<trkpt lat="36.78299" lon="137.80589"><ele>2369</ele></trkpt>
<trkpt lat="36.78309" lon="137.80601"><ele>2361</ele></trkpt>
<trkpt lat="36.78314" lon="137.80623"><ele>2351</ele></trkpt>
<trkpt lat="36.78319" lon="137.80637"><ele>2343</ele></trkpt>
<trkpt lat="36.78317" lon="137.80649"><ele>2337</ele></trkpt>
<trkpt lat="36.78323" lon="137.80659"><ele>2329</ele></trkpt>
<trkpt lat="36.78327" lon="137.80676"><ele>2320</ele></trkpt>
<trkpt lat="36.78325" lon="137.80688"><ele>2313</ele></trkpt>
<trkpt lat="36.78332" lon="137.80695"><ele>2311</ele></trkpt>
<trkpt lat="36.78332" lon="137.80706"><ele>2305</ele></trkpt>
<trkpt lat="36.78333" lon="137.80717"><ele>2297</ele></trkpt>
<trkpt lat="36.78329" lon="137.80733"><ele>2291</ele></trkpt>
<trkpt lat="36.78326" lon="137.80744"><ele>2286</ele></trkpt>
<trkpt lat="36.78326" lon="137.80761"><ele>2278</ele></trkpt>
<trkpt lat="36.78324" lon="137.80782"><ele>2270</ele></trkpt>
<trkpt lat="36.78318" lon="137.80798"><ele>2264</ele></trkpt>
<trkpt lat="36.7832" lon="137.80814"><ele>2258</ele></trkpt>
<trkpt lat="36.78314" lon="137.80829"><ele>2253</ele></trkpt>
<trkpt lat="36.78316" lon="137.8085"><ele>2246</ele></trkpt>
<trkpt lat="36.78317" lon="137.80867"><ele>2240</ele></trkpt>
<trkpt lat="36.78313" lon="137.80877"><ele>2237</ele></trkpt>
<trkpt lat="36.78314" lon="137.80889"><ele>2233</ele></trkpt>
<trkpt lat="36.78314" lon="137.80901"><ele>2230</ele></trkpt>
<trkpt lat="36.78309" lon="137.80914"><ele>2225</ele></trkpt>
<trkpt lat="36.78295" lon="137.80927"><ele>2221</ele></trkpt>
<trkpt lat="36.78305" lon="137.80943"><ele>2219</ele></trkpt>
<trkpt lat="36.78309" lon="137.8096"><ele>2216</ele></trkpt>
<trkpt lat="36.78317" lon="137.80975"><ele>2212</ele></trkpt>
<trkpt lat="36.78306" lon="137.80992"><ele>2207</ele></trkpt>
<trkpt lat="36.78308" lon="137.81008"><ele>2205</ele></trkpt>
<trkpt lat="36.78308" lon="137.8102"><ele>2203</ele></trkpt>
<trkpt lat="36.78305" lon="137.81043"><ele>2202</ele></trkpt>
<trkpt lat="36.78289" lon="137.81066"><ele>2200</ele></trkpt>
<trkpt lat="36.78275" lon="137.81096"><ele>2200</ele></trkpt>
<trkpt lat="36.78266" lon="137.81116"><ele>2198</ele></trkpt>
<trkpt lat="36.78253" lon="137.81123"><ele>2197</ele></trkpt>
<trkpt lat="36.78224" lon="137.81142"><ele>2197</ele></trkpt>
<trkpt lat="36.78209" lon="137.81174"><ele>2197</ele></trkpt>
<trkpt lat="36.78206" lon="137.81211"><ele>2194</ele></trkpt>
<trkpt lat="36.78205" lon="137.81249"><ele>2197</ele></trkpt>
<trkpt lat="36.78209" lon="137.81285"><ele>2197</ele></trkpt>
<trkpt lat="36.78192" lon="137.81311"><ele>2197</ele></trkpt>
<trkpt lat="36.78174" lon="137.81337"><ele>2194</ele></trkpt>
<trkpt lat="36.78171" lon="137.81358"><ele>2190</ele></trkpt>
<trkpt lat="36.78161" lon="137.81372"><ele>2186</ele></trkpt>
<trkpt lat="36.78158" lon="137.81389"><ele>2184</ele></trkpt>
<trkpt lat="36.78163" lon="137.81406"><ele>2178</ele></trkpt>
<trkpt lat="36.78155" lon="137.81423"><ele>2172</ele></trkpt>
<trkpt lat="36.78143" lon="137.81444"><ele>2168</ele></trkpt>
<trkpt lat="36.78131" lon="137.81462"><ele>2164</ele></trkpt>
<trkpt lat="36.78112" lon="137.81464"><ele>2159</ele></trkpt>
<trkpt lat="36.78094" lon="137.81462"><ele>2154</ele></trkpt>
<trkpt lat="36.78076" lon="137.81467"><ele>2152</ele></trkpt>
<trkpt lat="36.78066" lon="137.81488"><ele>2148</ele></trkpt>
<trkpt lat="36.78057" lon="137.81508"><ele>2145</ele></trkpt>
<trkpt lat="36.78049" lon="137.81531"><ele>2142</ele></trkpt>
<trkpt lat="36.78029" lon="137.8154"><ele>2138</ele></trkpt>
<trkpt lat="36.78011" lon="137.81542"><ele>2134</ele></trkpt>
<trkpt lat="36.77997" lon="137.81541"><ele>2128</ele></trkpt>
<trkpt lat="36.77979" lon="137.81534"><ele>2126</ele></trkpt>
<trkpt lat="36.77961" lon="137.81528"><ele>2121</ele></trkpt>
<trkpt lat="36.77944" lon="137.8151"><ele>2118</ele></trkpt>
<trkpt lat="36.7793" lon="137.81502"><ele>2112</ele></trkpt>
<trkpt lat="36.77914" lon="137.81508"><ele>2103</ele></trkpt>
<trkpt lat="36.77905" lon="137.81529"><ele>2097</ele></trkpt>
<trkpt lat="36.779" lon="137.81539"><ele>2093</ele></trkpt>
<trkpt lat="36.77894" lon="137.81559"><ele>2086</ele></trkpt>
<trkpt lat="36.77898" lon="137.81576"><ele>2079</ele></trkpt>
<trkpt lat="36.77892" lon="137.81598"><ele>2075</ele></trkpt>
<trkpt lat="36.77885" lon="137.81619"><ele>2073</ele></trkpt>
<trkpt lat="36.77875" lon="137.81628"><ele>2066</ele></trkpt>
<trkpt lat="36.77887" lon="137.81644"><ele>2063</ele></trkpt>
<trkpt lat="36.77899" lon="137.81663"><ele>2058</ele></trkpt>
<trkpt lat="36.77899" lon="137.81686"><ele>2053</ele></trkpt>
<trkpt lat="36.77906" lon="137.81701"><ele>2048</ele></trkpt>
<trkpt lat="36.77891" lon="137.81706"><ele>2039</ele></trkpt>
<trkpt lat="36.77874" lon="137.81699"><ele>2036</ele></trkpt>
<trkpt lat="36.77858" lon="137.81685"><ele>2033</ele></trkpt>
<trkpt lat="36.77839" lon="137.81684"><ele>2030</ele></trkpt>
<trkpt lat="36.77822" lon="137.81678"><ele>2025</ele></trkpt>
<trkpt lat="36.77808" lon="137.81679"><ele>2021</ele></trkpt>
<trkpt lat="36.77794" lon="137.81674"><ele>2015</ele></trkpt>
<trkpt lat="36.77779" lon="137.81678"><ele>2010</ele></trkpt>
<trkpt lat="36.77778" lon="137.81701"><ele>2004</ele></trkpt>
<trkpt lat="36.7778" lon="137.81718"><ele>2000</ele></trkpt>
<trkpt lat="36.77778" lon="137.81735"><ele>1992</ele></trkpt>
<trkpt lat="36.77785" lon="137.81749"><ele>1990</ele></trkpt>
<trkpt lat="36.77792" lon="137.81769"><ele>1987</ele></trkpt>
<trkpt lat="36.77795" lon="137.81789"><ele>1979</ele></trkpt>
<trkpt lat="36.77792" lon="137.81802"><ele>1975</ele></trkpt>
<trkpt lat="36.7777" lon="137.81801"><ele>1968</ele></trkpt>
<trkpt lat="36.77748" lon="137.81793"><ele>1962</ele></trkpt>
<trkpt lat="36.7773" lon="137.81788"><ele>1960</ele></trkpt>
<trkpt lat="36.77713" lon="137.81794"><ele>1955</ele></trkpt>
<trkpt lat="36.77694" lon="137.81803"><ele>1953</ele></trkpt>
<trkpt lat="36.77679" lon="137.81816"><ele>1949</ele></trkpt>
<trkpt lat="36.77664" lon="137.8183"><ele>1942</ele></trkpt>
<trkpt lat="36.77646" lon="137.81847"><ele>1938</ele></trkpt>
<trkpt lat="36.77635" lon="137.81859"><ele>1936</ele></trkpt>
<trkpt lat="36.77623" lon="137.81876"><ele>1932</ele></trkpt>
<trkpt lat="36.77605" lon="137.81886"><ele>1930</ele></trkpt>
<trkpt lat="36.7759" lon="137.81903"><ele>1927</ele></trkpt>
<trkpt lat="36.77584" lon="137.81924"><ele>1917</ele></trkpt>
<trkpt lat="36.77574" lon="137.81944"><ele>1914</ele></trkpt>
<trkpt lat="36.77564" lon="137.81964"><ele>1908</ele></trkpt>
<trkpt lat="36.77549" lon="137.81978"><ele>1906</ele></trkpt>
<trkpt lat="36.77537" lon="137.81963"><ele>1893</ele></trkpt>
<trkpt lat="36.77523" lon="137.81966"><ele>1889</ele></trkpt>
<trkpt lat="36.7751" lon="137.81967"><ele>1881</ele></trkpt>
<trkpt lat="36.77496" lon="137.81951"><ele>1872</ele></trkpt>
<trkpt lat="36.77508" lon="137.81919"><ele>1870</ele></trkpt>
<trkpt lat="36.77504" lon="137.81893"><ele>1864</ele></trkpt>
<trkpt lat="36.77489" lon="137.81879"><ele>1855</ele></trkpt>
<trkpt lat="36.7746" lon="137.81883"><ele>1853</ele></trkpt>
<trkpt lat="36.77433" lon="137.81891"><ele>1845</ele></trkpt>
<trkpt lat="36.77421" lon="137.81859"><ele>1847</ele></trkpt>
<trkpt lat="36.77409" lon="137.8185"><ele>1851</ele></trkpt>
</trkseg>
</trk>
</gpx>
